YMD,HHNN,STN,ID,LAT,LON,TMPF,SUSMPH,GUSTMPH,PKWNDMPH,MAXMPH,DWPF,'RAWOB'
20180104,1500,CAHR,HARRINGTON_CDA_CS,46.35,-63.17,32,15,21,23,23,29,'CAHR 041500Z AUTO 11013G18KT M00/M02 RMK AO1 PRESFR SOG 06 8063 PK WND 12020/1436 SLP164 T10011015 50002'
20180104,1500,CTCK,MOOSE_CREEK,45.25,-74.97,13,7,,,,11,'CTCK 041500Z AUTO 06006KT M10/M12 RMK AO1 SOG 28 5013 SLP111 T11031117'
20180104,1500,CWAF,ILE_ROUGE(MAPS),48.08,-69.55,17,13,18,,18,13,'CWAF 041500Z AUTO 05011G16KT M08/M10 RMK AO1 T10821103'
20180104,1500,CWAJ,ERIEAU_(MAPS),42.25,-81.90,,,,,,-9999,'CWAJ 041500Z AUTO RMK AO1'
20180104,1500,CWBA,BARRAGE_TEMISCAMINGUE,46.71,-79.10,-8,14,20,24,24,-12,'CWBA 041500Z AUTO 35012G17KT M22/M25 RMK AO1 SOG 25 PK WND 31021/1416 T12221246'
20180104,1500,CWBE,KILLARNEY_(MAPS),45.97,-81.48,-10,12,,22,22,-21,'CWBE 041500Z AUTO 36010KT M24/M29 RMK AO1 PK WND 01019/1434 SLP229 T12351293 50009'
20180104,1500,CWBS,LAC_ST_PIERRE,46.18,-72.92,16,15,,,,13,'CWBS 041500Z AUTO 02013KT M09/M11 RMK AO1 T10891106'
20180104,1500,CWBT,LONGUE_PT_DE_MONGUE,50.27,-64.23,15,6,,,,14,'CWBT 041500Z AUTO 06005KT M09/M10 RMK AO1 8019 SLP229 T10921102 50010'
20180104,1500,CWBY,PORT_MENIER_(MARS),49.83,-64.30,20,9,,,,19,'CWBY 041500Z AUTO 08008KT M06/M07 RMK AO1 2PAST HR SOG 22 8023 SLP208 P0001 T10641074 50004'
20180104,1500,CWBZ,ST_ANICET,45.12,-74.28,13,5,,,,10,'CWBZ 041500Z AUTO 04004KT M11/M12 RMK AO1 SLP109 T11051122 58019'
20180104,1500,CWCJ,PUKASKWA_PARK,48.60,-86.30,-22,5,,,,-28,'CWCJ 041500Z AUTO 05004KT M30/M34 RMK AO1 SOG 22 3007 SLP312 T13001336'
20180104,1500,CWCO,COLLINGWOOD_(AUT8),44.50,-80.22,8,18,26,29,29,5,'CWCO 041500Z AUTO 32016G23KT M13/M15 RMK AO1 PK WND 34025/1420 SLP155 T11321150 50002'
20180104,1500,CWDQ,LA_TUQUE,47.42,-72.80,11,6,,,,8,'CWDQ 041500Z AUTO 34005KT M12/M13 RMK AO1 SOG 35 6016 SLP140 T11191133'
20180104,1500,CWDT,CHUTE_DES_PASSES,49.83,-71.16,4,5,,,,-2,'CWDT 041500Z AUTO 10004KT M16/M19 RMK AO1 SLP173 T11581189 58010'
20180104,1500,CWDV,UPSALA_(MARS),49.03,-90.47,-30,2,,,,-36,'CWDV 041500Z AUTO 31002KT M34/M38 RMK AO1 SOG 21 2007 SLP334 T13431375'
20180104,1500,CWEP,EAST_POINT_(MARS),46.45,-61.97,34,21,28,28,28,30,'CWEP 041500Z AUTO 11018G24KT 01/M01 RMK AO1 PRESFR SOG 05 8056 PK WND 10024/1431 SLP186 T00111013'
20180104,1500,CWER,ILE_D'ORLEANS(AUT),47.00,-70.82,,21,28,30,30,-9999,'CWER 041500Z AUTO 05018G24KT RMK AO1 PK WND 04026/1427'
20180104,1500,CWEW,L'ASSOMPTION,45.82,-73.43,13,8,,,,9,'CWEW 041500Z AUTO 01007KT M10/M13 RMK AO1 SOG 21 8026 SLP120 T11041130'
20180104,1500,CWFQ,FRELIGHSBURG,45.05,-72.83,17,3,,,,3,'CWFQ 041500Z AUTO 02003KT M08/M16 RMK AO1 SOG 19 6032 SLP086 T10821159'
20180104,1500,CWGD,GODERICH_(AUTO8),43.77,-81.72,11,16,,22,22,6,'CWGD 041500Z AUTO 36014KT M12/M14 RMK AO1 2PAST HR SOG 07 0004 PK WND 35019/1440 SLP165 P0001 T11181144 50002'
20180104,1500,CWGL,LAGOON_CITY,44.53,-79.22,1,15,,23,23,-3,'CWGL 041500Z AUTO 33013KT M17/M20 RMK AO1 PK WND 32020/1421 SLP126 T11721195 58005'
20180104,1500,CWGR,ILES-DE-LA-MADELEINE,47.43,-61.76,31,20,26,28,28,26,'CWGR 041500Z AUTO 11017G23KT M01/M03 RMK AO1 PRESFR 8044 PK WND 11024/1400 SLP210 T10071031 50004'
20180104,1500,CWHP,HEATH_POINT_(MAPS),49.08,-61.70,30,25,,30,30,24,'CWHP 041500Z AUTO 15022KT M01/M04 RMK AO1 PK WND 15026/1454 SLP236 T10111043 58030'
20180104,1500,CWHQ,DESCHAMBAULT,46.68,-71.96,16,5,,,,13,'CWHQ 041500Z AUTO 05004KT M09/M11 RMK AO1 T10871106'
20180104,1500,CWHV,BEAUCEVILLE,46.20,-70.78,7,1,,,,4,'CWHV 041500Z AUTO 05001KT M14/M16 RMK AO1 SLP114 T11381156 56037'
20180104,1500,CWIG,ILE_AUX_GRUES,47.07,-70.53,,17,,23,23,-9999,'CWIG 041500Z AUTO 03015KT RMK AO1 PK WND 02020/1440'
20180104,1500,CWIP,POINTE_NOIRE,50.17,-66.43,18,12,17,,17,-9999,'CWIP 041500Z AUTO 05010G15KT M08/ RMK AO1 T1084'
20180104,1500,CWIS,CHARLEVOIX_(MRX),47.28,-70.63,8,13,52,61,61,6,'CWIS 041500Z AUTO 01011G45KT M14/M14 RMK AO1 SOG 56 8025 PK WND 34053/1431 SLP121 T11361144'
20180104,1500,CWIT,ST._CLOTHILDE_(AUT),45.17,-73.68,15,3,,,,9,'CWIT 041500Z AUTO 36003KT M10/M13 RMK AO1 SOG 22 6026 SLP098 T10971126 50005'
20180104,1500,CWIX,MISTOOK_(AUT),48.60,-71.71,1,7,,,,-4,'CWIX 041500Z AUTO 26006KT M17/M20 RMK AO1 SLP151 T11701199 58013'
20180104,1500,CWIZ,L'ACADIE,45.30,-73.35,11,3,,,,6,'CWIZ 041500Z AUTO 36003KT M12/M15 RMK AO1 SOG 25 T11161147'
20180104,1500,CWJB,STE_FOY_CS,46.78,-71.28,16,12,18,,18,-9999,'CWJB 041500Z AUTO 05010G16KT M09/ RMK AO1 SOG 11 T1085'
20180104,1500,CWJO,JONQUIERE(AUTO),48.41,-71.15,12,6,,,,6,'CWJO 041500Z AUTO 10005KT M11/M14 RMK AO1 SLP161 T11091144 58018'
20180104,1500,CWJT,ST_JOVITE_(AUTO8),46.07,-74.53,15,2,,,,11,'CWJT 041500Z AUTO 12002KT M10/M12 RMK AO1 SLP122 T10951115 55017'
20180104,1500,CWKG,KEJIMKUJIK_1,44.43,-65.20,35,14,24,28,28,34,'CWKG 041500Z AUTO 09012G21KT 02/01 RMK AO1 6PAST HR PRESFR SOG 08 8089 PK WND 10024/1447 SLP071 P0002 T00160009 50006'
20180104,1500,CWLS,MOUNT_FOREST,43.98,-80.75,2,7,,,,-1,'CWLS 041500Z AUTO 33006KT M17/M18 RMK AO1 SOG 24 8002 SLP154 T11681182'
20180104,1500,CWMJ,MANIWAKI,46.28,-76.00,14,2,,,,12,'CWMJ 041500Z AUTO 02002KT M10/M11 RMK AO1 SOG 24 6016 SLP111 T11001111'
20180104,1500,CWNC,COBOURG_(MARS),43.95,-78.17,13,12,21,21,21,7,'CWNC 041500Z AUTO 35010G18KT M10/M14 RMK AO1 SOG 03 5015 PK WND 34018/1450 SLP104 T11031141'
20180104,1500,CWNE,NORTH_CAPE,47.05,-64.00,,18,,25,25,-9999,'CWNE 041500Z AUTO 10016KT RMK AO1 PRESFR PK WND 11022/1429 58053'
20180104,1500,CWNH,RIVIERE_DU_LOUP,47.80,-69.55,10,2,,,,4,'CWNH 041500Z AUTO 09002KT M12/M15 RMK AO1 SOG 28 8031 SLP155 T11221154'
20180104,1500,CWNQ,NICOLET_(AUTO8),46.22,-72.65,15,7,,,,12,'CWNQ 041500Z AUTO 04006KT M09/M11 RMK AO1 SLP110 T10921113 58027'
20180104,1500,CWNZ,NAGAGAMI_(MARS),49.75,-84.16,-26,5,,,,-32,'CWNZ 041500Z AUTO 31004KT M32/M36 RMK AO1 SOG 30 1010 SLP309 T13211357'
20180104,1500,CWOC,NEW_CARLISLE1,48.02,-65.33,24,6,,,,21,'CWOC 041500Z AUTO 07005KT M05/M06 RMK AO1 0PAST HR 8027 SLP189 P0004 T10461060 50010'
20180104,1500,CWOD,NORMANDIN,48.83,-72.55,1,2,,,,-4,'CWOD 041500Z AUTO 29002KT M17/M20 RMK AO1 SOG 18 8007 SLP147 T11701198'
20180104,1500,CWPD,L'ETAPE,47.56,-71.23,7,2,,,,4,'CWPD 041500Z AUTO 02002KT M14/M15 RMK AO1 SLP133 T11401154 56018'
20180104,1500,CWPE,POINT_LEPREAU,45.06,-66.45,36,15,28,,28,34,'CWPE 041500Z AUTO 06013G24KT 02/01 RMK AO1 24 PRESFR SOG 06 8068 SLP088 T00230011'
20180104,1500,CWPK,PARENT_(MARS),47.92,-74.62,7,2,,,,3,'CWPK 041500Z AUTO 07002KT M14/M16 RMK AO1 4PAST HR SOG 38 6014 SLP126 P0002 T11381159 50004'
20180104,1500,CWQH,LENNOXVILLE,45.37,-71.82,11,2,,,,7,'CWQH 041500Z AUTO 02002KT M11/M14 RMK AO1 SOG 23 T11141137'
20180104,1500,CWQO,ILE_BICQUETTE,48.41,-68.90,16,6,,,,10,'CWQO 041500Z AUTO 06005KT M09/M12 RMK AO1 T10871121'
20180104,1500,CWQP,POINT_PETRE_(MARS),43.83,-77.15,17,9,,,,12,'CWQP 041500Z AUTO 36008KT M08/M11 RMK AO1 SOG 19 6011 SLP105 T10841112 50006'
20180104,1500,CWQR,ICE_AUX_PERROQUETS,50.22,-64.22,19,21,29,32,32,-9999,'CWQR 041500Z AUTO 07018G25KT M07/ RMK AO1 PK WND 08028/1437 T1069'
20180104,1500,CWRK,BANCROFT_AUTO8,45.07,-77.87,9,7,,,,4,'CWRK 041500Z AUTO 02006KT M13/M16 RMK AO1 SOG 29 6012 SLP108 T11261156'
20180104,1500,CWRN,HART_ISLAND_(MAPS),45.35,-60.98,36,25,33,37,37,31,'CWRN 041500Z AUTO 10022G29KT 02/M00 RMK AO1 PRESFR PK WND 09032/1424 SLP188 T00211003 58058'
20180104,1500,CWRZ,CAP_D'ESPOIR_(MAPS),48.42,-64.32,23,6,,,,22,'CWRZ 041500Z AUTO 03005KT M05/M06 RMK AO1 SLP197 T10491055 58024'
20180104,1500,CWSA,SABLE_ISLAND,43.93,-60.01,41,26,38,,38,39,'CWSA 041522Z AUTO 09023G32KT 5SM BR SCT041 OVC049 05/04 A2995 RMK PRESFR TS/LTNG TEMPO UNAVBL SLP142'
20180104,1500,CWSD,SUMMERSIDE_(AUTO8),46.43,-63.83,31,13,,21,21,28,'CWSD 041500Z AUTO 10011KT M01/M02 RMK AO1 PRESFR SOG 03 8061 PK WND 10018/1432 SLP156 T10071020'
20180104,1500,CWSF,CAP_MADELEINE(MAPS),49.25,-65.33,18,6,,,,13,'CWSF 041500Z AUTO 15005KT M08/M10 RMK AO1 SOG 14 8025 SLP195 T10801104'
20180104,1500,CWSG,CAP_CHAT_(MAPS),49.11,-66.65,10,2,,,,7,'CWSG 041500Z AUTO 12002KT M12/M14 RMK AO1 SLP186 T11201138 58024'
20180104,1500,CWSS,ST._STEPHEN_(MARS),45.20,-67.25,28,6,,,,26,'CWSS 041500Z AUTO 04005KT M02/M04 RMK AO1 PRESFR SOG 07 8067 SLP089 T10221035'
20180104,1500,CWST,LA_POCATIERE,47.35,-70.03,13,1,,,,5,'CWST 041500Z AUTO 07001KT M11/M15 RMK AO1 SOG 05 8026 SLP144 T11051150'
20180104,1500,CWTA,MC_TAVISH_(AUT),45.50,-73.58,13,7,,,,9,'CWTA 041500Z AUTO 01006KT M11/M13 RMK AO1 SOG 42 8028 SLP106 T11051128'
20180104,1500,CWTG,POINTE_DES_MONTS,49.32,-67.38,13,10,17,,17,10,'CWTG 041500Z AUTO 03009G15KT M11/M12 RMK AO1 SLP189 T11061124 58025'
20180104,1500,CWTN,CAP_TOURMENTE,47.07,-70.80,18,5,,,,10,'CWTN 041500Z AUTO 33004KT M08/M12 RMK AO1 SLP141 T10761122 58027'
20180104,1500,CWTY,TROIS_RIVIERES,46.35,-72.52,15,8,,,,14,'CWTY 041500Z AUTO 02007KT M09/M10 RMK AO1 SLP115 T10931101 58027'
20180104,1500,CWUX,LA_BAIE,48.30,-70.91,10,3,,,,5,'CWUX 041500Z AUTO 06003KT M12/M15 RMK AO1 SLP149 T11231149 58020'
20180104,1500,CWVU,BRIER_ISLAND,44.28,-66.34,38,24,31,31,31,36,'CWVU 041500Z AUTO 06021G27KT 03/02 RMK AO1 PRESFR PK WND 07027/1455 SLP053 T00320023 58097'
20180104,1500,CWWB,BURLINGTON_PIERS,43.30,-79.80,13,,,,,2,'CWWB 041500Z AUTO M11/M17 RMK AO1 19 8015 SLP137 T11081169'
20180104,1500,CWWE,WESTERN_HEAD_(MARS),43.98,-64.67,38,30,38,39,39,38,'CWWE 041500Z AUTO 08026G33KT 04/04 RMK AO1 PRESFR SOG 01 8099 PK WND 10034/1404 SLP059 T00350036'
20180104,1500,CWWX,COVE_ISLAND_(MAPS),45.33,-81.73,-1,21,,26,26,-3,'CWWX 041500Z AUTO 05018KT M18/M20 RMK AO1 PK WND 04023/1400 SLP195 T11811197 50006'
20180104,1500,CWWZ,PORT_WELLER_(MARS),43.25,-79.22,19,21,,29,29,14,'CWWZ 041500Z AUTO 32018KT M07/M10 RMK AO1 SOG 08 8007 PK WND 31025/1406 SLP132 T10711098'
20180104,1500,CWXC,ONATCHIWAY,48.88,-71.03,5,1,,,,1,'CWXC 041500Z AUTO 05001KT M15/M17 RMK AO1 2PAST HR 8012 SLP144 P0001 T11511173 50002'
20180104,1500,CWZQ,GRAND_ETANG,46.55,-61.05,34,38,53,,53,27,'CWZQ 041520Z AUTO 11033G45KT 01/M04 RMK AO1 T00101036'
20180104,1500,CWZS,AMQUI,48.47,-67.43,4,2,,,,0,'CWZS 041500Z AUTO 15002KT M15/M18 RMK AO1 SLP175 T11531178 58035'
20180104,1500,CXBO,BEAUPORT_CS,46.84,-71.20,,15,23,23,23,-9999,'CXBO 041500Z AUTO 07013G20KT RMK AO1 PK WND 07020/1459'
20180104,1500,CXCA,CAMERON_FALLS_(AUT),49.15,-88.35,-18,2,,,,-24,'CXCA 041500Z AUTO 31002KT M28/M31 RMK AO1 2PAST HR SOG 13 1008 SLP344 P0001 T12791309 50002'
20180104,1500,CXCH,CHETICAMP,46.65,-60.95,33,,,,,27,'CXCH 041500Z AUTO 01/M03 RMK AO1 SOG 24 T00071026'
20180104,1500,CXDI,DELHI_CS,42.87,-80.55,9,10,,,,2,'CXDI 041500Z AUTO 34009KT M13/M17 RMK AO1 8002 SLP147 T11291167 50002'
20180104,1500,CXEA,EAR_FALLS_(AUT),50.63,-93.21,-32,0,,,,-38,'CXEA 041500Z AUTO 00000KT M35/M39 RMK AO1 SOG 37 3007 SLP357 T13531388 50002'
20180104,1500,CXET,EGBERT_CS,44.23,-79.78,7,13,20,20,20,3,'CXET 041500Z AUTO 33011G17KT M14/M16 RMK AO1 SOG 13 8010 PK WND 32017/1457 SLP131 T11381163'
20180104,1500,CXHA,HARROW_CDA_AUTO,42.03,-82.90,11,6,,,,1,'CXHA 041500Z AUTO 36005KT M12/M17 RMK AO1 SOG 23 3009 SLP204 T11171170'
20180104,1500,CXIB,INGONISH_BEACH_CS,46.67,-60.40,32,6,,,,28,'CXIB 041500Z AUTO 16005KT M00/M02 RMK AO1 PRESFR SOG 10 8045 SLP239 T10021020'
20180104,1500,CXKA,KAPUKASING_CDA,49.41,-82.44,-25,6,,,,-31,'CXKA 041500Z AUTO 31005KT M31/M35 RMK AO1 2PAST HR SOG 18 3011 SLP298 P0001 T13141350 50002'
20180104,1500,CXKE,KEMPTVILLE_CS,45.00,-75.63,18,2,,,,13,'CXKE 041500Z AUTO 07002KT M08/M10 RMK AO1 SOG 22 5011 SLP105 T10781103'
20180104,1500,CXKI,KIRKLAND_LAKE_CS,48.15,-80.00,-21,,,,,-26,'CXKI 041500Z AUTO M29/M32 RMK AO1 SOG 23 1016 SLP238 T12921324'
20180104,1500,CXKT,KENTVILLE,45.07,-64.48,29,5,,,,28,'CXKT 041500Z AUTO 07004KT M02/M02 RMK AO1 PRESFR SOG 10 8076 SLP115 T10171020'
20180104,1500,CXLB,LUNENBERG,44.35,-64.30,40,30,37,37,37,40,'CXLB 041500Z AUTO 06026G32KT 04/04 RMK AO1 PRESFR PK WND 06032/1454 SLP079 T00420042 58086'
20180104,1500,CXMY,MALAY_FALLS,44.98,-62.48,37,,,,,35,'CXMY 041500Z AUTO 03/02 RMK AO1 T00250015'
20180104,1500,CXNM,NORTH_MOUNTAIN,46.82,-60.67,25,14,24,24,24,25,'CXNM 041500Z AUTO 11012G21KT M04/M04 RMK AO1 SOG 65 PK WND 11021/1453 T10411041 50006'
20180104,1500,CXNP,NAPPAN_AUTO,45.75,-64.23,29,6,,,,27,'CXNP 041500Z AUTO 04005KT M02/M03 RMK AO1 PRESFR SOG 09 8071 SLP138 T10161028'
20180104,1500,CXPC,PARRY_SOUND_CCG,45.34,-80.04,-4,,,,,-10,'CXPC 041500Z AUTO M20/M23 RMK AO1 SOG 28 8005 SLP155 T11991233'
20180104,1500,CXSH,SHAWINIGAN_CS,46.56,-72.73,14,6,,,,10,'CXSH 041500Z AUTO 03005KT M10/M12 RMK AO1 SLP121 T10991120 56025'
20180104,1500,CXTD,TRACADIE,45.61,-61.68,34,15,26,30,30,31,'CXTD 041500Z AUTO 10013G23KT 01/M01 RMK AO1 PRESFR SOG 02 8064 PK WND 12026/1439 SLP186 T00121008'
20180104,1500,CXTO,TORONTO,43.67,-79.40,12,,,,,2,'CXTO 041500Z AUTO M11/M16 RMK AO1 SOG 10 8012 SLP123 T11101164'
20180104,1500,CXVN,VINELAND_STATION_RCS,43.18,-79.40,16,15,24,25,25,8,'CXVN 041500Z AUTO 32013G21KT M09/M13 RMK AO1 SOG 08 8010 PK WND 31022/1423 SLP128 T10911133'
20180104,1500,CXZV,SEPT-ILES,50.22,-66.25,10,7,,,,8,'CXZV 041500Z AUTO 03006KT M12/M13 RMK AO1 SOG 72 8020 SLP205 T11201132'
20180104,1500,CYAH,LA_GRANDE_IV_ARPT,53.76,-73.68,-31,2,,,,-36,'CYAH 041500Z AUTO VRB02KT 9SM CLR M35/M38 A3012 RMK SLP255'
20180104,1500,CYAM,SAULT_STE_MARIE,46.48,-84.51,-15,6,,,,-24,'CYAM 041500Z 02005KT 15SM FEW020 M26/M31 A3026 RMK CU1 CU TR SLP272'
20180104,1500,CYBC,BAIE-COMEAU_AIRPORT,49.13,-68.20,18,13,18,,18,12,'CYBC 041515Z AUTO 08010KT 9SM -SN BKN012 BKN033 M08/M11 A3004 RMK SLP177'
20180104,1500,CYBG,BAGOTVILLE(CAN-MIL),48.33,-71.00,10,9,,,,7,'CYBG 041500Z 09008KT 15SM SCT080 OVC120 M12/M14 A2995 RMK AC4AC4 SLP155'
20180104,1500,CYBN,BORDEN,44.27,-79.91,7,14,,,,3,'CYBN 041536Z AUTO 32009G17KT 290V360 4SM BKN014 M14/M17 A2991'
20180104,1500,CYCX,GAGETOWN__(CAN-MIL),45.83,-66.43,21,6,,,,19,'CYCX 041500Z 02005KT 15SM SCT045 OVC090 M06/M07 A2988 RMK SC3AC5 DA-2254FT PRESFR SLP124'
20180104,1500,CYFC,FREDERICTON_AIRPORT,45.87,-66.53,21,8,,,,19,'CYFC 041500Z AUTO 34007KT 9SM FEW044 OVC120 M06/M07 A2989 RMK PRESFR SLP125'
20180104,1500,CYGK,KINGSTON_ARPT_(MAN),44.22,-76.60,18,9,,,,12,'CYGK 041500Z 34008KT 15SM SCT055 OVC076 M08/M11 A2981 RMK SC3AC5 SLP102'
20180104,1500,CYGL,LA_GRANDE_RIVIERE,53.63,-77.70,-24,3,,,,-31,'CYGL 041500Z 03003KT 15SM IC FEW220 M31/M35 A3021 RMK CI1 SLP265'
20180104,1500,CYGP,GASPE_AIRPORT,48.78,-64.48,10,2,,,,5,'CYGP 041500Z 28002KT 8SM -SN OVC014 M12/M15 A3013 RMK SC8 PRESFR SLP210'
20180104,1500,CYGQ,GERALDTON_AIRPORT,49.78,-86.93,-26,2,,,,-31,'CYGQ 041500Z 32002KT 15SM SKC M32/M35 A3033 RMK SLP326'
20180104,1500,CYGR,ILES_DE_LA_MADELEINE,47.42,-61.78,30,22,29,,29,27,'CYGR 041500Z 11019G25KT 20SM -SN SCT030 OVC160 M01/M03 A3016 RMK SC3AC5 PRESFR SLP214'
20180104,1500,CYGV,HAVRE_ST_PIERRE,50.28,-63.60,14,15,,,,12,'CYGV 041500Z AUTO 06013KT 1 1/2SM -SN OVC013 M10/M11 A3022 RMK PRESFR SLP237'
20180104,1500,CYHD,DRYDEN_AIRPORT,49.83,-92.75,-27,3,,,,-33,'CYHD 041500Z AUTO 27003KT 9SM CLR M33/M36 A3037 RMK SLP348'
20180104,1500,CYHM,HAMILTON_AIRPORT,43.17,-79.93,9,16,24,,24,1,'CYHM 041500Z 31014G21KT 15SM DRSN FEW020 FEW075 M13/M17 A2988 RMK CU1AC1 CU TR SLP137'
20180104,1500,CYHU,SAINT_HUBERT_ARPT,45.52,-73.42,12,9,,,,7,'CYHU 041500Z AUTO 01008KT 8SM BKN085 M11/M14 A2984 RMK SLP110'
20180104,1500,CYHZ,HALIFAX_INTL_ARPT,44.88,-63.52,36,17,,,,36,'CYHZ 041500Z 10019KT 6SM -RA BR OVC010 03/02 A2988 RMK NS8 CIG RAG PRESFR SLP125'
20180104,1500,CYKF,WATERLOO_WELLINGTON_ARPT,43.46,-80.38,7,10,18,,18,0,'CYKF 041530Z AUTO 32014G21KT 9SM CLR M14/M18 A2988 RMK SLP144'
20180104,1500,CYKL,SCHEFFERVILLE_ARPT,54.80,-66.82,-18,3,,,,-24,'CYKL 041500Z AUTO 15003KT 9SM CLR M28/M31 A3008 RMK SLP256'
20180104,1500,CYKZ,TORONTO_BUTTONVILLE,43.87,-79.37,9,18,24,,24,1,'CYKZ 041500Z 33016G21KT 15SM IC DRSN FEW015 FEW120 FEW230 M13/M17 A2986 RMK CU1AC1CI1 AC TR SLP126'
20180104,1500,CYLD,CHAPLEAU_ARPT(SAWR),47.82,-83.35,-24,9,,,,-31,'CYLD 041500Z 36008KT 15SM SKC M31/M35 A3016 RMK SLP280'
20180104,1500,CYMO,MOOSONEE_A,51.28,-80.60,-15,8,,,,-20,'CYMO 041500Z AUTO 32007KT 9SM CLR M26/M29 A3034 RMK SLP276'
20180104,1500,CYMT,CHIBOUGAMAU-CHAPAIS,49.77,-74.53,-6,6,,,,-11,'CYMT 041500Z AUTO 33005KT 9SM CLR M21/M24 A2987 RMK SLP161'
20180104,1500,CYMX,MONTREAL/MIRABEL,45.67,-74.03,14,3,,,,9,'CYMX 041500Z 05003KT 350V080 15SM -SN FEW030 BKN050 OVC100 M10/M13 A2985 RMK SC2SC3AC3 SLP118'
20180104,1500,CYNA,NATASHQUAN_AIRPORT,50.18,-61.82,16,13,,,,14,'CYNA 041532Z AUTO 08012KT 6SM -SN SCT019 OVC025 M09/M10 A3024 RMK SLP243'
20180104,1500,CYND,GATINEAU_AIRPORT,45.52,-75.57,16,8,,,,10,'CYND 041529Z 09006KT 2SM -SN OVC019 M09/M12 A2986 RMK SN2SC6 SLP118'
20180104,1500,CYNM,MATAGAMI_AIRPORT,49.77,-77.80,-17,10,,,,-22,'CYNM 041523Z AUTO 34008KT 5SM -SN BKN009 BKN055 OVC066 M27/M30 A3010 RMK ICG SLP230'
20180104,1500,CYOW,OTTAWA_INTL_AIRPORT,45.32,-75.67,14,8,,,,9,'CYOW 041500Z 04007KT 7SM -SN SCT011 BKN025 OVC075 M10/M13 A2984 RMK ST4SC1AC3 PRESRR SLP114'
20180104,1500,CYOY,VALCARTIER_AIRPORT,46.90,-71.50,14,3,,,,10,'CYOY 041500Z AUTO 06003KT 030V100 9SM BKN095 M10/M12 A2987 RMK SLP130'
20180104,1500,CYPL,PICKLE_LAKE(MAN),51.45,-90.22,-29,3,,,,-36,'CYPL 041500Z 29003KT 12SM IC SCT020 M34/M38 A3034 RMK SC3 SLP339'
20180104,1500,CYPQ,PETERBOROUGH_ARPT,44.23,-78.37,10,12,18,,18,5,'CYPQ 041500Z AUTO 31010G16KT 9SM -SN BKN019 M12/M15 A2983 RMK PRESRR SLP117'
20180104,1500,CYQA,MUSKOKA_AIRPORT,44.97,-79.30,0,9,,,,-6,'CYQA 041538Z AUTO 33013KT 1/4SM +SN M18/M21 A2986 RMK ICG CLD MISG SLP137'
20180104,1500,CYQB,QUEBEC_AIRPORT,46.80,-71.38,16,20,,,,10,'CYQB 041500Z 07017KT 30SM -SN FEW015 OVC100 M09/M12 A2990 RMK SC1AC7 SLP134'
20180104,1500,CYQG,WINDSOR_AIRPORT,42.27,-82.97,10,18,25,,25,0,'CYQG 041500Z 34016G22KT 10SM BKN032 M12/M18 A3009 RMK CU7 OCNL -SHSN SLP203'
20180104,1500,CYQI,YARMOUTH_AIRPORT,43.83,-66.09,37,18,30,,30,36,'CYQI 041500Z 08016G26KT 4SM -SHRA OVC010 03/02 A2959 RMK SF8 CVCTV CLD EMBD PRESFR SLP022'
20180104,1500,CYQM,MONCTON_AIRPORT,46.10,-64.69,27,13,,,,25,'CYQM 041534Z 07011KT 2 1/2SM BR OVC002 M02/M03 A2989 RMK SF8 PRESFR SLP127'
20180104,1500,CYQT,THUNDER_BAY_AIRPORT,48.37,-89.33,-18,8,,,,-26,'CYQT 041500Z 28007KT 20SM SKC M28/M32 A3044 RMK SLP335'
20180104,1500,CYQY,SYDNEY_AIRPORT,46.17,-60.05,34,22,30,,30,28,'CYQY 041500Z 12019G26KT 10SM -SN BKN014 BKN022 OVC043 01/M02 A3020 RMK ST5SC1SC2 SN VRY LGT PRESFR SLP231'
20180104,1500,CYRJ,ROBERVAL_AIRPORT,48.52,-72.27,0,3,,,,-6,'CYRJ 041500Z 32003KT 8SM -SN BKN044 OVC100 M18/M21 A2994 RMK SC5AC3 SLP160'
20180104,1500,CYSB,SUDBURY_AIRPORT,46.62,-80.80,-17,17,26,,26,-24,'CYSB 041500Z 36015G23KT 20SM DRSN FEW056 BKN180 M27/M31 A3002 RMK SC2CC3 SLP208'
20180104,1500,CYSC,SHERBROOKE_AIRPORT,45.43,-71.68,10,7,,,,5,'CYSC 041500Z AUTO 04006KT 9SM BKN050 M12/M15 A2977 RMK SLP101'
20180104,1500,CYSJ,SAINT_JOHN_AIRPORT,45.30,-65.87,32,15,24,,24,30,'CYSJ 041527Z 08015G23KT 2SM -SN DRSN BKN008 OVC013 01/M01 A2977 RMK SF5SC3 PRESFR SLP088'
20180104,1500,CYSN,ST._CATHARINES_ARPT,43.20,-79.17,16,14,,,,10,'CYSN 041500Z 32012KT 15SM DRSN BKN018 M09/M12 A2989 RMK SC7 SLP130'
20180104,1500,CYTL,BIG_TROUT_LAKE,53.82,-89.90,-27,8,,,,-35,'CYTL 041500Z AUTO 32007KT 9SM -SN BKN027 BKN038 M33/M37 A3043 RMK SLP347'
20180104,1500,CYTR,TRENTON_(CAN-MIL),44.12,-77.53,16,7,,,,12,'CYTR 041500Z 33006KT 10SM SCT056 BKN072 OVC200 M09/M11 A2984 RMK SC4AC1CI3 SLP113'
20180104,1500,CYTS,TIMMINS_AIRPORT,48.57,-81.38,-24,8,,,,-29,'CYTS 041500Z 31007KT 15SM FEW010 SCT060 BKN250 M31/M34 A3019 RMK SC2SC2CI2 SLP266'
20180104,1500,CYTZ,TORONTO_IL_ARPT_AUT,43.63,-79.40,12,12,22,,22,3,'CYTZ 041500Z AUTO 33010G19KT 290V360 9SM CLR M11/M16 A2988 RMK SLP125'
20180104,1500,CYUL,MONTREAL/DORVAL,45.47,-73.75,12,13,,,,9,'CYUL 041500Z 01011KT 12SM FEW045 OVC080 M11/M13 A2983 RMK SC1AC8 SC TR PRESFR SLP107'
20180104,1500,CYUY,ROUYN_AIRPORT,48.22,-78.83,-15,13,,,,-20,'CYUY 041507Z 34012KT 10SM -SN SCT031 BKN084 OVC260 M26/M29 A3007 RMK SC4AC2CI2 SLP219'
20180104,1500,CYVO,VAL_D'OR_AIRPORT,48.05,-77.78,-9,14,,,,-15,'CYVO 041500Z 34012KT 10SM -SN SCT024 BKN260 M23/M26 A2997 RMK SC3CI4 SLP187'
20180104,1500,CYVV,WIARTON_AIRPORT,44.75,-81.10,3,10,17,,17,0,'CYVV 041500Z 36007G19KT 290V040 5/8SM -SN BLSN BKN006 M16/M18 A3000 RMK SN2ST5 SLP176'
20180104,1500,CYWA,PETAWAWA_ARPT,45.95,-77.32,3,12,,,,-2,'CYWA 041515Z AUTO 31009KT 9SM SCT013 M16/M19 A2990'
20180104,1500,CYWK,WABUSH_LAKE_AIRPORT,52.93,-66.87,-18,2,,,,-24,'CYWK 041500Z VRB02KT 15SM -SN SCT050 BKN070 OVC082 M28/M31 A3005 RMK SC3AC2AS3 SLP253'
20180104,1500,CYXL,SIOUX_LOOKOUT_ARPT,50.11,-91.90,-33,2,,,,-38,'CYXL 041500Z VRB02KT 10SM OVC020 M36/M39 A3038 RMK SC8 BR SLP355'
20180104,1500,CYXR,EARLTON_AIRPORT,47.70,-79.85,-17,15,22,,22,-24,'CYXR 041500Z AUTO 32013G19KT 9SM SCT029 M27/M31 A3013 RMK ICG SLP233'
20180104,1500,CYXU,LONDON_AIRPORT,43.03,-81.15,10,10,,,,1,'CYXU 041500Z 34009KT 10SM SCT040 M12/M17 A2994 RMK SC3 SLP161'
20180104,1500,CYXZ,WAWA_AIRPORT,47.97,-84.78,-22,6,,,,-29,'CYXZ 041500Z 06005KT 15SM FEW022 FEW070 FEW200 M30/M34 A3028 RMK SC1AC1CS1 SC TR AC TR CS TR SLP297'
20180104,1500,CYYB,NORTH_BAY_AIRPORT,46.36,-79.42,-11,15,23,,23,-17,'CYYB 041500Z 35013G20KT 4SM IC BLSN SCT026 BKN070 M24/M27 A2992 RMK SC4AC3 PARAHELIA SLP170'
20180104,1500,CYYG,CHARLOTTETOWN_ARPT,46.29,-63.13,32,15,22,,22,30,'CYYG 041500Z 11013G19KT 15SM OVC008 00/M01 A3002 RMK SC8 PRESFR SLP169'
20180104,1500,CYYR,GOOSE_BAY_AIRPORT,53.32,-60.42,5,8,,,,-4,'CYYR 041500Z 25007KT 15SM FEW030 FEW050 BKN160 BKN250 M15/M20 A3032 RMK CF1SC1AC5CI1 SLP272'
20180104,1500,CYYU,KAPUSKASING_AIRPORT,49.42,-82.47,-24,10,,,,-31,'CYYU 041500Z 34009KT 7SM IC FEW047 FEW260 M31/M35 A3028 RMK SC1CI1 SLP290'
20180104,1500,CYYY,MONT_JOLI_AIRPORT,48.60,-68.22,10,8,,,,5,'CYYY 041500Z 08007KT 15SM FEW020 SCT100 OVC180 M12/M15 A3003 RMK SC1AC4AC4 SC TR SLP175'
20180104,1500,CYYZ,TORONTO/PEARSON,43.67,-79.60,12,21,26,,26,1,'CYYZ 041500Z 32018G23KT 15SM FEW025 FEW080 SCT230 M11/M17 A2987 RMK CU1AC1CI1 SLP128'
20180104,1500,CYZE,GORE_BAY_AIRPORT,45.88,-82.57,-13,14,,,,-20,'CYZE 041500Z AUTO 36012KT 9SM CLR M25/M29 A3016 RMK SLP236'
20180104,1500,CYZR,SARNIA_AIRPORT,43.00,-82.31,5,18,30,,30,0,'CYZR 041500Z AUTO 30016G26KT 9SM CLR M15/M18 A3005 RMK ICG SLP192'
20180104,1500,CYZV,SEPT-ILES_AIRPORT,50.22,-66.27,10,12,,,,5,'CYZV 041500Z 04010KT 10SM -SN BKN014 OVC075 M12/M14 A3012 RMK SC7AC1 SLP208'
20180104,1500,CYZX,GREENWOOD_(CAN-MIL),44.98,-64.92,30,14,,,,28,'CYZX 041531Z 05015KT 2SM -SHSN BKN005 OVC012 M01/M02 A2977 RMK SF5SC3 PRESFR WNDY HILL UNAVBL SLP084'
20180104,1500,CZBF,BATHURST_ARPT(AWRS),47.63,-65.75,18,3,,,,14,'CZBF 041500Z CCA 02003KT 7SM -SG OVC010 M08/M10 A3005 RMK ST8 PRESFR SLP184'
20180104,1500,CZCR,CHARLO_AUTO,47.98,-66.33,19,6,,,,14,'CZCR 041500Z AUTO 12005KT M08/M10 RMK AO1 SOG 28 8031 SLP183 T10751098'
20180104,1500,CZDB,DEBERT,45.42,-63.47,35,13,,20,20,32,'CZDB 041500Z AUTO 09011KT 01/M00 RMK AO1 PRESFR SOG 03 8073 PK WND 08017/1442 SLP143 T00141001'
20180104,1500,CZTB,THUNDER_BAY,48.37,-89.33,-18,5,,,,-26,'CZTB 041500Z AUTO 25004KT M28/M32 RMK AO1 SOG 04 0004 SLP334 T12791322'
20180104,1500,CZUM,CHURCHILL_FALLS,53.56,-64.09,-11,0,,,,-17,'CZUM 041500Z AUTO 00000KT 9SM CLR M24/M27 A3013 RMK SLP260'
20180104,1500,CXHF,HIGH_FALLS,45.84,-75.65,15,,,,,12,'CXHF 041500Z AUTO M09/M11 RMK AO1 T10921110'
20180104,1500,CYKQ,WASKAGANISH_AIRPORT,51.48,-78.75,-13,5,,,,-18,'CYKQ 041500Z 36004KT 320V020 10SM FEW020 FEW260 M25/M28 A3027 RMK SC1CI1 SLP254'
20180104,1500,CMGB,GRANBY,45.37,-72.77,17,1,,,,8,'CMGB 041530Z AUTO 36002KT M09/M13 RMK AO1 SOG 24 6034 SLP098 T10931130'
20180104,1500,EYW,KEY_WEST_INTL_ARPT_(ASOS),24.55,-81.75,56,14,22,,22,47,'KEYW 041505Z 04010KT 10SM BKN029 BKN037 13/08 A3018 RMK AO2 T01280078'
20180104,1500,NQX,KEY_WEST_NAS,24.57,-81.68,54,15,,,,47,'KNQX 041453Z 03013KT 10SM SCT030 BKN045 12/08 A3018 RMK AO2 SLP218 T01220083 51025 $'
20180104,1500,MTH,MARATHON_AIRPORT_(ASOS),24.73,-81.05,53,14,,,,37,'KMTH 041453Z AUTO 02012KT 10SM SCT041 12/03 A3018 RMK AO2 SLP218 T01170028 51026'
20180104,1500,MIA,MIAMI_INTL_AIRPORT_(ASOS),25.82,-80.28,50,10,22,,22,26,'KMIA 041453Z 35009G19KT 310V020 10SM FEW055 10/M03 A3018 RMK AO2 SLP219 T01001033 51020'
20180104,1500,OPF,MIAMI/OPA_LOCKA_(ASOS),25.90,-80.28,50,16,24,,24,27,'KOPF 041453Z 34014G21KT 10SM CLR 10/M03 A3018 RMK AO2 SLP221 T01001028 51020'
20180104,1500,FLL,FT_LAUDERDALE/HOLLY_(ASOS),26.07,-80.15,48,12,21,,21,27,'KFLL 041453Z 32010G18KT 10SM CLR 09/M03 A3017 RMK AO2 SLP216 T00891028 51022'
20180104,1500,HST,HOMESTEAD_AFB,25.48,-80.38,50,17,25,,25,30,'KHST 041456Z AUTO 35015G22KT 10SM CLR 10/M01 A3017 RMK AO2 SLP220 T01011010 52017'
20180104,1500,TMB,MIAMI/KENDALL-TAMIA_(ASOS),25.65,-80.43,50,17,,,,28,'KTMB 041453Z 36015KT 10SM CLR 10/M02 A3017 RMK AO2 SLP216 T01001022 51017'
20180104,1500,PBI,WEST_PALM_BEACH_(ASOS),26.68,-80.12,45,17,23,,23,19,'KPBI 041453Z 34015G20KT 10SM CLR 07/M07 A3017 RMK AO2 SLP217 T00721072 51020 $'
20180104,1500,APF,NAPLES_MUNICIPAL,26.15,-81.77,48,12,,,,23,'KAPF 041453Z 02010KT 10SM FEW049 09/M05 A3017 RMK AO2 SLP215 T00891050 50011'
20180104,1500,FXE,FORT_LAUDERDALE_(ASOS),26.20,-80.17,47,18,24,,24,24,'KFXE 041453Z 34016G21KT CLR 08/M04 A3018 RMK AO2 SLP220 T00831044 51022 $'
20180104,1500,MLB,MELBOURNE_REGIONAL_(ASOS),28.10,-80.65,45,13,,,,20,'KMLB 041453Z 29011KT 10SM CLR 07/M07 A3016 RMK AO2 SLP211 T00721067 51012'
20180104,1500,GIF,WINTER_HAVEN_(ASOS),28.05,-81.75,42,10,,,,17,'KGIF 041453Z AUTO 33009KT 10SM CLR 06/M08 A3019 RMK AO2 SLP221 T00561083 51013'
20180104,1500,VRB,VERO_BEACH_MUNI_(ASOS),27.65,-80.42,45,10,,,,22,'KVRB 041453Z 32009KT 10SM CLR 07/M06 A3017 RMK AO2 SLP216 T00721056 51017'
20180104,1500,TIX,TITUSVILLE,28.52,-80.80,43,14,,,,21,'KTIX 041450Z 27012KT 7SM SKC 06/M06 A3015'
20180104,1500,MCO,ORLANDO_JETPORT___(ASOS),28.43,-81.32,42,12,,,,17,'KMCO 041453Z 29010KT 10SM CLR 06/M08 A3016 RMK AO2 SLP213 T00561083 51010 $'
20180104,1500,ORL,ORLANDO/HERNDON___(ASOS),28.55,-81.33,42,13,,,,16,'KORL 041453Z 28011KT 10SM CLR 06/M09 A3015 RMK AO2 SLP217 T00561089 51009'
20180104,1500,BKV,BROOKSVILLE_(ASOS),28.47,-82.45,42,9,,,,20,'KBKV 041453Z 33008KT 10SM CLR 06/M07 A3020 RMK AO2 SLP225 T00561067 51016'
20180104,1500,OCF,OCALA_MUNI_(AWOS),29.17,-82.22,36,8,,,,17,'KOCF 041451Z 31007KT 10SM CLR 02/M08 A3018 RMK AO2 SLP224 T00221083 53015'
20180104,1500,DAB,DAYTONA_BEACH_RGNL_(ASOS),29.18,-81.05,39,9,,,,23,'KDAB 041453Z 28008KT 10SM CLR 04/M05 A3013 RMK AO2 SLP202 T00391050 51007'
20180104,1500,SFB,SANFORD/ORLANDO_(ASOS),28.78,-81.23,39,10,,,,18,'KSFB 041453Z 29009KT 10SM CLR 04/M08 A3015 RMK AO2 SLP210 T00391078 51008'
20180104,1500,JAX,JACKSONVILLE_INTL_(ASOS),30.50,-81.70,36,14,23,,23,18,'KJAX 041456Z 27012G20KT 10SM CLR 02/M08 A3010 RMK AO2 SLP193 T00221078 50010'
20180104,1500,NIP,JACKSONVILLE_NAS,30.23,-81.68,36,9,,,,14,'KNIP 041453Z 29008KT 10SM CLR 02/M10 A3012 RMK AO2 SLP194 T00221100 51013 $'
20180104,1500,NRB,MAYPORT_NS,30.40,-81.42,36,10,21,,21,16,'KNRB 041452Z 28009G18KT 10SM CLR 02/M09 A3009 RMK AO2 SLP189 T00221089 51008 $'
20180104,1500,CRG,JACKSONVILLE/CRAIG_(ASOS),30.33,-81.52,37,13,,,,13,'KCRG 041453Z 30011KT 10SM CLR 03/M11 A3011 RMK AO2 SLP194 T00281106 51010'
20180104,1500,SAV,SAVANNAH_MUNICIPAL_(ASOS),32.13,-81.20,30,13,,,,20,'KSAV 041453Z 27011KT 10SM CLR M01/M07 A3002 RMK AO2 SLP164 T10111067 51009'
20180104,1500,CHS,CHARLESTOWN_MUNI_(ASOS),32.90,-80.03,29,8,,,,18,'KCHS 041456Z 29007KT 10SM CLR M02/M08 A2996 RMK AO2 SLP145 T10171078 51014 $'
20180104,1500,NBC,BEAUFORT_MCAS,32.48,-80.72,31,10,,,,20,'KNBC 041456Z AUTO 28009KT 10SM CLR M01/M07 A2999 RMK AO2 SLP154 T10061067 51009 $'
20180104,1500,LHW,FT_STEWART/WRIGHT_&,31.88,-81.57,30,8,,,,18,'KLHW 041456Z AUTO 27007KT 10SM CLR M01/M08 A3001 RMK AO2 SLP166 T10131077 52009 $'
20180104,1500,FPR,FT_PIERCE/ST_LUCIE_(ASOS),27.50,-80.37,45,12,,,,20,'KFPR 041453Z 31010KT 10SM CLR 07/M07 A3017 RMK AO2 SLP214 T00721067 51016'
20180104,1500,SPG,SAINT_PETERSBURG_(ASOS),27.77,-82.63,46,9,,,,33,'KSPG 041453Z 05008KT 10SM FEW040 08/01 A3018 RMK AO2 SLP220 T00780006 51019'
20180104,1500,FMY,FORT_MYERS/PAGE_FLD_(ASOS),26.58,-81.87,49,8,,,,26,'KFMY 041453Z 02007KT 10SM CLR 09/M03 A3017 RMK AO2 SLP220 T00941033 50013'
20180104,1500,RSW,FT_MYERS/SW_FLORIDA_(ASOS),26.53,-81.75,47,8,,,,24,'KRSW 041453Z 05007KT 10SM CLR 08/M04 A3018 RMK AO2 SLP219 T00831044 50013'
20180104,1500,TPA,TAMPA_INTL_AIRPORT_(ASOS),27.97,-82.53,48,8,,,,28,'KTPA 041453Z 34007KT 10SM FEW045 09/M02 A3020 RMK AO2 SLP226 T00891022 51017'
20180104,1500,SRQ,SARASOTA-BRADENTON_(ASOS),27.40,-82.55,45,5,,,,28,'KSRQ 041453Z 05004KT 10SM BKN044 07/M02 A3018 RMK AO2 SLP218 T00721022 51015'
20180104,1500,PIE,SAINT_PETERSBURG_(ASOS),27.92,-82.68,46,5,,,,32,'KPIE 041453Z 01004KT 10SM SCT040 08/00 A3020 RMK AO2 SLP226 T00780000 51019'
20180104,1500,LAL,LAKELAND_REGIONAL,27.98,-82.02,39,10,,,,18,'KLAL 041450Z 34009KT 10SM SKC 04/M08 A3018'
20180104,1500,BOW,BARTOW_MUNICIPAL__&,27.95,-81.78,41,10,,,,14,'KBOW 041455Z 34009KT 10SM SKC 05/M10 A3018'
20180104,1500,AMG,ALMA/BACON_CO._(ASOS),31.53,-82.50,32,12,21,,21,12,'KAMG 041453Z AUTO 29010G18KT 10SM CLR 00/M11 A3007 RMK AO2 SLP183 T00001111 51009'
20180104,1500,BQK,BRUNSWICK/GLYNCO,31.25,-81.47,32,6,,,,23,'KBQK 041535Z AUTO 27005KT 10SM CLR 00/M03 A3007 RMK AO2'
20180104,1500,SSI,BRUNSWICK/MALCOLM_(ASOS),31.15,-81.38,32,17,22,,22,19,'KSSI 041453Z AUTO 27015G19KT CLR 00/M07 A3005 RMK AO2 SLP177 6//// T00001072 TSNO $'
20180104,1500,TLH,TALLAHASSEE_RGNL_(ASOS),30.38,-84.37,33,12,,,,12,'KTLH 041453Z 30010KT 10SM CLR 01/M11 A3020 RMK AO2 SLP226 T00061111 51020'
20180104,1500,GNV,GAINESVILLE_RGNL_(ASOS),29.68,-82.27,35,10,,,,16,'KGNV 041453Z 30009KT 260V320 10SM CLR 02/M09 A3019 RMK AO2 SLP225 T00171089 53017'
20180104,1500,ABY,ALBANY_MUNICIPAL,31.53,-84.18,33,13,22,,22,12,'KABY 041453Z 31011G19KT 10SM CLR 01/M11 A3017 RMK AO2 SLP217 T00061111 51013'
20180104,1500,VLD,VALDOSTA_REGIONAL_(ASOS),30.78,-83.28,34,6,,,,14,'KVLD 041453Z VRB05KT 10SM CLR 01/M10 A3013 RMK AO2 SLP214 T00111100 51012'
20180104,1500,MCN,MACON/LEWIS_WILSON_(ASOS),32.70,-83.65,31,18,,,,11,'KMCN 041453Z 30016KT 10SM CLR M01/M12 A3007 RMK AO2 SLP185 T10061117 51009'
20180104,1500,WRB,WARNER_ROBINS_AFB,32.63,-83.60,31,18,,,,11,'KWRB 041456Z 32016KT 10SM CLR 00/M12 A3007 RMK AO2A SLP188 T10031117 52010'
20180104,1500,AGS,AUGUSTA/BUSH_FIELD_(ASOS),33.37,-81.97,34,15,,,,12,'KAGS 041453Z 30013KT 10SM CLR 01/M11 A2998 RMK AO2 SLP154 T00111111 51014'
20180104,1500,ATL,ATLANTA_INTL_ARPT_(ASOS),33.65,-84.42,26,21,30,32,32,11,'KATL 041452Z 31018G26KT 10SM FEW200 M03/M12 A3005 RMK AO2 PK WND 31028/1432 SLP188 T10331117 53014'
20180104,1500,FTY,ATLANTA/FULTON_CO._(ASOS),33.78,-84.52,25,13,25,,25,11,'KFTY 041453Z 32011G22KT 10SM CLR M04/M12 A3008 RMK AO2 SLP193 T10391117 53014'
20180104,1500,PDK,ATLANTA/DEKALB_(ASOS),33.88,-84.30,24,20,28,35,35,9,'KPDK 041453Z 32017G24KT 10SM CLR M04/M13 A3005 RMK AO2 PK WND 32030/1428 SLP198 T10441128 51017'
20180104,1500,VPS,EGLIN_AFB/VALPARAIS,30.48,-86.53,33,12,20,,20,12,'KVPS 041455Z 35010G17KT 10SM CLR 00/M11 A3024 RMK AO2A SLP248 T00041110 50014 $'
20180104,1500,CEW,CRESTVIEW/BOB_SIKES_(ASOS),30.78,-86.52,32,15,22,,22,13,'KCEW 041453Z AUTO 34013G19KT 10SM CLR 00/M11 A3026 RMK AO2 SLP247 T00001106 51016'
20180104,1500,PNS,PENSACOLA_REGIONAL(ASOS),30.47,-87.18,34,16,22,,22,14,'KPNS 041453Z 34014G19KT 10SM CLR 01/M10 A3027 RMK AO2 SLP254 T00111100 51013'
20180104,1500,NPA,PENSACOLA_NAS,30.35,-87.32,33,13,20,,20,13,'KNPA 041456Z 33011G17KT 10SM FEW250 01/M11 A3028 RMK AO2 SLP255 T00061106 51012 $'
20180104,1500,MOB,MOBILE/BATES_FIELD_(ASOS),30.68,-88.25,32,10,,,,14,'KMOB 041456Z 33009KT 10SM FEW060 FEW250 00/M10 A3032 RMK AO2 SLP268 T00001100 53016 $'
20180104,1500,BFM,MOBILE_DOWNTOWN_(ASOS),30.63,-88.07,35,14,,,,15,'KBFM 041453Z 33012KT 10SM CLR 02/M09 A3032 RMK AO2 SLP268 T00171094 53013'
20180104,1500,ECP,PANAMA_CITY,30.36,-85.80,32,15,,,,15,'KECP 041453Z 32013KT 10SM CLR 00/M09 A3022 RMK AO2 SLP246 T00001094 50016'
20180104,1500,LSF,FORT_BENNING,32.33,-85.00,31,15,,,,12,'KLSF 041456Z AUTO 28013KT 10SM CLR 00/M11 A3015 RMK AO2 SLP218 T10051110 52013'
20180104,1500,CSG,COLUMBUS_METRO_ARPT_(ASOS),32.52,-84.93,30,16,,,,10,'KCSG 041451Z 34014KT 10SM CLR M01/M12 A3015 RMK AO2 SLP210 T10111122 53012'
20180104,1500,MGM,MONTGOMERY/DANNELLY_(ASOS),32.30,-86.40,30,15,22,,22,11,'KMGM 041453Z 32013G19KT 10SM CLR M01/M12 A3025 RMK AO2 SLP245 T10111117 53018'
20180104,1500,MXF,MAXWELL_AFB/MONTGOM,32.38,-86.37,30,12,,,,13,'KMXF 041456Z AUTO 31010KT 10SM CLR M01/M10 A3023 RMK AO2 SLP241 T10131104 52019 $'
20180104,1500,DHN,DOTHAN_MUNICIPAL,31.32,-85.45,31,14,23,,23,14,'KDHN 041453Z AUTO 29012G20KT 10SM M01/M10 A3021 RMK AO2 SLPNO 6//// T10061100'
20180104,1500,OZR,CAIRNS_AAF/OZARK,31.28,-85.72,30,14,18,,18,11,'KOZR 041456Z AUTO 30012G16KT 10SM CLR M01/M12 A3020 RMK AO2 SLP232 T10121116 52016'
20180104,1500,MGE,DOBBINS_AFB/MARIETT,33.92,-84.52,24,22,29,31,31,9,'KMGE 041456Z 31019G25KT 10SM CLR M04/M13 A3005 RMK AO2A PK WND 30027/45 SLP189 T10451129 52015 $'
20180104,1500,BHM,BIRMINGHAM_MUNI_(ASOS),33.57,-86.75,25,10,,,,12,'KBHM 041453Z 34009KT 10SM FEW250 M04/M11 A3024 RMK AO2 SLP247 T10391111 51015'
20180104,1500,AUO,AUBURN-OPELIKA_APT,32.62,-85.43,27,18,24,,24,13,'KAUO 041456Z AUTO 32016G21KT 10SM CLR M03/M11 A3014 RMK AO2 SLP234 T10281106 53013 FZRANO'
20180104,1500,GAD,GADSEN_MUNI_(AWOS),33.97,-86.08,25,8,,,,14,'KGAD 041456Z AUTO 30007KT 280V340 10SM CLR M04/M10 A3021 RMK AO2 SLP243 T10391100 51018 FZRANO'
20180104,1500,TCL,TUSCALOOSA_MUNI_(ASOS),33.22,-87.62,28,12,,,,14,'KTCL 041453Z 34010KT 10SM CLR M02/M10 A3030 RMK AO2 SLP261 T10221100 51015'
20180104,1500,ANB,ANNISTON/CALHOUN_CO_(ASOS),33.58,-85.85,26,5,,,,11,'KANB 041453Z AUTO VRB04KT 10SM CLR M03/M12 A3019 RMK AO2 SLP240 T10331117 51016'
20180104,1500,MSY,NEW_ORLEANS/MOISANT_(ASOS),29.98,-90.25,38,9,,,,20,'KMSY 041453Z 03008KT 10SM FEW250 03/M07 A3036 RMK AO2 SLP282 T00331067 51012'
20180104,1500,ARA,NEW_IBERIA/ACADIANA_(ASOS),30.03,-91.88,35,5,,,,21,'KARA 041453Z 02004KT 10SM CLR 02/M06 A3039 RMK AO2 SLP289 T00171061 53013'
20180104,1500,NEW,NEW_ORLEANS/LAKEFRO_(ASOS),30.05,-90.03,37,13,,,,18,'KNEW 041453Z 10SM CLR 03/M08 A3036 RMK AO2 SLP275 T00331078 51014'
20180104,1500,NBG,NEW_ORLEANS_NAS,29.83,-90.03,38,8,,,,20,'KNBG 041455Z 04007KT 10SM CLR 03/M07 A3035 RMK AO2 SLP276 6//// T00331067 51011 PNO $'
20180104,1500,BTR,BATON_ROUGE/RYAN_(ASOS),30.53,-91.15,34,7,,,,18,'KBTR 041453Z 03006KT 10SM CLR 01/M08 A3036 RMK AO2 SLP282 T00111078 51011'
20180104,1500,PTN,PATTERSON_MEMORIAL,29.72,-91.33,35,5,,,,20,'KPTN 041456Z AUTO 02004KT 10SM CLR 02/M07 A3038 RMK AO2 SLP290 T00171067 53013 FZRANO'
20180104,1500,MEI,MERIDIAN/KEY_FIELD_(ASOS),32.33,-88.75,30,13,,,,17,'KMEI 041458Z 35011KT 10SM CLR M01/M08 A3031 RMK AO2 SLP266 T10111083 53013'
20180104,1500,NMM,MERIDIAN_NAS/MCCAIN,32.55,-88.57,29,12,,,,15,'KNMM 041456Z 34010KT 10SM FEW250 M02/M09 A3031 RMK AO2 SLP278 T10171094 51010 $'
20180104,1500,PIB,PINE_BELT_RGNL_AWOS,31.47,-89.33,32,8,,,,18,'KPIB 041456Z AUTO 35007KT 10SM CLR 00/M08 A3033 RMK AO2 SLP275 T00001078 53015 FZRANO'
20180104,1500,JAN,JACKSON/THOMPSON_(ASOS),32.32,-90.08,30,10,,,,19,'KJAN 041454Z 36009KT 10SM CLR M01/M07 A3034 RMK AO2 SLP278 T10111072 53018'
20180104,1500,GLH,GREENVILLE_MUNI,33.48,-90.98,28,13,,,,15,'KGLH 041453Z 35011KT 10SM CLR M02/M09 A3038 RMK AO2 SLP298 T10221094 51017'
20180104,1500,MCB,MCCOMB/LEWIS_FIELD,31.18,-90.47,32,5,,,,15,'KMCB 041453Z AUTO 35004KT 10SM CLR 00/M09 A3033 RMK AO2 SLP271 T00001094 51013'
20180104,1500,GWO,GREENWOOD/LEFLORE_(ASOS),33.50,-90.08,26,8,,,,17,'KGWO 041453Z AUTO 01007KT 10SM CLR M03/M08 A3036 RMK AO2 SLP284 T10331083 51016'
20180104,1500,POE,FORT_POLK_(ARMY),31.05,-93.20,32,3,,,,17,'KPOE 041458Z AUTO 36003KT 10SM CLR 00/M08 A3038 RMK AO2 SLP293 T10021083 52015'
20180104,1500,LCH,LAKE_CHARLES_MUNI_(ASOS),30.12,-93.22,34,9,,,,21,'KLCH 041453Z 04008KT 10SM CLR 01/M06 A3039 RMK AO2 SLP299 T00111061 51019'
20180104,1500,LFT,LAFAYETTE_REGIONAL_(ASOS),30.20,-91.98,33,6,,,,22,'KLFT 041453Z 03005KT 10SM CLR 01/M06 A3038 RMK AO2 SLP288 T00061056 53014 $'
20180104,1500,MLU,MONROE_REGIONAL_(ASOS),32.52,-92.03,30,10,,,,18,'KMLU 041453Z 03009KT 10SM CLR M01/M08 A3040 RMK AO2 SLP295 T10111078 51016'
20180104,1500,ESF,ALEXANDRIA/ESLER_(ASOS),31.40,-92.30,32,0,,,,18,'KESF 041453Z AUTO 00000KT 10SM CLR 00/M08 A3038 RMK AO2 SLP289 T00001078 53015'
20180104,1500,ILM,WILMINGTON/NEW_HAN_(ASOS),34.27,-77.90,29,14,,,,16,'KILM 041453Z 28012KT 10SM CLR M02/M09 A2985 RMK AO2 SLP108 60000 T10171089 53028'
20180104,1500,POB,POPE_AFB,35.17,-79.02,29,10,,,,13,'KPOB 041456Z 31009KT 10SM CLR M02/M10 A2983 RMK AO2A SLP107 T10191105 52016 $'
20180104,1500,MQI,MANTEO/DARE_CO_RGNL,35.92,-75.70,27,21,33,,33,23,'KMQI 041525Z AUTO 33019G34KT OVC014 M03/M05 A2965 RMK AO2 T10331054 PWINO'
20180104,1500,RDU,RALEIGH-DURHAM_(ASOS),35.87,-78.78,27,13,26,,26,9,'KRDU 041451Z 30011G23KT 270V340 10SM FEW040 FEW250 M03/M13 A2980 RMK AO2 SLP096 T10281128 53019'
20180104,1500,GSB,SEYMOUR-JOHNSON_AFB,35.33,-77.97,30,15,22,,22,11,'KGSB 041456Z 29013G19KT 10SM CLR M01/M12 A2978 RMK AO2A SLPNO T10121119 CHINO RWY08 $'
20180104,1500,ISO,KINSTON/STALLINGS,35.33,-77.61,30,8,,,,16,'KISO 041456Z 28007KT 10SM CLR M01/M09 A2980 RMK AO2'
20180104,1500,RWI,ROCKY_MOUNT-WILSON_(ASOS),35.85,-77.90,27,15,,,,12,'KRWI 041453Z AUTO 30013KT 10SM CLR M03/M11 A2977 RMK AO2 SLP084 T10281111 51023'
20180104,1500,OAJ,JACKSONVILLE_(AWOS),34.83,-77.62,31,10,17,,17,20,'KOAJ 041456Z AUTO 29009G15KT 260V330 10SM CLR M01/M07 A2981 RMK AO2 SLP101 T10061067 51029 FZRANO'
20180104,1500,NTU,OCEANA_NAS/SOUCEK,36.82,-76.03,24,18,29,,29,20,'KNTU 041504Z AUTO 30017G25KT 1/2SM SN FZFG VV012 M05/M07 A2960 RMK AO2 P0000 T10501067 $'
20180104,1500,ORF,NORFOLK_INTL_ARPT_(ASOS),36.90,-76.20,24,13,24,,24,23,'KORF 041522Z 32012G24KT 1/2SM R05/2600V4000FT FZFG VV013 M04/M05 A2965 RMK AO2 T10441050'
20180104,1500,FKN,FRANKLIN/J_B_ROSE,36.70,-76.90,24,8,17,,17,20,'KFKN 041535Z AUTO 29010G15KT 2SM -SN BKN014 BKN020 OVC027 M04/M06 A2973 RMK AO2T10431065'
20180104,1500,NGU,NORFOLK_NAS/CHAMBER,36.93,-76.28,25,29,35,38,38,19,'KNGU 041528Z AUTO 31023G30KT 1/4SM HZ VV014 M04/M07 A2967 RMK AO2 PK WND 31033/1515 T10391067 PWINO FZRANO $'
20180104,1500,PHF,NEWPORT_NEWS_(ASOS),37.13,-76.50,24,17,31,35,35,18,'KPHF 041532Z 31017G30KT 3/4SM -SN VV018 M04/M08 A2967 RMK AO2 PK WND 29030/1526P0000 T10441078'
20180104,1500,FAF,FORT_EUSTIS/FELKER,37.13,-76.62,24,20,30,,30,19,'KFAF 041531Z AUTO 31020G26KT 7/8SM -SN VV012 M04/M07 A2965 RMK AO2 VIS 7/8V1 1/2 SNE02UPB02E11SNB11 SLP044 RVRNO $'
20180104,1500,NKT,CHERRY_POINT_MCAS,34.90,-76.88,36,15,25,,25,-9999,'KNKT 041454Z 28013G22KT 10SM UP CLR 02/ A2979 RMK AO2 RAE24UPB19SNB1357E07 SLP083 6//// T0022 51039 PNO $'
20180104,1500,EWN,NEW_BERN/CRAVEN_CO_(ASOS),35.07,-77.05,27,12,20,,20,21,'KEWN 041454Z AUTO 28010G17KT 10SM CLR M03/M06 A2978 RMK AO2 SLP085 T10281061 51035'
20180104,1500,NCA,NEW_RIVER_MCAS,34.72,-77.45,28,12,,,,19,'KNCA 041456Z AUTO 29010KT 10SM CLR M02/M07 A2981 RMK AO2 SLP097 T10221072 51032 PWINO FZRANO $'
20180104,1500,CAE,COLUMBIA_METRO_(ASOS),33.95,-81.12,34,12,18,,18,15,'KCAE 041456Z 31010G16KT 10SM CLR 01/M09 A2994 RMK AO2 SLP138 T00111094 51015'
20180104,1500,MMT,MCENTIRE_ANG_BASE,33.92,-80.80,31,7,,,,15,'KMMT 041456Z AUTO 28006KT 10SM CLR 00/M09 A2993 RMK AO2 SLP141 T10051094 52015 $'
20180104,1500,FLO,FLORENCE_REGIONAL_(ASOS),34.18,-79.72,27,9,,,,12,'KFLO 041453Z 28008KT 10SM CLR M03/M11 A2991 RMK AO2 SLP127 T10281111 52017'
20180104,1500,AHN,ATHENS_MUNICIPAL_(ASOS),33.95,-83.32,29,13,22,,22,11,'KAHN 041451Z 29011G19KT 10SM CLR M02/M12 A2998 RMK AO2 SLP162 T10171117 51014'
20180104,1500,GMU,GREENVILLE_DOWNTOWN_(ASOS),34.85,-82.35,31,8,,,,5,'KGMU 041453Z 29007KT 10SM CLR M01/M15 A2990 RMK AO2 SLP135 T10061150 53012'
20180104,1500,GSP,GREENVILLE/SPARTANB_(ASOS),34.90,-82.22,29,14,20,,20,7,'KGSP 041453Z 36012G17KT 10SM CLR M02/M14 A2991 RMK AO2 SLP136 T10171139 51013'
20180104,1500,AND,ANDERSON_CO_AIRPORT_(ASOS),34.50,-82.72,30,15,,,,10,'KAND 041456Z AUTO 29013KT 10SM CLR M01/M12 A2993 RMK AO2 SLP143 T10111122 53013'
20180104,1500,HSE,HATTERAS_(ASOS),35.22,-75.62,29,20,35,35,35,25,'KHSE 041451Z AUTO 31017G30KT 9SM -SN BKN019 OVC025 M02/M04 A2966 RMK AO2 PK WND 31030/1414 SLP042 P0001 60001 T10171039 51054 TSNO'
20180104,1500,CLT,CHARLOTTE/DOUGLAS_(ASOS),35.22,-80.95,30,13,,,,7,'KCLT 041452Z 31011KT 10SM FEW030 M01/M14 A2988 RMK AO2 SLP125 T10111139 53018'
20180104,1500,SOP,SOUTHERN_PINES_AWOS,35.23,-79.40,31,5,,,,14,'KSOP 041456Z AUTO VRB04KT 10SM CLR M01/M10 A2984 RMK AO2 SLP123 T10061100 53012 FZRANO'
20180104,1500,HKY,HICKORY_REGIONAL_(ASOS),35.73,-81.38,26,14,26,,26,4,'KHKY 041453Z 32012G23KT 10SM CLR M03/M16 A2985 RMK AO2 SLP111 T10331156 51016'
20180104,1500,AVL,ASHEVILLE_MUNICIPAL_(ASOS),35.43,-82.55,20,18,31,43,43,9,'KAVL 041530Z 35020G37KT 9SM UP BKN019 M07/M13 A2987 RMK AO2 PK WND 33037/1526 UPB1457SNB14E27 P0000 T10721133'
20180104,1500,GSO,GREENSBORO/PIEDMONT_(ASOS),36.08,-79.95,26,26,37,38,38,4,'KGSO 041454Z 32023G32KT 10SM FEW050 M03/M16 A2980 RMK AO2 PK WND 31033/1412 SLP098 T10331156 53012'
20180104,1500,TRI,BRISTOL/TRI-CITY__(ASOS),36.48,-82.40,18,10,,,,6,'KTRI 041453Z 34009KT 10SM FEW029 FEW038 BKN046 M08/M14 A3002 RMK AO2 SNB05E15 SLP172 P0000 60000 T10781144 53025'
20180104,1500,INT,WINSTON-SALEM/SMITH_(ASOS),36.13,-80.22,25,17,30,31,31,4,'KINT 041454Z 31015G26KT 10SM FEW046 M04/M16 A2984 RMK AO2 PK WND 32027/1430 SLP113 T10391156 53017'
20180104,1500,RMG,ROME/RUSSELL_(ASOS),34.35,-85.17,26,8,,,,11,'KRMG 041453Z AUTO 32007KT 10SM CLR M03/M12 A3014 RMK AO2 SLP210 T10331117 53014'
20180104,1500,HSV,HUNTSVILLE/MADISON_(ASOS),34.65,-86.77,21,13,,,,10,'KHSV 041453Z 34011KT 10SM CLR M06/M12 A3024 RMK AO2 SLP248 T10611122 51022'
20180104,1500,MSL,MUSCLE_SHOALS_RGNL_(ASOS),34.75,-87.62,20,10,,,,8,'KMSL 041453Z AUTO 33009KT 10SM CLR M07/M13 A3030 RMK AO2 SLP264 T10671133 51021'
20180104,1500,CHA,CHATTANOOGA/LOVELL_(ASOS),35.03,-85.20,22,16,,,,8,'KCHA 041453Z 33014KT 10SM SCT035 M06/M13 A3017 RMK AO2 SLP223 T10561133 53020'
20180104,1500,TYS,KNOXVILLE_MUNICIPAL_(ASOS),35.82,-83.98,22,14,,,,11,'KTYS 041453Z 01012KT 10SM SCT030 BKN042 M06/M12 A3010 RMK AO2 SNB13E20 SLP203 P0000 60000 T10561117 53018'
20180104,1500,CSV,CROSSVILLE_MEMORIAL,35.95,-85.08,12,13,,,,4,'KCSV 041453Z AUTO 34011KT 5SM HZ OVC021 M11/M16 A3009 RMK AO2 SNB13E41 SLP215 P0000 60000 T11111156 53023'
20180104,1500,BNA,NASHVILLE_METRO_(ASOS),36.13,-86.68,13,9,,,,3,'KBNA 041521Z 35009KT 10SM SCT021 M11/M16 A3031 RMK AO2 SNE19 P0000 T11061161'
20180104,1500,MQY,SMYRNA,36.02,-86.52,12,13,,,,5,'KMQY 041538Z 35011KT 10SM SCT020 M09/M15 A3032 RMK AO2'
20180104,1500,CBM,COLUMBUS_AFB,33.65,-88.45,24,14,,,,14,'KCBM 041456Z AUTO 31012KT 10SM CLR M04/M10 A3031 RMK AO2 SLP270 T10421102 51017 $'
20180104,1500,GTR,GOLDEN_TRI(AWOS),33.45,-88.58,26,13,,,,13,'KGTR 041456Z 35011KT 10SM CLR M03/M11 A3032 RMK AO2 SLP272 T10331106 50015'
20180104,1500,TUP,TUPELO/C.D._LEMONS_(ASOS),34.27,-88.77,22,16,22,,22,8,'KTUP 041453Z 34014G19KT 10SM CLR M06/M13 A3033 RMK AO2 SLP274 T10561133 51020'
20180104,1500,MEM,MEMPHIS_INTL_ARPT_(ASOS),35.05,-90.00,20,12,,,,7,'KMEM 041454Z 02009KT 10SM FEW150 FEW250 M06/M14 A3037 RMK AO2 SLP289 T10611139 51020 $'
20180104,1500,NQA,MEMPHIS_NAS,35.35,-89.87,18,12,,,,7,'KNQA 041450Z 35010KT 10SM FEW150 M08/M14 A3038'
20180104,1500,MKL,JACKSON/MCKELLAR_(ASOS),35.60,-88.92,16,14,,,,5,'KMKL 041453Z 35012KT 10SM CLR M09/M15 A3038 RMK AO2 SLP292 T10891150 51024'
20180104,1500,DYR,DYERSBURG(AWOS),36.00,-89.40,14,12,,,,5,'KDYR 041456Z AUTO 01010KT 10SM CLR M10/M15 A3040 RMK AO2 SLPNO T11001150 51021 FZRANO'
20180104,1500,LIT,LITTLE_ROCK/ADAMS_(ASOS),34.73,-92.23,27,7,,,,12,'KLIT 041453Z 01006KT 10SM BKN150 BKN250 M03/M11 A3041 RMK AO2 SLP304 T10281111 51017'
20180104,1500,LRF,LITTLE_ROCK_AFB,34.92,-92.15,26,6,,,,12,'KLRF 041456Z AUTO 02005KT 10SM CLR M04/M11 A3039 RMK AO2 SLP299 T10361113 52015'
20180104,1500,ARG,WALNUT_RIDGE_(AWOS),36.13,-90.92,17,13,,,,5,'KARG 041456Z AUTO 35011KT 10SM CLR M08/M15 A3043 RMK AO2 SLP310 T10831150 51021 FZRANO'
20180104,1500,JBR,JONESBORO_MUNICIPAL_(ASOS),35.83,-90.65,19,10,18,,18,6,'KJBR 041453Z AUTO 02009G16KT 10SM CLR M07/M14 A3041 RMK AO2 SLP299 T10721144 51018 $'
20180104,1500,HOT,HOT_SPRINGS_(ASOS),34.48,-93.10,31,0,,,,17,'KHOT 041453Z AUTO 00000KT 10SM CLR M01/M08 A3037 RMK AO2 SLP289 T10061083 51016'
20180104,1500,SGT,STUTTGART_(AWOS),34.60,-91.57,25,13,,,,13,'KSGT 041456Z AUTO 02011KT 10SM CLR M04/M11 A3041 RMK AO2 SLP301 T10391106 52016 FZRANO'
20180104,1500,PBF,PINE_BLUFF/GRIDER_(ASOS),34.18,-91.93,27,14,,,,14,'KPBF 041453Z AUTO 02012KT 10SM CLR M03/M10 A3040 RMK AO2 SLP296 T10281100 51014'
20180104,1500,ELD,EL_DORADO/GOODWIN_(ASOS),33.22,-92.80,30,6,,,,20,'KELD 041453Z AUTO 04005KT 10SM CLR M01/M07 A3039 RMK AO2 SLP293 T10111067 51016'
20180104,1500,HRO,HARRISON/BOONE_CO_(ASOS),36.27,-93.15,16,6,,,,9,'MHRO 041500Z 33010KT 9999 SCT020TCU 26/19 Q1020 A3012 NOSIG'
20180104,1500,BVX,BATESVILLE_(AWOS),35.73,-91.65,19,5,,,,7,'KBVX 041456Z AUTO VRB04KT 10SM CLR M07/M14 A3041 RMK AO2 SLP306 T10721139 53016 FZRANO'
20180104,1500,CGI,CAPE_GIRARDEAU_MUNI_(ASOS),37.23,-89.57,10,13,,,,0,'KCGI 041453Z 35011KT 10SM CLR M12/M18 A3041 RMK AO2 SLP303 T11221178 51019'
20180104,1500,RIC,RICHMOND/BYRD_FIELD_(ASOS),37.50,-77.33,26,22,26,,26,13,'KRIC 041454Z 34019G23KT 10SM BLSN BKN048 OVC060 M03/M11 A2971 RMK AO2 SNE12 SLP067 P0000 60002 T10331106 53018'
20180104,1500,PTB,PETERSBURG_(AWOS),37.18,-77.52,25,7,,,,16,'KPTB 041540Z AUTO 34010G15KT 7SM OVC043 M03/M09 A2974 RMK AO2'
20180104,1500,FVX,FARMVILLE,37.35,-78.43,29,6,,,,11,'KFVX 041535Z AUTO 36008G15KT 300V040 10SM CLR M01/M12 A2977 RMK AO2 T10151125'
20180104,1500,WAL,WALLOPS_ISLAND_STN_(ASOS),37.93,-75.48,24,24,39,45,45,22,'KWAL 041454Z AUTO 31021G34KT 1/2SM FZFG VV016 M04/M06 A2946 RMK AO2 PK WND 30039/1428 SLP972 60002 T10441056 53015 PWINO FZRANO'
20180104,1500,MFV,MELFA/ACCOMACK_ARPT,37.65,-75.77,26,33,45,,45,23,'KMFV 041535Z AUTO 31029G40KT 1/4SM SN OVC009 M04/M05 A2955 RMK AO2 T10381055'
20180104,1500,OFP,RICHMOND_(ASOS),37.70,-77.43,25,14,23,,23,10,'KOFP 041528Z AUTO 31011G22KT 2SM -SN OVC033 M04/M11 A2976 RMK AO2 SNB1456 P0000T10441106'
20180104,1500,IAD,WASHINGTON/DULLES_(ASOS),38.95,-77.45,23,24,38,39,39,11,'KIAD 041511Z 32019G34KT 2SM -SN FEW015 BKN033 OVC050 M06/M11 A2972 RMK AO2 PK WND 32034/1504 P0000 T10561106'
20180104,1500,EZF,SHANNON_ARPT,38.27,-77.45,25,23,32,,32,13,'KEZF 041535Z AUTO 33014G27KT 2 1/2SM -SN M04/M09 A2974 RMK AO2 SKY OBSCURED VIS1 1/2V4 T10451088'
20180104,1500,NYG,QUANTICO_MCAF,38.50,-77.30,26,23,33,40,40,11,'KNYG 041456Z 34020G29KT 10SM FEW050 OVC080 M03/M12 A2974 RMK AO2 PK WND 34035/1412 SLP071 60000 T10331117 53010'
20180104,1500,HEF,MANASSAS_MUNI(AWOS),38.72,-77.52,24,20,35,38,38,12,'KHEF 041532Z 33023G33KT 4SM -SN FEW022 SCT030 OVC035 M05/M10 A2974 RMK AO2 PK WND 32033/1531 FZRANO PNO $'
20180104,1500,DAA,FORT_BELVOIR/DAVISO,38.72,-77.18,24,17,31,,31,10,'KDAA 041535Z AUTO 31017G26KT 5SM BLSN BKN018 M05/M11 A2971 RMK AO2 SNB30 SLP065$'
20180104,1500,NHK,PATUXENT_RIVER_NAS,38.28,-76.40,23,30,38,46,46,19,'KNHK 041536Z AUTO 31023G32KT 1SM BR FEW019 OVC024 M05/M07 A2961 RMK AO2 PK WND 32040/1456 T10501072 PWINO FZRANO $'
20180104,1500,SBY,SALISBURY_REGIONAL_(ASOS),38.33,-75.52,23,24,32,43,43,21,'KSBY 041523Z 31024G37KT 1/2SM FZFG FEW012 BKN016 OVC021 M05/M07 A2948 RMK AO2 PK WND 32037/1515 T10501067'
20180104,1500,DCA,WASHINGTON/NATIONAL_(ASOS),38.85,-77.03,25,23,33,35,35,12,'KDCA 041525Z 32021G28KT 4SM -SN BKN044 OVC060 M04/M11 A2970 RMK AO2 PK WND 33030/1455 SNB10 T10391106 PNO $'
20180104,1500,OKV,WINCHESTER_RGNL,39.15,-78.15,21,17,28,,28,9,'KOKV 041535Z AUTO 32016G26KT 10SM OVC043 M06/M12 A2977 RMK AO2'
20180104,1500,JYO,LEESBURG/GODFREY,39.08,-77.57,27,21,30,,30,14,'KJYO 041535Z AUTO 34018G29KT 10SM -SN BKN036 OVC044 M03/M10 A2973 RMK AO2'
20180104,1500,MKJ,MARION_/_WYTHEVILLE,36.90,-81.35,15,10,25,,25,2,'KMKJ 041535Z AUTO 29014G24KT 10SM OVC030 M09/M17 A2985 RMK AO2 T10951174'
20180104,1500,VJI,ABINGTON,36.68,-82.03,17,8,,,,5,'KVJI 041535Z AUTO 33010G16KT 10SM BKN029 OVC035 M08/M14 A2995 RMK AO2 T10811145'
20180104,1500,BWI,BALTIMORE/WASH_INTL_(ASOS),39.18,-76.67,23,15,26,35,35,15,'KBWI 041454Z 32013G23KT 5SM -SN BLSN BKN041 OVC060 M05/M09 A2964 RMK AO2 PK WND33030/1413 SLP039 P0049 60127 T10501094 56009'
20180104,1500,HGR,HAGERSTOWN_REGIONAL_(ASOS),39.70,-77.73,23,21,25,31,31,9,'KHGR 041453Z 34018G22KT 10SM SCT037 BKN055 OVC075 M05/M13 A2973 RMK AO2 PK WND 32027/1400 SLP088 T10501128 55004'
20180104,1500,MTN,BALTIMORE/MARTIN,39.33,-76.42,25,23,36,,36,18,'KMTN 041445Z 30020G31KT 7SM OVC050 M04/M08 A2963'
20180104,1500,ACY,ATLANTIC_CITY_INTL_(ASOS),39.45,-74.57,25,28,48,48,48,24,'KACY 041454Z 33024G42KT 1/4SM -SN FZFG VV006 M04/M04 A2935 RMK AO2 PK WND 33042/1450 SNB06 SLP940 P0002 60003 T10391044 $'
20180104,1500,MIV,MILLVILLE_MUNICIPAL_(ASOS),39.37,-75.07,25,20,35,36,36,21,'KMIV 041512Z AUTO 32015G31KT 1/4SM FZFG VV010 M05/M06 A2943 RMK AO2 PK WND 33031/1507 T10501056 PWINO FZRANO $'
20180104,1500,PHL,PHILADELPHIA_INTL_(ASOS),39.88,-75.25,23,26,37,37,37,19,'KPHL 041454Z 33023G32KT 3/4SM R09R/3500V4500FT -SN BLSN OVC012 M05/M07 A2949 RMK AO2 PK WND 33032/1447 SLP986 P0002 60006 T10501072 57026'
20180104,1500,BLM,BELMAR-FARMDALE,40.18,-74.13,22,28,38,44,44,21,'KBLM 041456Z AUTO 33024G33KT 1/4SM +SN FZFG OVC004 M06/M06 A2937 RMK AO2 PK WND 33038/1358 SLP949 P0000 60000 T10561061 56037 FZRANO RVRNO'
20180104,1500,PNE,PHILADELPHIA_NE_(ASOS),40.08,-75.02,25,25,36,38,38,21,'KPNE 041518Z 33023G33KT 1/4SM HZ VV010 M04/M07 A2948 RMK AO2 PK WND 33033/1518 T10391067 RVRNO $'
20180104,1500,DOV,DOVER_AFB,39.13,-75.47,23,26,44,,44,23,'KDOV 041523Z 30021G31KT 5/8SM R19/3500V4000FT -SN BLSN BR VV013 M05/M05 A2946 RMK AO2A TWR VIS 1/2 CIG 009 RWY01 SLP980 $'
20180104,1500,ILG,WILMINGTON_AIRPORT_(ASOS),39.68,-75.60,23,26,33,38,38,19,'KILG 041451Z 33023G29KT 3/4SM R01/4500V6000FT -SN BR VV018 M05/M07 A2953 RMK AO2 PK WND 32033/1416 SLP999 P0000 60015 T10501072 58013'
20180104,1500,TTN,TRENTON/MERCER_CO._(ASOS),40.28,-74.82,24,21,33,41,41,20,'KTTN 041453Z 35018G29KT 1/4SM SN FZFG VV008 M04/M07 A2945 RMK AO2 PK WND 33036/1433 SNEMMB24 SLP968 P0000 60000 T10441067 58036 $'
20180104,1500,WRI,MCGUIRE_AFB,40.02,-74.60,25,28,35,,35,21,'KWRI 041526Z 32025G30KT 1/4SM BLSN VV004 M05/M06 A2937 RMK AO2A SLP947 $'
20180104,1500,MMU,MORRISTOWN_MUNI,40.80,-74.42,23,16,36,,36,21,'KMMU 041445Z 01014G31KT 1/4SM +SN BLSN VV008 M05/M06 A2950'
20180104,1500,LYH,LYNCHBURG/P._GLENN_(ASOS),37.33,-79.20,23,7,23,,23,1,'KLYH 041454Z VRB06G20KT 10SM CLR M05/M17 A2976 RMK AO2 SLP086 T10501172 53013'
20180104,1500,SHD,STAUNTON/SHENANDOAH,38.27,-78.90,21,16,26,,26,3,'KSHD 041535Z AUTO 34015G21KT 10SM OVC049 M05/M17 A2977 RMK AO2 T10551167'
20180104,1500,DAN,DANVILLE_REGIONAL_(ASOS),36.57,-79.33,,,,,,-9999,'KDAN 041453Z AUTO A2981 RMK AO2 SLPNO 6//// PWINO FZRANO'
20180104,1500,ROA,ROANOKE_MUNICIPAL_(ASOS),37.32,-79.97,21,31,43,43,43,1,'KROA 041454Z 33027G37KT 10SM SCT048 M06/M17 A2981 RMK AO2 PK WND 30037/1445 SLP108 T10611172 53005'
20180104,1500,BCB,VIRGINIA_TECH_ARPT,37.22,-80.42,17,17,32,,32,4,'KBCB 041535Z AUTO 30017G25KT 260V320 10SM OVC036 M08/M16 A2981 RMK AO2 T10851161'
20180104,1500,HSP,HOT_SPRINGS/INGALLS,37.95,-79.83,9,25,41,,41,-2,'KHSP 041535Z AUTO 31017G39KT 10SM OVC018 M13/M19 A2956 RMK AO2 T11271189'
20180104,1500,PSK,DUBLIN/NEW_RIV_VLLY,37.13,-80.68,18,23,28,,28,4,'KPSK 041535Z AUTO 31017G28KT 10SM OVC036 M08/M16 A2982 RMK AO2 T10801156'
20180104,1500,LNP,WISE/LONESOME_PINE,36.98,-82.53,12,8,,,,9,'KLNP 041535Z AUTO 30008G15KT 4SM BKN013 OVC018 M11/M13 A2994 RMK AO2 PWINO'
20180104,1500,BKW,BECKLEY_MEMORIAL_(ASOS),37.78,-81.12,10,16,22,,22,3,'KBKW 041535Z AUTO 31014G20KT 3/4SM -SN BKN014 BKN019 OVC025 M12/M16 A2985 RMK AO2 P0000 T11171156 TSNO'
20180104,1500,BLF,BLUEFIELD/MERCER_CO,37.30,-81.20,8,10,24,,24,3,'KBLF 041532Z AUTO 29014G23KT 1SM -SN VV015 M13/M17 A2983 RMK AO2 P0000 T11331167'
20180104,1500,LWB,LEWISBURG/GREENBRIE,37.87,-80.40,13,10,17,,17,5,'KLWB 041535Z AUTO 33009G18KT 4SM -SN SCT019 BKN024 OVC030 M10/M15 A2981 RMK AO2T11021151'
20180104,1500,CRW,CHARLESTON/KANAWHA_(ASOS),38.37,-81.60,16,15,24,,24,9,'KCRW 041454Z 30013G21KT 2SM -SN OVC017 M09/M13 A3003 RMK AO2 SLP181 P0000 60000 VIS N 1 T10891128 53005'
20180104,1500,EKN,ELKINS/RANDOLPH_FLD_(ASOS),38.88,-79.85,13,13,26,,26,5,'KEKN 041510Z AUTO 32010G18KT 280V360 1SM -SN VV015 M11/M14 A2983 RMK AO2 P0016 T11061144 TSNO'
20180104,1500,CKB,CLARKSBURG/BENEDUM_(ASOS),39.30,-80.23,17,10,,,,8,'KCKB 041516Z 31008KT 3SM -SN OVC021 M08/M13 A2991 RMK AO2 P0000 T10831133'
20180104,1500,MGW,MORGANTOWN/HART_FLD_(ASOS),39.65,-79.92,16,7,,,,9,'KMGW 041529Z 32008KT 7SM HZ BKN020 OVC028 M09/M13 A2990 RMK AO2 SNE23 P0000 T10891133'
20180104,1500,MRB,MARTINSBURG_RGNL,39.40,-77.98,22,15,30,33,33,9,'KMRB 041453Z 33013G26KT 10SM SCT038 BKN046 OVC100 M06/M13 A2976 RMK AO2 PK WND 31029/1428 SLP085 T10561128 55002'
20180104,1500,CVG,CINCINNATI/COVINGTO_(ASOS),39.05,-84.67,10,10,,,,5,'KCVG 041452Z 30009KT 8SM OVC048 M12/M15 A3017 RMK AO2 SLP230 60000 T11221150 53014'
20180104,1500,LEX,LEXINGTON/BLUEGRASS_(ASOS),38.03,-84.60,13,9,,,,5,'KLEX 041527Z 29008KT 9SM SCT015 OVC049 M11/M15 A3018 RMK AO2 T11061150'
20180104,1500,SDF,LOUISVILLE/STANDIFO_(ASOS),38.18,-85.73,11,7,,,,2,'KSDF 041456Z 31006KT 10SM SCT038 M12/M17 A3026 RMK AO2 SLP256 T11171167 51014'
20180104,1500,LOU,LOUISVILLE/BOWMAN_(ASOS),38.23,-85.67,13,9,,,,3,'KLOU 041453Z 29008KT 10SM BKN036 M11/M16 A3026 RMK AO2 SLP256 T11061161 51013'
20180104,1500,JKL,JACKSON/J._CARROLL_(ASOS),37.60,-83.32,12,6,,,,6,'KJKL 041515Z AUTO VRB05KT 3SM -SN OVC015 M11/M14 A3010 RMK AO2 P0000 T11061144'
20180104,1500,OWB,OWENSBORO/DAVIESS,37.73,-87.17,8,10,,,,2,'KOWB 041456Z 30009KT 10SM CLR M13/M17 A3034 RMK AO2 SLP291 T11331167 51018'
20180104,1500,FTK,FORT_KNOX/GODMAN__&,37.90,-85.97,9,8,,,,2,'KFTK 041456Z AUTO 28007KT 10SM CLR M13/M17 A3024 RMK AO2 SNB1356E33SNB42 SLP256 P0000 60000 T11281167 52016'
20180104,1500,LOZ,LONDON-CORBIN_ARPT_(ASOS),37.09,-84.07,13,10,18,,18,6,'KLOZ 041453Z AUTO 34009G16KT 5SM -SN FEW016 BKN023 OVC046 M11/M14 A3014 RMK AO2 SNB18 SLP222 P0000 60000 T11061144 53021'
20180104,1500,HTS,HUNTINGTON/TRI_STAT_(ASOS),38.37,-82.55,16,10,,,,7,'KHTS 041536Z 29008KT 2SM -SN OVC050 M09/M13 A3011 RMK AO2 SNE15B26 P0000 T10891133'
20180104,1500,PKB,PARKERSBURG/WILSON&,39.35,-81.43,17,12,17,,17,10,'KPKB 041535Z 30009KT 5SM -SN BKN020 BKN038 BKN050 M08/M13 A3005 RMK AO2 SNB34 P0000 T10831128'
20180104,1500,HLG,WHEELING/OHIO_CO._(ASOS),40.18,-80.65,14,20,26,32,32,6,'KHLG 041453Z 29017G23KT 5SM -SN OVC019 M10/M14 A2992 RMK AO2 PK WND 29028/1427 SNB46 SLP155 P0000 60000 T11001144 53001'
20180104,1500,CMH,PORT_COLUMBUS_INTL_(ASOS),40.00,-82.88,13,16,,,,6,'KCMH 041451Z 32014KT 9SM -SN BKN031 OVC042 M11/M14 A3008 RMK AO2 UPB47E50SNB00E15B51 SLP200 P0000 60000 T11061144 52011'
20180104,1500,LCK,RICKENBACKER_ANGB,39.82,-82.93,14,18,22,,22,7,'KLCK 041535Z AUTO 33015KT 10SM OVC032 M11/M15 A3010 RMK AO2 T11071150'
20180104,1500,ZZV,ZANESVILLE_MUNI_(ASOS),39.95,-81.90,15,9,,,,9,'KZZV 041525Z AUTO 33012G16KT 3SM -SN SCT019 SCT029 OVC036 M09/M14 A3003 RMK AO2P0000 T10941139'
20180104,1500,OSU,OHIO_ST_U/COLUMBUS_(ASOS),40.08,-83.07,11,17,,,,5,'KOSU 041453Z 31015KT 10SM OVC030 M12/M15 A3008 RMK AO2 SNB1355E20 SLP204 P0000 60000 T11171150 51014'
20180104,1500,DAY,DAYTON/JAMES_M_COX_(ASOS),39.90,-84.20,11,13,,,,7,'KDAY 041456Z 32011KT 5SM BR FEW020 BKN042 M12/M14 A3013 RMK AO2 SLP222 T11171139 51009'
20180104,1500,LUK,CINCINNATI/LUNKIN_(ASOS),39.10,-84.42,13,8,,,,5,'KLUK 041453Z 30007KT 9SM BR OVC050 M11/M15 A3022 RMK AO2 SLP240 T11061150 53012'
20180104,1500,EVV,EVANSVILLE_REGIONAL_(ASOS),38.05,-87.53,5,9,,,,0,'KEVV 041454Z 31008KT 10SM CLR M15/M18 A3033 RMK AO2 SLP280 T11501178 51010 $'
20180104,1500,MVN,MOUNT_VERNON_(AWOS),38.32,-88.87,9,0,,,,1,'KMVN 041456Z AUTO 00000KT 10SM CLR M13/M17 A3038 RMK AO2 SLP298 T11281172 53013 FZRANO'
20180104,1500,MDH,CARBONDALE/MURPHYSB_(ASOS),37.78,-89.25,7,10,,,,0,'KMDH 041452Z 34009KT 10SM CLR M14/M18 A3040 RMK AO2 SLP303 T11391178 53016'
20180104,1500,BLV,SCOTT_AFB/BELLEVILL,38.55,-89.85,6,6,,,,-3,'KBLV 041456Z AUTO 30005KT 10SM CLR M14/M19 A3038 RMK AO2 SLP301 T11441194 50008 $'
20180104,1500,MWA,MARION_REGIONAL,37.75,-89.02,9,8,,,,0,'KMWA 041448Z 34007KT 10SM SKC M13/M18 A3040'
20180104,1500,STL,ST._LOUIS/LAMBERT_(ASOS),38.75,-90.37,6,9,,,,-1,'KSTL 041451Z 32008KT 10SM FEW050 M14/M18 A3040 RMK AO2 SLP316 T11441183 51015'
20180104,1500,SUS,SPIRIT_OF_ST_LOUIS_(ASOS),38.67,-90.65,6,10,,,,-1,'KSUS 041454Z 32009KT 10SM CLR M14/M18 A3041 RMK AO2 SLP314 T11441183 51013'
20180104,1500,PAH,PADUCAH/BARKLEY___(ASOS),37.07,-88.77,11,9,,,,0,'KPAH 041453Z 35008KT 10SM CLR M12/M18 A3038 RMK AO2 SLP295 T11171178 53020'
20180104,1500,SME,SOMERSET(AWOS),37.06,-84.61,12,9,20,,20,5,'KSME 041515Z AUTO 36014G19KT 10SM SCT021 SCT033 M10/M15 A3022 RMK AO2'
20180104,1500,BAK,COLUMBUS/BALKALAR_&,39.27,-85.90,5,7,,,,-2,'KBAK 041445Z 32006KT 10SM BKN045 M15/M19 A3025'
20180104,1500,HNB,HUNTINGBURG,38.25,-86.95,7,8,,,,1,'KHNB 041456Z AUTO 32007KT 10SM CLR M14/M17 A3032 RMK AO2 SLP278 6//// T11391172 FZRANO'
20180104,1500,HUF,TERRE_HAUTE/HULMAN_(ASOS),39.45,-87.32,1,8,,,,-8,'KHUF 041453Z 30007KT 10SM CLR M17/M22 A3031 RMK AO2 SLP277 T11721222 53014'
20180104,1500,BMG,BLOOMINGTON/MONROE_(ASOS),39.15,-86.62,2,5,,,,-6,'KBMG 041453Z VRB04KT 10SM SCT024 M17/M21 A3025 RMK AO2 SLP262 T11671211 51016'
20180104,1500,IND,INDIANAPOLIS_INTL_(ASOS),39.73,-86.27,5,5,,,,-1,'KIND 041454Z 29004KT 10SM FEW011 BKN045 M15/M18 A3022 RMK AO2 SLP251 T11501183 51014'
20180104,1500,AID,ANDERSON_MUNICIPAL,40.12,-85.62,,12,,,,0,'KAID 041445Z 31010KT 10SM BKN045 N16/M18 A3019'
20180104,1500,LAF,LAFAYETTE/PURDUE_U_(ASOS),40.42,-86.93,-2,3,,,,-6,'KLAF 041454Z 25003KT 10SM CLR M19/M21 A3027 RMK AO2 SLP265 I3000 T11891211 51013'
20180104,1500,SPI,SPRINGFIELD/CAPITAL_(ASOS),39.85,-89.67,1,8,,,,-6,'KSPI 041452Z 32007KT 10SM CLR M17/M21 A3038 RMK AO2 SLP301 T11721211 53012 $'
20180104,1500,ALN,ALTON/ST_LOUIS_RGNL,38.90,-90.05,3,8,,,,-2,'KALN 041450Z 30007KT 10SM SKC M16/M19 A3040'
20180104,1500,UIN,QUINCY_MUNI/BALDWIN_(ASOS),39.95,-91.20,-1,7,,,,-6,'KUIN 041454Z AUTO 32006KT 10SM CLR M18/M21 A3039 RMK AO2 SLP310 T11831211 53010'
20180104,1500,BMI,BLOOMINGTON/NORMAL,40.48,-88.92,-2,13,,,,-8,'KBMI 041456Z 34011KT 10SM CLR M19/M22 A3032 RMK AO2 SLP297 T11891222 51010'
20180104,1500,SGF,SPRINGFLD_MUNI_(ASOS),37.23,-93.38,12,3,,,,5,'KSGF 041452Z 34003KT 10SM CLR M11/M15 A3036 RMK AO2 SLP302 T11111150 51011'
20180104,1500,COU,COLUMBIA_REGIONAL_(ASOS),38.82,-92.22,5,6,,,,-2,'KCOU 041454Z 34005KT 10SM CLR M15/M19 A3039 RMK AO2 SLP307 T11501189 51009'
20180104,1500,FAM,FARMINGTON_AIRPORT,37.77,-90.43,8,6,,,,0,'KFAM 041456Z AUTO 34005KT 10SM CLR M13/M18 A3036 RMK AO2 SLP298 T11331178 51014 FZRANO'
20180104,1500,IRK,KIRKSVILLE_REGIONAL_(ASOS),40.10,-92.55,1,5,,,,-4,'KIRK 041455Z AUTO 02004KT 10SM OVC100 M17/M20 A3039 RMK AO2 SLP317 T11721200 51007'
20180104,1500,VIH,ROLLA/VICHY_AIRPORT_(ASOS),38.13,-91.77,5,10,,,,-1,'KVIH 041453Z AUTO 34009KT 10SM CLR M15/M18 A3036 RMK AO2 SLP302 T11501183 51010'
20180104,1500,TBN,FORT_LEONARD_WOOD,37.73,-92.13,8,6,,,,0,'KTBN 041456Z AUTO 34005KT 10SM CLR M14/M18 A3034 RMK AO2 SLP300 T11361178 52012'
20180104,1500,JEF,JEFFERSON_CITY_ARPT_(ASOS),38.59,-92.16,6,6,,,,-3,'KJEF 041453Z 32005KT 10SM CLR M14/M19 A3044 RMK AO2 SLP307 T11441194 51009'
20180104,1500,AIZ,KAISER_MEM_(AWOS),38.10,-92.55,12,3,,,,4,'KAIZ 041456Z AUTO 32003KT 10SM CLR M11/M16 A3040 RMK AO2 SLP309 T11111156 51008 FZRANO'
20180104,1500,SZL,WHITEMAN_AFB,38.73,-93.55,6,3,,,,-3,'KSZL 041456Z 34003KT 10SM FEW250 M15/M19 A3037 RMK AO2A SLP305 T11471193 52011 $'
20180104,1500,EWR,NEWARK_INTL_AIRPORT_(ASOS),40.70,-74.17,23,30,37,40,40,21,'KEWR 041526Z 35024G35KT 1/4SM R04R/1800V2000FT SN BLSN VV006 M05/M06 A2941 RMK AO2 PK WND 35035/1525 P0004 T10501061 $'
20180104,1500,TEB,TETERBORO_AIRPORT_(ASOS),40.85,-74.07,23,23,33,36,36,20,'KTEB 041451Z 36020G29KT 1/8SM R06/1800V2000FT +SN FZFG VV007 M05/M07 A2944 RMK AO2 PK WND 35031/1358 SLP970 P0006 60012 T10501067 58027 $'
20180104,1500,OXC,OXFORD_(AWOS),41.48,-73.13,23,23,35,,35,21,'KOXC 041451Z 36020G30KT 1/8SM SN FG VV001 M05/M06 A2938 RMK AO2 PRESFR SLP974 P0003 60004 T10501061 58060'
20180104,1500,LGA,NEW_YORK/LA_GUARDIA_(ASOS),40.77,-73.90,22,37,49,51,51,20,'KLGA 041528Z 35026G35KT 1/4SM R04/2800V3500FT SN BLSN FZFG VV011 M05/M06 A2938 RMK AO2 PK WND 34044/1458 P0002 T10501061'
20180104,1500,ISP,ISLIP/MACARTHUR_(ASOS),40.80,-73.10,27,23,,40,40,27,'KISP 041456Z 36020KT 1/8SM R06/1400V1600FT +SN FZFG VV003 M03/M03 A2927 RMK AO2PK WND 01035/1408 PRESFR SLP914 SNINCR 3/7 P0002 60012 T10281028 58068 $'
20180104,1500,POU,POUGHKEEPSIE,41.63,-73.88,20,20,26,32,32,15,'KPOU 041453Z 36017G23KT 1/4SM HZ VV010 M07/M09 A2958 RMK AO2 PK WND 01028/1432 SNEMM SLP015 P0001 60001 T10671094 58031 $'
20180104,1500,HPN,WHITE_PLAINS,41.07,-73.70,20,28,44,44,44,18,'KHPN 041534Z 34026G38KT 1/4SM R16/2000V2600FT +SN FZFG VV003 M07/M08 A2936 RMK AO2 PK WND 34038/1528 P0000 T10671078 $'
20180104,1500,SWF,NEWBURGH/STEWART,41.50,-74.10,19,12,20,,20,19,'KSWF 041445Z 03010G17KT 1/2SM R09/2200FT SN OVC003 M07/M07 A2958 RMK PRESFR'
20180104,1500,BDR,BRIDGEPORT/SIKORSKI_(ASOS),41.17,-73.13,26,24,35,33,35,24,'KBDR 041520Z 34017G29KT 1/4SM FZFG VV005 M04/M05 A2934 RMK AO2 PK WND 34029/1517 T10391050 $'
20180104,1500,HVN,NEW_HAVEN/TWEED,41.27,-72.88,25,26,36,41,41,19,'KHVN 041537Z 36021G32KT 1/4SM R02/2000V3000FT FZFG VV006 M04/M06 A2931 RMK AO2 PK WND 01036/1511 SNB03SNEMM P0003 T10391056 $'
20180104,1500,GON,GROTON/NEW_LONDON,41.33,-72.05,26,26,37,44,44,23,'KGON 041533Z 36022G32KT 1/4SM R05/1800V2200FT SN FZFG VV006 M03/M04 A2919 RMK AO2 PK WND 35038/1521 PRESFR P0000 T10281044 $'
20180104,1500,SFZ,PAWTUCKET_(AWOS),41.92,-71.50,21,22,30,31,31,19,'KSFZ 041456Z AUTO 02020G26KT 1/4SM +SN FZFG BKN005 OVC009 M06/M07 A2936 RMK AO2PK WND 01027/1433 CIG 003V007 PRESFR SLP893 P0000 60000 T10561067 58054 FZRANO'
20180104,1500,BID,BLOCK_ISLAND_(AWOS),41.17,-71.58,28,26,43,49,49,28,'KBID 041456Z AUTO 01023G37KT M1/4SM +SN FZFG OVC003 M02/M02 A2919 RMK AO2 PK WND 01043/1428 TSB22E48 SLP889 P0002 60005 T10171017 56059 FZRANO'
20180104,1500,ACK,NANTUCKET_MEMORIAL_(ASOS),41.25,-70.07,41,33,54,54,54,41,'KACK 041453Z 03029G47KT 2SM R24/6000VP6000FT +RA BR OVC010 05/05 A2910 RMK AO2 PK WND 04047/1445 PRESFR SLP855 P0040 60084 T00500050 56113'
20180104,1500,PYM,PLYMOUTH_MUNICIPAL_(ASOS),41.92,-70.73,39,26,43,43,43,36,'KPYM 041452Z AUTO 04023G37KT 2 1/2SM RA BR OVC013 04/02 A2935 RMK AO2 PK WND 04037/1447 PRESFR SLP940 P0019 60032 T00390022 56075'
20180104,1500,EWB,NEW_BEDFORD_MUNI_(ASOS),41.68,-70.97,37,26,38,40,40,-9999,'KEWB 041527Z 03018G33KT 1 1/4SM R05/4000VP6000FT -SN OVC009 01/ A2919 RMK AO2 PK WND 03035/1500 RAE15SNB15 P0024 T0011 $'
20180104,1500,MVY,MARTHAS_VINEYARD_(ASOS),41.40,-70.62,39,29,41,49,49,39,'KMVY 041515Z 02026G43KT 1 3/4SM -SN BR OVC008 03/03 A2913 RMK AO2 PK WND 02043/1512 RAE13SNB13 P0015 T00280028 $'
20180104,1500,HYA,HYANNIS/POLANDO_FLD_(ASOS),41.67,-70.28,38,23,44,36,44,36,'KHYA 041517Z 03018G31KT 1 3/4SM +RA BR BKN008 OVC013 03/03 A2916 RMK AO2 PK WND04031/1508 PRESFR P0008 T00330028'
20180104,1500,CQX,CHATHAM_MUNI_ARPT_(ASOS),41.68,-70.00,41,23,40,46,46,40,'KCQX 041533Z AUTO 04023G37KT 2SM RA BR FEW009 BKN014 OVC021 05/04 A2913 RMK AO2PK WND 04040/1511 PRESFR P0015 T00500044 TSNO'
20180104,1500,PVD,PROVIDENCE/GREEN_(ASOS),41.73,-71.43,27,28,43,45,45,26,'KPVD 041512Z 01030G39KT 1/4SM R05/1200V2000FT +SN FZFG VV004 M03/M04 A2926 RMK AO2 PK WND 02039/1509 PRESFR P0001 T10331039 $'
20180104,1500,PVC,PROVINCETOWN_(AWOS),42.07,-70.22,,,,,,-9999,'KPVC 041456Z AUTO RMK AO2 SLPNO 6//// PWINO FZRANO $'
20180104,1500,BDL,HARTFORD/BRADLEY_(ASOS),41.93,-72.68,20,18,,30,30,18,'KBDL 041506Z 36018G26KT 1/8SM R06/1800V2200FT +SN BLSN FZFG VV004 M07/M08 A2949RMK AO2 PK WND 01026/1504 TWR VIS 1/2 PRESFR P0003 T10671078'
20180104,1500,IJD,WILLIMANTIC_(ASOS),41.73,-72.18,27,18,28,,28,24,'KIJD 041452Z AUTO 01016G24KT 1/4SM +SN FZFG VV005 M03/M04 A2940 RMK AO2 PRESFR SLP959 P0004 60006 T10281044 58043'
20180104,1500,DXR,DANBURY_MUNICIPAL_(ASOS),41.37,-73.48,21,8,,,,17,'KDXR 041501Z 35008G17KT 1/4SM FZFG VV003 M07/M08 A2946 RMK AO2 P0001 T10671083 $'
20180104,1500,HFD,HARTFORD/BRAINARD_(ASOS),41.73,-72.65,20,21,35,38,38,18,'KHFD 041522Z 36018G31KT 1/4SM SN FZFG VV005 M06/M07 A2940 RMK AO2 PK WND 01033/1512 PRESFR P0002 T10611072 $'
20180104,1500,BVY,BEVERLY_MUNICIPAL_(ASOS),42.58,-70.92,26,20,29,,29,23,'KBVY 041523Z 02016G21KT 1/4SM SN FZFG OVC009 M03/M05 A2945 RMK AO2 P0000 T10331050'
20180104,1500,BOS,BOSTON/LOGAN_INTL_(ASOS),42.37,-71.03,25,21,28,31,31,23,'KBOS 041522Z 36021G27KT 1/4SM R04R/2400V3500FT +SN FZFG VV009 M04/M04 A2941 RMKAO2 PK WND 35027/1517 PRESFR P0001 T10391044 $'
20180104,1500,ORH,WORCESTER_(ASOS),42.27,-71.88,20,24,33,36,36,17,'KORH 041525Z 01017G30KT 1/4SM R11/2000V2400FT FZFG VV006 M06/M08 A2935 RMK AO2 PK WND 36031/1503 PRESFR T10561078'
20180104,1500,RDG,READING/SPAATZ_FLD_(ASOS),40.38,-75.97,21,20,30,36,36,18,'KRDG 041535Z 35017G28KT 4SM -SN BLSN OVC026 M06/M08 A2959 RMK AO2 PK WND 35031/1506 P0000 T10561083'
20180104,1500,MDT,MIDDLETOWN/OLMSTED,40.20,-76.77,23,21,39,39,39,13,'KMDT 041456Z 34018G34KT 7SM -SN BKN036 OVC044 M05/M11 A2968 RMK AO2 PK WND 34034/1456 SNB20 SLP055 P0000 60000 T10501106 56015'
20180104,1500,LNS,LANCASTER_(ASOS),40.12,-76.30,22,20,,,,15,'KLNS 041520Z 32019G25KT 3SM -SN BKN032 OVC047 M06/M09 A2961 RMK AO2 P0000 T10561094'
20180104,1500,AFJ,WASHINGTON_(AWOS),40.13,-80.28,15,16,23,,23,7,'KAFJ 041456Z AUTO 31014G20KT 9SM OVC020 M09/M14 A2993 RMK AO2 SNE52 SLP157 P0000 60000 T10941139 55001 FZRANO'
20180104,1500,CXY,HARRISBURG/CAPITAL_(ASOS),40.22,-76.85,24,17,25,,25,10,'KCXY 041456Z 33015G22KT 8SM BKN048 OVC055 M04/M12 A2970 RMK AO2 UPB38E56 SLP064 P0000 60000 T10441122 58000'
20180104,1500,BTP,BUTLER_CO._(AWOS),40.78,-79.95,13,13,24,,24,5,'KBTP 041456Z AUTO 30011G21KT 260V350 9SM -SN OVC021 M11/M15 A2988 RMK AO2 SLP147 P0000 60000 T11061150 55001 FZRANO'
20180104,1500,DUJ,DU_BOIS_(ASOS),41.18,-78.90,14,16,23,,23,6,'KDUJ 041536Z AUTO 34017G22KT 9SM FEW020 BKN026 OVC043 M10/M15 A2976 RMK AO2 T11001150'
20180104,1500,AOO,ALTOONA/BLAIR_CO_(ASOS),40.30,-78.32,17,14,24,,24,9,'KAOO 041537Z AUTO 32015G22KT 4SM -SN BKN023 OVC028 M08/M13 A2975 RMK AO2 P0000 T10781128'
20180104,1500,JST,JOHNSTOWN/CAMBRIA_(ASOS),40.32,-78.83,10,17,25,33,33,9,'KJST 041528Z AUTO 32017G29KT 1SM -SN BR OVC012 M11/M13 A2970 RMK AO2 PK WND 31029/1524 P0000 T11111133'
20180104,1500,UNV,STATE_COLLEGE,40.85,-77.85,18,12,21,,21,9,'KUNV 041453Z 33010G18KT 7SM VCSH SCT020 BKN030 OVC060 M08/M13 A2976'
20180104,1500,AVP,WILKES-BARRE/SCRANT_(ASOS),41.33,-75.73,19,8,,,,13,'KAVP 041454Z 01007KT 1SM R04/5500VP6000FT -SN OVC021 M07/M11 A2966 RMK AO2 SNB08 SLP055 P0001 60001 T10721106 56014'
20180104,1500,IPT,WILLIAMSPORT_(ASOS),41.25,-76.92,22,10,,,,10,'KIPT 041454Z 32009KT 10SM BKN060 OVC080 M06/M12 A2975 RMK AO2 SLP083 T10561122 56012'
20180104,1500,MUI,MUIR_AAF/INDIANTOWN,40.43,-76.57,22,16,24,30,30,11,'KMUI 041456Z 33014G21KT 10SM FEW020 BKN080 M06/M12 A2964 RMK AO2A PK WND 35026/09 SNB1256E1441 SLP048 P0000 60002 T10571118 55019 $'
20180104,1500,MSV,MONTICELLO(AWOS),41.70,-74.80,18,16,21,,21,12,'KMSV 041533Z AUTO 35016G25KT 1SM -SN BR OVC016 M09/M11 A2953 RMK AO2 P0000 FZRANO RVRNO'
20180104,1500,BGM,BINGHAMTON/BROOME_(ASOS),42.22,-75.98,15,14,22,,22,9,'KBGM 041507Z 34009KT 2SM -SN BKN030 OVC060 M09/M12 A2966 RMK AO2 P0000 T10941122'
20180104,1500,ITH,ITHACA/TOMPKINS_CO.,42.48,-76.45,17,10,,,,13,'KITH 041456Z 32009KT 3SM -SN BR OVC060 M08/M11 A2974 RMK AO2 SLP090 P0000 60000 T10831106 56019'
20180104,1500,ELM,ELMIRA/CORNING_RGNL_(ASOS),42.17,-76.90,20,5,,,,11,'KELM 041504Z 34006KT 1SM -SN VV016 M07/M11 A2975 RMK AO2 P0000 T10671111 RVRNO'
20180104,1500,RUT,RUTLAND_STATE(AWOS),43.53,-72.95,13,0,,,,9,'KRUT 041519Z AUTO 00000KT 1/4SM SN FZFG BKN013 OVC018 M10/M12 A2968 RMK AO2 P0000 FZRANO $'
20180104,1500,ABE,ALLENTOWN-BETHLEHEM_(ASOS),40.65,-75.43,22,17,24,,24,15,'KABE 041534Z 33013KT 1 1/4SM -SN FEW012 OVC021 M06/M09 A2955 RMK AO2 P0001 T10561094 $'
20180104,1500,ALB,ALBANY_COUNTY_ARPT_(ASOS),42.75,-73.80,17,16,,,,11,'KALB 041451Z 33014KT 3/4SM R01/3500V4000FT -SN VV012 M08/M12 A2972 RMK AO2 SLP068 VIS 1/2V1 P0003 60005 T10831117 58033'
20180104,1500,GFL,GLEN_FALLS/WARREN_(ASOS),43.33,-73.62,14,7,,,,5,'KGFL 041538Z AUTO 06005KT 2SM -SN OVC028 M10/M14 A2971 RMK AO2 SNB34 P0000 T11001139'
20180104,1500,OGS,OGDENSBURG_INTL,44.68,-75.47,20,0,,,,11,'KOGS 041535Z AUTO 01003KT 10SM CLR M06/M11 A2981 RMK AO2 T10611110'
20180104,1500,SYR,SYRACUSE/HANCOCK_(ASOS),43.12,-76.12,16,3,,,,14,'KSYR 041454Z 25003KT 3SM -SN BR OVC026 M09/M10 A2978 RMK AO2 SLP089 SNINCR 1/9 P0001 60001 T10891100 56021'
20180104,1500,PIT,PITTSBURGH_INTL_(ASOS),40.50,-80.22,14,20,,33,33,7,'KPIT 041451Z 31017KT 7SM BKN022 M10/M14 A2988 RMK AO2 PK WND 33029/1400 SLP148 60000 T11001139 55003'
20180104,1500,BVI,BEAVER_FALLS_ARPT,40.77,-80.40,14,14,24,,24,3,'KBVI 041447Z 31012G21KT 10SM BKN023 M10/M16 A2989'
20180104,1500,AGC,PITTSBURGH/ALLEGHENY_(ASOS),40.35,-79.93,14,13,32,35,35,4,'KAGC 041453Z 34011G28KT 300V360 10SM BKN021 OVC026 M10/M16 A2986 RMK AO2 PK WND 31030/1437 SLP138 60000 T11001156 55004'
20180104,1500,LBE,LATROBE/WESTMORLAND,40.28,-79.40,16,3,,,,10,'KLBE 041525Z 30015G19KT 5SM -SN SCT020 BKN039 OVC080 M09/M13 A2986'
20180104,1500,CAK,AKRON-CANTON_RGNL_(ASOS),40.92,-81.43,11,15,,,,2,'KCAK 041451Z 30013KT 5SM -SN OVC029 M12/M17 A2997 RMK AO2 SLP171 P0000 60000 T11171167 50003'
20180104,1500,CLE,CLEVELAND/HOPKINS_(ASOS),41.42,-81.87,13,20,,,,3,'KCLE 041451Z 32017KT 8SM OVC030 M11/M16 A3006 RMK AO2 SNE05 SLP193 P0000 60000 T11061161 58000 $'
20180104,1500,BKL,CLEVELAND/BURKELAKE_(ASOS),41.52,-81.68,13,24,35,35,35,4,'KBKL 041453Z 33021G30KT 10SM BKN024 OVC035 M11/M16 A3003 RMK AO2 PK WND 32030/1450 SLP179 T11061156 50003'
20180104,1500,MFD,MANSFIELD/LAHM_MUNI_(ASOS),40.82,-82.52,10,9,,,,4,'KMFD 041452Z 30008KT 10SM BKN015 OVC028 M12/M16 A3002 RMK AO2 SNB1353E26 SLP189 P0001 60001 T11221156 51010'
20180104,1500,CGF,CLEVELAND/CUYAHOGA,41.57,-81.48,12,14,,,,5,'KCGF 041445Z 31012KT 5SM -SHSN BKN017 OVC022 M11/M15 A3001'
20180104,1500,YNG,YOUNGSTOWN_MUNI_(ASOS),41.27,-80.67,13,13,22,,22,6,'KYNG 041537Z 30014G21KT 7SM -SN BKN016 OVC039 M11/M14 A2992 RMK AO2 P0000 T11061144'
20180104,1500,ERI,ERIE_INTL_AIRPORT_(ASOS),42.08,-80.18,17,16,25,,25,8,'KERI 041459Z 32013G21KT 4SM HZ SCT023 BKN029 OVC039 M09/M13 A2992 RMK AO2 T10891133'
20180104,1500,BFD,BRADFORD_REGIONAL_(ASOS),41.80,-78.63,13,10,20,,20,8,'KBFD 041534Z AUTO 35007KT 3/4SM -SN BR BKN014 OVC034 M11/M13 A2973 RMK AO2 P0000 T11061128'
20180104,1500,FKL,FRANKLIN(AWOS),41.38,-79.87,14,12,20,,20,8,'KFKL 041532Z AUTO 29013G20KT 1 3/4SM -SN FEW009 BKN015 OVC036 M10/M13 A2983 RMKAO2 P0000 FZRANO'
20180104,1500,BUF,BUFFALO_INTL_ARPT_(ASOS),42.93,-78.73,16,9,,,,9,'KBUF 041526Z 31008KT 4SM -SN SCT023 M09/M13 A2986 RMK AO2 SNB20 P0000 T10891128'
20180104,1500,IAG,NIAGARA_FALLS_INTL,43.10,-78.95,18,18,,,,8,'KIAG 041453Z 32016KT 2SM -SN OVC020 M08/M13 A2986 RMK AO2 VIS 1 1/4V4 SNB27 SLP131 P0000 60000 T10781133 58011'
20180104,1500,ROC,ROCHESTER/MONROE_CO_(ASOS),43.12,-77.67,20,13,,,,16,'KROC 041454Z 30011KT 1 1/2SM -SN BR BKN020 OVC037 M07/M09 A2982 RMK AO2 SLP110 VIS 1V2 P0001 60001 T10671089 55014'
20180104,1500,ORD,CHICAGO/O'HARE_ARPT_(ASOS),41.98,-87.90,3,15,,,,-7,'KORD 041451Z 34013KT 10SM FEW250 M16/M22 A3028 RMK AO2 SLP271 T11611217 51010'
20180104,1500,DPA,W._CHICAGO/DU_PAGE_(ASOS),41.92,-88.25,0,10,,,,-7,'KDPA 041452Z 34009KT 10SM CLR M18/M22 A3029 RMK AO2 SLP276 T11781217 51010'
20180104,1500,CPS,CAHOKIA/ST._LOUIS_(ASOS),38.56,-90.15,7,9,,,,-2,'KCPS 041453Z 31008KT 10SM CLR M14/M19 A3041 RMK AO2 SLP306 T11391189 51012'
20180104,1500,CMI,CHAMPAIGN/URBANA_(ASOS),40.03,-88.28,-5,8,,,,-11,'KCMI 041453Z 29007KT 10SM CLR M21/M24 A3031 RMK AO2 SLP285 I3000 T12061239 51014'
20180104,1500,DEC,DECATUR_AIRPORT,39.83,-88.87,0,9,,,,-8,'KDEC 041536Z 32008KT 4SM HZ FEW005 M17/M21 A3036 RMK AO2 T11721211'
20180104,1500,PIA,PEORIA_REGIONAL_(ASOS),40.67,-89.68,-3,7,,,,-10,'KPIA 041454Z 33006KT 10SM CLR M19/M23 A3038 RMK AO2 SLP308 T11941233 51016 $'
20180104,1500,SQI,STERLING_ROCKFALLS,41.75,-89.67,4,6,,,,-2,'KSQI 041456Z AUTO 32005KT 10SM CLR M16/M19 A3037 RMK AO2 SLP312 6//// T11561189 FZRANO'
20180104,1500,FWA,FORT_WAYNE/BAER_FLD_(ASOS),41.00,-85.20,13,13,,,,4,'KFWA 041454Z 32011KT 10SM OVC047 M11/M16 A3017 RMK AO2 SLP231 60000 T11061156 51007'
20180104,1500,GUS,GRISSOM_AFB/PERU,40.65,-86.15,-2,7,,,,-5,'KGUS 041532Z 28006KT 8SM CLR M17/M19 A3020 RMK AO2A SLP249 $'
20180104,1500,MIE,MUNCIE/JOHNSON_FLD_(ASOS),40.25,-85.40,8,6,,,,2,'KMIE 041453Z 27005KT 9SM OVC038 M13/M17 A3017 RMK AO2 SLP231 T11331167 51008'
20180104,1500,GYY,GARY_REGIONAL,41.62,-87.42,5,17,,,,-2,'KGYY 041445Z 29015KT 7SM SCT022 M15/M19 A3028'
20180104,1500,MDW,CHICAGO/MIDWAY_(ASOS),41.78,-87.76,4,9,,,,-5,'KMDW 041453Z 33008KT 10SM FEW023 M16/M21 A3029 RMK AO2 SNE06 SLP283 P0000 60000 T11561206 51012'
20180104,1500,UGN,CHICAGO/WAUKEGAN_(ASOS),42.42,-87.87,2,8,,,,-8,'KUGN 041455Z 32007KT 10SM CLR M17/M22 A3028 RMK AO2 SLP284 T11671222 51010'
20180104,1500,SBN,SOUTH_BEND/ST._JOE_(ASOS),41.70,-86.32,10,0,,,,8,'KSBN 041454Z 00000KT 9SM OVC047 M12/M13 A3019 RMK AO2 SNE50 SLP241 P0000 60001 T11221133 51005'
20180104,1500,EKM,ELKHART_MUNICIPAL,41.72,-86.00,,5,,,,-9999,'KEKM 041450Z 31004KT 5SM BR OVC032 M/M A3020'
20180104,1500,TOL,TOLEDO_EXPRESS_(ASOS),41.60,-83.80,8,10,,,,1,'KTOL 041452Z 31009KT 10SM CLR M13/M17 A3013 RMK AO2 SLP215 T11331172 50006 $'
20180104,1500,FDY,FINDLAY_(ASOS),41.02,-83.67,8,15,,,,-1,'KFDY 041453Z AUTO 32013KT 10SM FEW041 M13/M18 A3011 RMK AO2 SLP208 T11331183 51010'
20180104,1500,DTW,DETROIT_METRO_(ASOS),42.23,-83.33,10,17,24,,24,0,'KDTW 041453Z 33015G21KT 8SM OVC030 M12/M18 A3010 RMK AO2 SLP206 T11221178 51006 $'
20180104,1500,ARB,ANN_ARBOR_MUNICIPAL_(ASOS),42.22,-83.75,10,15,22,,22,1,'KARB 041515Z 31013KT 10SM OVC030 M12/M17 A3009 RMK AO2 SNB1458E09 P0000 T11221172'
20180104,1500,DET,DETROIT_CITY_ARPT_(ASOS),42.42,-83.02,9,15,23,,23,-1,'KDET 041510Z 34011G20KT 9SM OVC029 M13/M18 A3010 RMK AO2 T11281183'
20180104,1500,YIP,DETROIT/WILLOW_RUN_(ASOS),42.23,-83.53,12,18,28,30,30,1,'KYIP 041453Z 33016G24KT 7SM OVC031 M11/M17 A3010 RMK AO2 PK WND 34026/1443 SLP205 T11111172 51006'
20180104,1500,MTC,SELFRIDGE_ANGB,42.62,-82.83,7,21,25,,25,-2,'KMTC 041456Z 33018G22KT 10SM FEW015 FEW026 FEW033 M14/M19 A3008 RMK AO2A SLP201 60000 T11381190 52008'
20180104,1500,P59,COPPER_HARBOR_RAMOS_(ASOS),47.45,-87.90,4,15,,,,-5,'KP59 041451Z AUTO 04013KT M16/M21 A3031 RMK AO1 SLP292 T11561206 51006'
20180104,1500,LAN,LANSING/CAPITAL_(ASOS),42.77,-84.60,9,10,,,,3,'KLAN 041453Z 34009KT 10SM CLR M13/M16 A3013 RMK AO2 SLP221 T11281161 51004'
20180104,1500,JXN,JACKSON/REYNOLDS_(ASOS),42.27,-84.47,10,9,,,,2,'KJXN 041456Z 30008KT 10SM OVC037 M12/M17 A3010 RMK AO2 SLP213 T11221167 51003 $'
20180104,1500,BTL,BATTLE_CREEK_(ASOS),42.30,-85.25,12,12,,,,4,'KBTL 041453Z 35010KT 10SM OVC044 M11/M16 A3013 RMK AO2 SLP223 T11111156 50003 $'
20180104,1500,RFD,ROCKFORD_(ASOS),42.20,-89.10,-2,7,,,,-10,'KRFD 041454Z 34006KT 10SM CLR M19/M23 A3036 RMK AO2 SLP299 T11891233 51012'
20180104,1500,MLI,MOLINE/QUAD_CITY_(ASOS),41.45,-90.52,-4,3,,,,-10,'KMLI 041452Z VRB03KT 10SM CLR M20/M23 A3039 RMK AO2 SLP308 T12001233 53010'
20180104,1500,CID,CEDAR_RAPIDS_MUNI_(ASOS),41.88,-91.70,-5,7,,,,-9,'KCID 041452Z 35006KT 10SM FEW010 OVC110 M21/M23 A3037 RMK AO2 SLP312 T12061228 51006'
20180104,1500,AWG,WASHINGTON,41.28,-91.67,0,6,,,,-6,'KAWG 041535Z AUTO 33005KT 10SM CLR M18/M20 A3042 RMK AO2'
20180104,1500,BRL,BURLINGTON_MUNI_(ASOS),40.78,-91.13,-3,8,,,,-8,'KBRL 041453Z AUTO 34007KT 10SM OVC110 M19/M22 A3039 RMK AO2 SLP311 T11941222 51010'
20180104,1500,EOK,KEOKUK_MUNI,40.47,-91.43,-2,5,,,,-8,'KEOK 041535Z AUTO 34004KT 10SM OVC110 M18/M21 A3042 RMK AO2'
20180104,1500,CCY,CHARLES_CITY,43.07,-92.62,0,6,,,,-9,'KCCY 041535Z AUTO 33005KT 10SM FEW060 BKN085 M17/M23 A3037 RMK AO2'
20180104,1500,TNU,NEWTON_MUNI,41.68,-93.02,0,7,,,,-6,'KTNU 041535Z AUTO 01005KT 10SM SCT060 BKN080 OVC110 M17/M21 A3040 RMK AO2 PWINO'
20180104,1500,OTM,OTTUMWA_INDUSTRIAL_(ASOS),41.10,-92.45,-1,6,,,,-8,'KOTM 041453Z AUTO 30005KT 10SM OVC110 M18/M22 A3040 RMK AO2 SLP316 T11831222 53009 $'
20180104,1500,CNC,CHARITON,41.03,-93.37,-2,7,,,,-6,'KCNC 041535Z AUTO 00000KT 10SM BKN100 M18/M21 A3040 RMK AO2'
20180104,1500,DBQ,DUBUQUE_MUNICIPAL_(ASOS),42.40,-90.70,-3,8,,,,-10,'KDBQ 041453Z 36007KT 10SM CLR M19/M23 A3034 RMK AO2 SLP305 T11941233 52010'
20180104,1500,CWI,CLINTON_MUNI_(AWOS),41.83,-90.33,-7,12,,,,-12,'KCWI 041456Z AUTO 35010KT 10SM CLR M22/M24 A3038 RMK AO2 SLP319 T12171244 53010 FZRANO'
20180104,1500,MXO,MONTICELLO_MUNI,42.23,-91.17,-8,0,,,,-15,'KMXO 041535Z AUTO 33005KT 10SM CLR M20/M23 A3039 RMK AO2'
20180104,1500,DEH,DECORAH,43.28,-91.73,-6,0,,,,-11,'KDEH 041535Z AUTO 00000KT 10SM OVC100 M20/M23 A3035 RMK AO2'
20180104,1500,ALO,WATERLOO_MUNICIPAL_(ASOS),42.55,-92.40,0,5,,,,-7,'KALO 041454Z 33004KT 10SM FEW075 BKN120 M18/M22 A3039 RMK AO2 SLP316 60001 T11781217 53002'
20180104,1500,MCW,MASON_CITY_MUNI_(ASOS),43.15,-93.33,0,3,,,,-6,'KMCW 041453Z AUTO 35003KT 10SM OVC085 M18/M21 A3037 RMK AO2 SLP315 T11781211 51007 TSNO'
20180104,1500,MUT,MUSCATINE,41.37,-91.15,-4,8,,,,-9,'KMUT 041535Z AUTO 01006KT 10SM OVC120 M19/M23 A3043 RMK AO2'
20180104,1500,OLZ,OELWEIN,42.68,-91.97,-2,7,,,,-8,'KOLZ 041535Z AUTO 36006KT 10SM CLR M18/M22 A3037 RMK AO2'
20180104,1500,OXV,KNOXVILLE,41.30,-93.12,0,5,,,,-8,'KOXV 041535Z AUTO 00000KT 10SM BKN110 M17/M22 A3039 RMK AO2'
20180104,1500,CON,CONCORD_MUNICIPAL_(ASOS),43.20,-71.50,17,9,,,,14,'KCON 041515Z AUTO 33008KT 1/4SM +SN FZFG VV008 M07/M09 A2961 RMK AO2 P0003 T10721094'
20180104,1500,PSM,PEASE_AFB/PORTSMOUT,43.08,-70.82,21,22,28,,28,18,'KPSM 041535Z 36018G26KT 1/2SM R34/4500VP6000FT -SN FZFG OVC011 M05/M07 A2949 RMK AO2A'
20180104,1500,PWM,PORTLAND_INTL_JET_(ASOS),43.65,-70.32,20,13,30,30,30,18,'KPWM 041451Z 03011G26KT 350V060 1/4SM +SN FZFG VV006 M07/M08 A2964 RMK AO2 PK WND 03026/1451 SLP039 P0011 60013 T10671078 58067'
20180104,1500,SFM,SANFORD_MUNI_(AWOS),43.40,-70.72,18,16,23,,23,16,'KSFM 041533Z AUTO 01015G21KT 1/2SM SN FZFG OVC008 M07/M08 A2955 RMK AO2 CIG 005V010 PRESFR P0000 FZRANO RVRNO'
20180104,1500,WVL,WATERVILLE_(AWOS),44.53,-69.68,15,14,,,,12,'KWVL 041456Z AUTO 01012KT 1/2SM SN FZFG OVC010 M09/M11 A2967 RMK AO2 PRESFR SLP083 P0000 60000 T10941111 58044 FZRANO'
20180104,1500,BHB,BAR_HARBOR_(AWOS),44.45,-68.37,32,14,,,,27,'KBHB 041456Z AUTO 04012KT 10SM UP FEW019 BKN050 OVC075 00/M03 A2969 RMK AO2 UPB55 PRESFR SLP057 6//// T00001028 58077 FZRANO PNO $'
20180104,1500,RKD,ROCKLAND/KNOX(AWOS),44.07,-69.10,28,16,23,,23,27,'KRKD 041537Z AUTO 03015G22KT 1 1/4SM -SN BR BKN006 BKN015 OVC023 M01/M02 A2956 RMK AO2 PRESFR P0000 FZRANO'
20180104,1500,FVE,FRENCHVILLE_(ASOS),47.28,-68.32,14,6,,,,10,'KFVE 041453Z AUTO 06005KT 10SM BKN020 OVC110 M10/M12 A2989 RMK AO2 SLP141 T11001122 58039'
20180104,1500,BGR,BANGOR_INTL_ARPT__(ASOS),44.80,-68.83,16,13,,,,12,'KBGR 041525Z 01012KT 1 3/4SM -SN BR OVC033 M08/M11 A2972 RMK AO2 P0000 T10831106'
20180104,1500,VSF,SPRINGFIELD/HARTNES_(ASOS),43.35,-72.52,15,10,16,,16,12,'KVSF 041513Z AUTO 01007KT 1/4SM SN FZFG VV009 M09/M11 A2967 RMK AO2 P0001 T10891106'
20180104,1500,LEB,LEBANON_MUNICIPAL_(ASOS),43.63,-72.30,12,5,,,,8,'KLEB 041523Z 35003KT 1/4SM -SN FZFG VV004 M11/M13 A2970 RMK AO2 P0000 T11061128'
20180104,1500,MWN,MOUNT_WASHINGTON,44.27,-71.30,10,39,,,,10,'KMWN 041451Z 08034KT 1/16SM SN FZFG BLSN VV000 M12/M12 RMK VRY LGT ICG'
20180104,1500,HIE,WHITEFIELD_(ASOS),44.35,-71.55,11,0,,,,8,'KHIE 041452Z AUTO 00000KT 1/2SM SN FZFG VV013 M12/M13 A2970 RMK AO2 SLP084 P0004 60004 T11171133 56026'
20180104,1500,MPV,BARRE-MONTPELIER_(ASOS),44.20,-72.57,10,3,,,,7,'KMPV 041451Z AUTO 31003KT 10SM BKN044 OVC055 M12/M14 A2976 RMK AO2 SLP102 T11221139 56034'
20180104,1500,LCI,LACONIA_MUNI_(AWOS),43.57,-71.42,15,0,,,,12,'KLCI 041456Z AUTO 00000KT 1/4SM +SN FZFG OVC009 M09/M11 A2965 RMK AO2 CIG 007V010 SLP059 P0000 60000 T10941111 56057 FZRANO'
20180104,1500,EEN,KEENE/DILLANT(AWOS),42.90,-72.27,16,12,,,,12,'KEEN 041456Z AUTO 35010KT 1/4SM +SN FZFG OVC007 M09/M11 A2963 RMK AO2 SLP054 P0000 60000 T10891106 58032 FZRANO'
20180104,1500,BTV,BURLINGTON_INTL_(ASOS),44.47,-73.15,18,6,,,,5,'KBTV 041454Z 36005KT 10SM OVC044 M08/M15 A2979 RMK AO2 SLP095 T10781150 56025'
20180104,1500,LEW,AUBURN-LEWISTON,44.05,-70.28,18,16,,,,16,'KLEW 041504Z AUTO 36014KT 1/4SM SN FZFG OVC009 M08/M09 A2967 RMK AO2 P0000 FZRANO'
20180104,1500,AUG,AUGUSTA_STATE_ARPT_(ASOS),44.32,-69.80,17,15,,,,14,'KAUG 041503Z AUTO 01015KT 1/4SM +SN FZFG OVC009 M08/M09 A2967 RMK AO2 PRESFR P0000 T10781094'
20180104,1500,MLT,MILLINOCKET_MUNI_(ASOS),45.65,-68.68,16,5,,,,13,'KMLT 041456Z AUTO 04005KT 10SM BKN008 OVC022 M09/M11 A2987 RMK AO2 T10891106 TSNO'
20180104,1500,MSS,MASSENA/RICHARDS_(ASOS),44.93,-74.85,20,7,,,,16,'KMSS 041530Z AUTO 02008KT 5SM -SN BR FEW009 BKN040 OVC060 M07/M09 A2983 RMK AO2SNB27 P0000 T10721089'
20180104,1500,ART,WATERTOWN_INTL_ARPT,44.00,-76.02,18,5,,,,13,'KART 041456Z AUTO 08004KT 9SM BKN035 OVC070 M08/M11 A2981 RMK AO2 SLP103 T10781106 55012'
20180104,1500,SLK,SARANAC_LAKE/ADIRON_(ASOS),44.38,-74.20,11,,,,,8,'KSLK 041451Z AUTO 10SM OVC065 M12/M13 A2968 RMK AO2 SLP085 T11171133 56024 $'
20180104,1500,GRR,GRAND_RAPIDS_INTL_(ASOS),42.88,-85.52,12,9,,,,6,'KGRR 041453Z 35008KT 4SM -SN FEW018 BKN033 OVC045 M11/M14 A3016 RMK AO2 SNB36 SLP228 P0000 60000 T11111144 51007'
20180104,1500,BEH,BENTON_HARBOR/ROSS_(ASOS),42.13,-86.43,13,6,,,,8,'KBEH 041525Z AUTO 14004KT 1 1/2SM -SN SCT016 BKN023 OVC060 M10/M13 A3020 RMK AO2 P0001 T11001128'
20180104,1500,AZO,KALAMAZOO_INTL_ARPT_(ASOS),42.23,-85.55,12,6,,,,4,'KAZO 041453Z 30005KT 10SM OVC048 M11/M16 A3015 RMK AO2 SLP227 T11111156 51006'
20180104,1500,MKG,MUSKEGON_(ASOS),43.17,-86.25,14,9,20,,20,4,'KMKG 041527Z 03011KT 6SM -SN BKN026 OVC047 M11/M15 A3020 RMK AO2 SNB24 P0000 T11061150'
20180104,1500,FNT,FLINT/BISHOP_INTL_(ASOS),42.97,-83.75,7,12,,,,-1,'KFNT 041453Z 36010KT 9SM OVC026 M14/M18 A3012 RMK AO2 SLP215 T11391183 53009'
20180104,1500,PTK,PONTIAC-OAKLAND_(ASOS),42.67,-83.42,7,15,23,,23,0,'KPTK 041453Z 34013G20KT 6SM -SN OVC028 M14/M18 A3006 RMK AO2 SLP201 P0000 60000 T11391178 53009'
20180104,1500,MBS,SAGINAW/TRI_CITY_(ASOS),43.53,-84.08,5,13,,,,-2,'KMBS 041453Z 36011KT 10SM OVC029 M15/M19 A3015 RMK AO2 SLP225 T11501189 51004'
20180104,1500,HTL,HOUGHTON_LAKE_ARPT_(ASOS),44.37,-84.68,1,15,24,,24,-8,'KHTL 041453Z AUTO 33013G21KT 10SM FEW025 M17/M22 A3013 RMK AO2 SLP231 T11721222 51013'
20180104,1500,CAD,CADILLAC/WEXFORD_CO,44.28,-85.42,5,13,23,,23,-1,'KCAD 041515Z AUTO 35014G20KT 2SM HZ OVC030 M15/M18 A3010 RMK AO2 T11461190'
20180104,1500,MBL,MANISTEE_(AWOS),44.27,-86.25,10,7,,,,5,'KMBL 041513Z AUTO 03010KT 9SM -SN FEW025 BKN033 BKN041 M11/M15 A3020 RMK AO2 FZRANO PNO $'
20180104,1500,TVC,TRAVERSE_CITY/CHERR_(ASOS),44.73,-85.58,8,15,25,30,30,-2,'KTVC 041453Z 35013G22KT 3SM -SN BLSN OVC032 M13/M19 A3020 RMK AO2 PK WND 35026/1434 SLP240 P0000 60000 T11331189 51010'
20180104,1500,APN,ALPENA_CO._REGIONAL_(ASOS),45.07,-83.57,0,14,22,,22,-5,'KAPN 041530Z AUTO 32012KT 3/4SM -SN BR BKN020 BKN026 OVC032 M17/M19 A3016 RMK AO2 P0000 T11721194'
20180104,1500,OSC,WURTSMITH_AFB,44.45,-83.40,-1,14,23,,23,-10,'KOSC 041515Z AUTO 33017G22KT 10SM CLR M18/M24 A3014 RMK AO2 T11791236'
20180104,1500,MKE,MILWAUKEE/MITCHELL_(ASOS),42.95,-87.90,5,14,24,,24,-6,'KMKE 041452Z 33012G21KT 10SM FEW020 M15/M21 A3029 RMK AO2 SLP275 T11501211 51008'
20180104,1500,ARV,MINOCQUA/WOODRUFF,45.93,-89.73,3,8,,,,-4,'KARV 041535Z AUTO 01008KT 10SM OVC020 M16/M20 A3025 RMK AO2 T11631202'
20180104,1500,MWC,MILWAUKEE/TIMMERMAN,43.12,-88.03,1,9,,,,-9,'KMWC 041445Z 34008KT 10SM SKC M17/M23 A3030'
20180104,1500,MSN,MADISON/DANE_RGNL_(ASOS),43.13,-89.33,-3,5,,,,-9,'KMSN 041453Z 31004KT 10SM CLR M19/M23 A3033 RMK AO2 SLP296 T11941228 53014'
20180104,1500,JVL,JANESVILLE/ROCK_CO.,42.62,-89.03,-6,7,,,,-9,'KJVL 041445Z 32006KT 10SM SKC M21/M23 A3032'
20180104,1500,LNR,LONE_ROCK_REGIONAL_(ASOS),43.22,-90.18,-6,6,,,,-10,'KLNR 041456Z AUTO 24005KT 8SM CLR M21/M23 A3038 RMK AO2 SLP304 I3000 T12111233 53009'
20180104,1500,LSE,LA_CROSSE_MUNICIPAL,43.87,-91.25,-5,5,,,,-11,'KLSE 041453Z 32004KT 10SM CLR M21/M24 A3042 RMK AO2 SLP334 T12061239 51009'
20180104,1500,EAU,EAU_CLAIRE_CO._ARPT_(ASOS),44.87,-91.48,-13,0,,,,-16,'KEAU 041456Z 00000KT 7SM CLR M25/M27 A3039 RMK AO2 SLP321 T12501267 51009'
20180104,1500,VOK,VOLK/CAMP_DOUGLAS,43.93,-90.27,-6,6,,,,-11,'MSSM 041450Z 01006KT CAVOK 25/14 Q1014 A2995'
20180104,1500,RST,ROCHESTER_MUNICIPAL_(ASOS),43.92,-92.50,-4,5,,,,-9,'KRST 041454Z 36004KT 10SM OVC100 M20/M23 A3034 RMK AO2 SLP315 T12001228 50005'
20180104,1500,GRB,GREEN_BAY/STRAUBEL_(ASOS),44.48,-88.13,-1,10,,,,-10,'KGRB 041453Z 32009KT 10SM CLR M18/M23 A3031 RMK AO2 SLP285 T11831233 51010'
20180104,1500,MTW,MANITOWAC_MUNI_AWOS,44.13,-87.68,3,14,,,,-7,'KMTW 041456Z AUTO 33012KT 10SM CLR M16/M22 A3030 RMK AO2 SLP286 T11611217 51011 FZRANO'
20180104,1500,OSH,OSHKOSH/WITTMAN_FLD_(ASOS),43.98,-88.55,-4,6,,,,-9,'KOSH 041453Z 29005KT 10SM CLR M20/M23 A3031 RMK AO2 SLP302 T12001228 53009'
20180104,1500,ATW,APPLETON/OUTAGAMIE,44.25,-88.52,-4,8,,,,-11,'KATW 041445Z 31007KT 10SM SKC M20/M24 A3029'
20180104,1500,SUE,STURGEON_BAY,44.85,-87.42,2,16,22,,22,-7,'KSUE 041456Z AUTO 32014G19KT 10SM CLR M17/M22 A3029 RMK AO2 SLP283 T11671217 52010 FZRANO'
20180104,1500,AUW,WAUSAU_MUNICIPAL_(ASOS),44.93,-89.63,-5,7,,,,-9,'KAUW 041454Z AUTO 30006KT 10SM OVC022 M21/M23 A3028 RMK AO2 SLP294 T12061228 51007'
20180104,1500,RYV,WATERTOWN,43.17,-88.72,-4,7,,,,-9,'KRYV 041535Z AUTO 30006KT 10SM CLR M19/M22 A3033 RMK AO2 T11901221'
20180104,1500,CWA,MOSINEE/CENTRAL_WI,44.78,-89.67,-6,6,,,,-9,'KCWA 041450Z 32005KT 10SM BKN022 M21/M23 A3030'
20180104,1500,PBH,PHILLIPS/PRICE_CO.,45.70,-90.40,-10,0,,,,-14,'KPBH 041535Z AUTO 00000KT 10SM OVC018 M22/M24 A3028 RMK AO2 T12221245'
20180104,1500,ESC,ESCANABA_(AWOS),45.75,-87.03,2,10,,,,-5,'KESC 041456Z AUTO 30009KT 10SM SCT033 BKN043 M17/M21 A3027 RMK AO2 SNE45 SLP279 P0000 60000 T11671206 52008 FZRANO'
20180104,1500,MNM,MENOMINEE_(AWOS),45.13,-87.63,2,10,,,,-8,'KMNM 041456Z AUTO 34009KT 10SM CLR M17/M22 A3031 RMK AO2 SLP288 T11671222 51007 FZRANO $'
20180104,1500,FFL,FAIRFIELD,41.05,-91.98,-2,3,,,,-9,'KFFL 041535Z AUTO 30006KT 10SM BKN110 M18/M23 A3041 RMK AO2 PWINO'
20180104,1500,ORB,ORR,48.02,-92.87,-31,0,,,,-40,'KORB 041513Z AUTO 00000KT 10SM CLR M33/M38 A3034 RMK AO2'
20180104,1500,COQ,CLOQUET_(AWOS),46.70,-92.50,-18,7,,,,-24,'KCOQ 041515Z AUTO 35004KT 10SM CLR M27/M31 A3034 RMK AO2'
20180104,1500,FBL,FARIBAULT_MUNI_AWOS,44.33,-93.32,0,0,,,,-8,'KFBL 041515Z AUTO 00000KT 10SM OVC085 M18/M22 A3038 RMK AO2'
20180104,1500,OWA,OWATONNA_(AWOS),44.12,-93.25,0,0,,,,-8,'KOWA 041534Z AUTO 00000KT 10SM SCT095 M18/M22 A3038 RMK AO2'
20180104,1500,RGK,RED_WING,44.58,-92.48,-6,0,,,,-15,'KRGK 041515Z AUTO 00000KT 10SM SCT110 M21/M26 A3042 RMK AO2'
20180104,1500,MIC,MINNEAPOLIS/CRYSTAL_(ASOS),45.07,-93.35,-4,5,,,,-12,'KMIC 041453Z 03004KT 10SM OVC085 M20/M24 A3041 RMK AO2 SLP325 T12001244 52004'
20180104,1500,FCM,MINNEAPOLIS/FLY_CLD_(ASOS),44.83,-93.45,-1,3,,,,-10,'KFCM 041453Z 04003KT 10SM OVC080 M18/M23 A3040 RMK AO2 SLP320 T11831233 53004'
20180104,1500,MSP,MINNEAPOLIS-ST_PAUL_(ASOS),44.88,-93.22,-3,3,,,,-9,'KMSP 041453Z 03003KT 10SM BKN085 M19/M23 A3042 RMK AO2 SLP327 T11941228 51007'
20180104,1500,STP,SAINT_PAUL_DOWNTOWN_(ASOS),44.95,-93.07,-4,3,,,,-11,'KSTP 041453Z 34003KT 10SM OVC100 M20/M24 A3045 RMK AO2 SLP330 T12001239 51007'
20180104,1500,ONA,WINONA_MUNI_(AWOS),44.08,-91.70,-8,3,,,,-13,'KONA 041515Z AUTO 00000KT 10SM M22/M25 A3042 RMK AO2'
20180104,1500,AEL,ALBERT_LEA_(AWOS),43.68,-93.37,0,0,,,,-9,'KAEL 041457Z AUTO 00000KT 10SM SCT070 BKN085 M18/M23 A3035 RMK AO2'
20180104,1500,SGS,SOUTH_ST_PAUL_MUNI,44.85,-93.15,-3,0,,,,-10,'KSGS 041515Z AUTO 00000KT 10SM OVC100 M19/M23 A3042 RMK AO2 T11931235'
20180104,1500,HUL,HOULTON_INTL_ARPT_(ASOS),46.12,-67.80,9,8,,,,7,'KHUL 041453Z AUTO 36007KT 10SM OVC006 M13/M14 A2986 RMK AO2 SLP125 T11281139 56055'
20180104,1500,CAR,CARIBOU_MUNICIPAL_(ASOS),46.87,-68.02,12,8,,,,7,'KCAR 041503Z AUTO 02007KT 10SM BKN007 OVC012 M11/M14 A2989 RMK AO2 T11061139'
20180104,1500,PQI,PRESQUE_ISLE_(AWOS),46.68,-68.05,5,0,,,,2,'KPQI 041456Z AUTO 00000KT 10SM OVC011 M15/M17 A2992 RMK AO2 SLP179 T11501167 57045 FZRANO'
20180104,1500,ANJ,SAULT_STE_MARIE___(ASOS),46.47,-84.37,-13,7,,,,-23,'KANJ 041455Z AUTO VRB06KT 10SM CLR M25/M31 A3024 RMK AO2 SLP262 T12501306 53008'
20180104,1500,CIU,CHIPPEWA_INTL(AWOS),46.25,-84.47,-14,8,,,,-23,'KCIU 041456Z AUTO 01007KT 10SM CLR M26/M31 A3024 RMK AO2 SLP271 6//// T12561306 53010 FZRANO PNO $'
20180104,1500,PLN,PELLSTON/EMMET_CO_(ASOS),45.57,-84.80,-6,12,,,,-15,'KPLN 041454Z AUTO 35010KT 10SM CLR M21/M26 A3024 RMK AO2 SLP261 T12111261 53014'
20180104,1500,RHI,RHINELANDER/ONEIDA_(ASOS),45.63,-89.47,1,9,,,,-6,'KRHI 041453Z AUTO 36008KT 10SM OVC021 M17/M21 A3024 RMK AO2 SLP286 60000 T11721211 51008'
20180104,1500,IMT,IRON_MOUNTAIN/FORD_(ASOS),45.82,-88.12,2,15,24,,24,-7,'KIMT 041454Z AUTO 32013G21KT 10SM OVC026 M17/M22 A3025 RMK AO2 SLP278 T11671217 51008'
20180104,1500,CMX,HOUGHTON_CO_MEM_(ASOS),47.17,-88.50,2,9,,,,-6,'KCMX 041512Z AUTO 36004KT 3SM -SN OVC027 M17/M21 A3029 RMK AO2 P0000 T11671211'
20180104,1500,TWM,TWO_HARBORS,47.05,-91.75,-8,0,,,,-17,'KTWM 041515Z AUTO 00000KT 10SM CLR M21/M26 A3034 RMK AO2'
20180104,1500,IWD,IRONWOOD_(AWOS),46.53,-90.13,3,6,,,,-1,'KIWD 041517Z AUTO 03006KT 3SM -SN OVC018 M16/M18 A3031 RMK AO2 FZRANO PNO $'
20180104,1500,DLH,DULUTH_INTL_AIRPORT_(ASOS),46.83,-92.18,-16,10,,,,-20,'KDLH 041455Z 35009KT 10SM CLR M27/M29 A3032 RMK AO2 SLP323 T12671289 51004'
20180104,1500,HIB,HIBBING-CHISHOLM_(ASOS),47.38,-92.83,-26,0,,,,-30,'KHIB 041453Z AUTO 00000KT 10SM CLR M32/M34 A3035 RMK AO2 SLP334 T13221344 51003'
20180104,1500,GPZ,GRAND_RAPIDS(AWOS),47.22,-93.52,-22,0,,,,-27,'KGPZ 041456Z AUTO 00000KT 10SM FEW002 M30/M33 A3038 RMK AO2 SLP345 T13001328 51005 FZRANO'
20180104,1500,ELO,ELY_MUNI_(AWOS),47.82,-91.83,-31,0,,,,-38,'KELO 041515Z AUTO 00000KT 10SM CLR M34/M38 RMK AO2'
20180104,1500,INL,INTERNATIONAL_FALLS_(ASOS),48.57,-93.38,-29,0,,,,-9999,'KINL 041532Z AUTO 00000KT 10SM SCT012 M32/M35 A3040 RMK AO2 T13221350'
20180104,1500,EVM,EVELETH_MUNI_(AWOS),47.40,-92.50,-27,0,,,,-35,'KEVM 041518Z AUTO 00000KT 10SM CLR A3036 RMK AO2'
20180104,1500,CBG,CAMBRIDGE_MUNI,45.57,-93.27,-11,0,,,,-20,'KCBG 041515Z AUTO 00000KT 10SM M23/M27 A3043 RMK AO2'
20180104,1500,BFW,SILVER_BAY,47.20,-91.40,-11,0,,,,-18,'KBFW 041455Z AUTO 00000KT 10SM CLR M24/M28 A3034 RMK AO2'
20180104,1500,AUM,AUSTIN_MUNI,43.67,-92.93,0,0,,,,-8,'KAUM 041523Z AUTO 00000KT 10SM OVC090 M18/M22 A3035 RMK AO2'
20180104,1500,GTB,FORT_DRUM/WHEELER,44.05,-75.73,15,0,,,,11,'KGTB 041532Z AUTO 00000KT 10SM SCT015 OVC039 M09/M11 A2975 RMK AO2 SNE12 SLP087'
20180104,1500,MHT,MANCHESTER_AIRPARK_(ASOS),42.93,-71.43,19,17,24,,24,15,'KMHT 041534Z 36014KT 1/4SM R35/1800V2000FT +SN FZFG VV006 M07/M08 A2951 RMK AO2TWR VIS 1/2 P0001 T10671083 $'
20180104,1500,ASH,NASHUA/BOIRE_FIELD,42.78,-71.52,19,16,25,,25,17,'KASH 041537Z 35011KT 1/4SM SN FZFG BKN004 OVC008 M07/M08 A2950 RMK AO2 PRESFR P0000'
20180104,1500,ARR,AURORA_MUNICIPAL_(ASOS),41.77,-88.47,-4,14,,,,-10,'KARR 041452Z 33012KT 10SM CLR M20/M23 A3031 RMK AO2 SLP286 T12001233 51009 $'
20180104,1500,PWK,CHICAGO/PALWAUKEE_(ASOS),42.12,-87.92,2,10,,,,-7,'KPWK 041452Z 33009KT 10SM CLR M17/M22 A3031 RMK AO2 SLP277 T11671217 51009'
20180104,1500,JFK,NEW_YORK/JF_KENNEDY_(ASOS),40.65,-73.78,22,31,43,46,46,20,'KJFK 041451Z 34027G37KT 1/8SM R04R/1400V2200FT +SN BLSN FZFG VV004 M06/M07 A2939 RMK AO2 PK WND 35040/1423 SLP950 SNINCR 2/4 60019 T10561067 58047 $'
20180104,1500,FRG,FARMINGDALE/REPUBLC_(ASOS),40.73,-73.42,25,26,36,41,41,24,'KFRG 041453Z AUTO 36023G31KT M1/4SM FZFG VV003 M04/M04 A2931 RMK AO2 PK WND 01036/1429 SLP928 P0002 60004 T10391044 58043 PWINO FZRANO $'
20180104,1500,FOK,WESTHAMPTON_BEACH_(ASOS),40.85,-72.63,25,26,40,43,43,23,'KFOK 041504Z 36023G37KT 1/4SM FZFG VV005 M03/M04 A2923 RMK AO2 PK WND 01037/1502 T10331044 PWINO FZRANO $'
20180104,1500,BED,HANSCOM_FLD/BEDFORD_(ASOS),42.47,-71.28,21,13,,,,18,'KBED 041536Z 35011G19KT 1/4SM R11/2000V2600FT +SN FZFG VV008 M06/M07 A2941 RMK AO2 PRESFR P0000 T10611072'
20180104,1500,LWM,LAWRENCE_MUNICIPAL_(ASOS),42.72,-71.12,25,18,29,,29,20,'KLWM 041454Z 36016G25KT 3/4SM -SN FEW005 OVC013 M04/M07 A2954 RMK AO2 SLP006 P0000 60000 T10391067 56066'
20180104,1500,CEF,CHICOPEE/WESTOVER,42.20,-72.53,17,20,29,35,35,13,'KCEF 041456Z 36017G25KT 1/4SM R23/1800V2200FT +SN FZFG VV004 M08/M10 A2952 RMK AO2A PK WND 01030/08 SLP007 60010 T10831105 57049'
20180104,1500,BAF,WESTFIELD/BARNES_(ASOS),42.15,-72.72,20,24,33,33,33,19,'KBAF 041453Z 36021G29KT 1/4SM R20/1200V1800FT FZFG VV004 M07/M07 A2952 RMK AO2 PK WND 36029/1442 SNEMM PRESFR SLP007 P0002 60003 T10671072 58035 $'
20180104,1500,SCH,SCHENECTADY_AIRPORT,42.85,-73.93,16,5,,,,10,'KSCH 041445Z 31004KT 1SM -SNBR OVC013 M09/M12 A2974'
20180104,1500,FFO,WRIGHT-PATERSON_AFB,39.83,-84.05,13,12,,,,7,'KFFO 041536Z 33010G17KT 10SM BKN019 OVC043 M11/M16 A3014 RMK AO2A SLP225'
20180104,1500,ADW,ANDREWS_AFB,38.82,-76.87,23,29,35,40,40,11,'KADW 041456Z AUTO 32025G30KT 10SM CLR M05/M12 A2965 RMK AO2 PK WND 31035/41 DZE29 SLP051 P0001 60001 T10501116 55001 $'
20180104,1500,LFI,LANGLEY_AFB/HAMPTON,37.08,-76.37,24,15,23,,23,18,'KLFI 041534Z 31016G26KT 1SM R08/4500V5500FT -SN VV014 M05/M07 A2964 RMK VIS 1/4RWY26 SLP044 $'
20180104,1500,MTV,MARTINSVILLE,36.63,-80.02,24,20,29,,29,1,'KMTV 041535Z AUTO 32018G22KT 10SM CLR M04/M18 A2986 RMK AO2 T10401181'
20180104,1500,HOP,FORT_CAMPBELL_(AAF),36.67,-87.50,10,8,,,,1,'KHOP 041456Z AUTO 32007KT 10SM CLR M12/M17 A3033 RMK AO2 SLP283 T11241171 52021'
20180104,1500,BWG,BOWLING_GREEN_(ASOS),36.97,-86.42,12,5,,,,4,'KBWG 041453Z AUTO 33004KT 10SM CLR M11/M16 A3031 RMK AO2 SLP272 60000 T11111156 53022'
20180104,1500,FBG,FORT_BRAGG/SIMMONS,35.13,-78.93,28,12,,,,11,'KFBG 041456Z AUTO 29010KT 10SM CLR M02/M12 A2983 RMK AO2 SLP107 T10231116 52017 $'
20180104,1500,ECG,ELIZABETH_CITY(CGS)_(ASOS),36.27,-76.18,25,26,35,40,40,23,'KECG 041504Z 30024G35KT 1/2SM BLSN OVC022 M04/M04 A2966 RMK AO2 PK WND 30035/1458 T10391044'
20180104,1500,AEX,ENGLAND_AFB/ALEXAND_(ASOS),31.33,-92.55,29,6,,,,19,'KAEX 041453Z 35005KT 10SM CLR M02/M07 A3038 RMK AO2 SLP295 T10171072 53013'
20180104,1500,GPT,GULFPORT-BILOXI_(ASOS),30.40,-89.07,33,9,,,,17,'KGPT 041453Z 33008KT 10SM CLR 01/M08 A3034 RMK AO2 SLP273 T00061083 51015'
20180104,1500,BIX,KEESLER_AFB/BILOXI,30.42,-88.92,33,8,,,,14,'KBIX 041456Z AUTO 36007KT 10SM CLR 01/M10 A3033 RMK AO2 SLP274 T00081098 52015'
20180104,1500,PAM,TYNDALL_AFB,30.07,-85.58,35,,,,,13,'KPAM 041456Z AUTO 34009KT 9SM M 01/M10 A3024 RMK AO2 SLP244 T00141104 50019 TSNO $'
20180104,1500,HRT,HURLBURT_FIELD_(AF),30.43,-86.68,33,20,23,,23,14,'KHRT 041456Z 36017G20KT 10SM CLR 01/M10 A3024 RMK AO2A SLP242 T00071102 50011 $'
20180104,1500,SVN,HUNTER_(AAF),32.02,-81.15,29,13,,,,20,'KSVN 041456Z AUTO 27011KT 10SM CLR M02/M06 A2999 RMK AO2 SLP159 T10171065 52010 $'
20180104,1500,VAD,MOODY_AFB/VALDOSTA,30.97,-83.20,33,17,,,,12,'KVAD 041456Z AUTO 30015KT 10SM CLR 00/M11 A3011 RMK AO2 SLP201 T00041113 52011 $'
20180104,1500,MCF,MACDILL_AFB/TAMPA,27.85,-82.52,45,5,,,,27,'KMCF 041456Z VRB04KT 10SM CLR 07/M03 A3019 RMK AO2A SLP226 $'
20180104,1500,SSC,SHAW_AFB/SUMTER,33.97,-80.47,28,8,,,,13,'KSSC 041456Z AUTO 28007KT 10SM CLR M02/M10 A2990 RMK AO2 SLP129 T10221103 52015 $'
20180104,1500,MYR,MYRTLE_BEACH(CIV),33.68,-78.93,30,10,,,,19,'KMYR 041456Z 29009KT 10SM CLR M01/M07 A2992 RMK AO2 SLP132 P0001 60001 T10111072 51019 FZRANO'
20180104,1500,CRE,NORTH_MYRTLE_BEACH_(ASOS),33.82,-78.72,31,10,,,,14,'KCRE 041453Z 32009KT 10SM CLR M01/M10 A2989 RMK AO1 SLP122 T10061100 53018'
20180104,1500,TTS,NASA_SHUTTLE_FCLTY,28.62,-80.72,41,9,,,,24,'KTTS 041458Z AUTO 28008KT 10SM CLR 05/M04 A3013 RMK AO2 SLP207 T00521042 51008 $'
20180104,1500,COF,PATRICK_AFB/COCOA_B,28.23,-80.60,43,14,,,,19,'KCOF 041456Z AUTO 28012KT 10SM CLR 06/M07 A3014 RMK AO2 SLP211 T00631070 50012'
20180104,1500,MMUN,CANCUN_INTL_AIRPORT,21.03,-86.87,68,3,,,,61,'MMUN 041449Z 33003KT 7SM FEW070 SCT200 20/16 A3018 RMK SLP222 52025 918 8/078 SC'
20180104,1500,MMMD,MERIDA_INTL_ARPT,20.98,-89.65,70,5,,,,54,'MMMD 041445Z 01004KT 7SM SCT020 BKN30 21/12 A3022 RMK SLP231 52015 910 8/508 HZY'
20180104,1500,MMCP,CAMPECHE/IGNACIO__&,19.85,-90.55,68,9,,,,64,'MMCP 041452Z 06008KT 6SM BKN030 OVC070 20/18 A3014 RMK SLP224 52022 916 8/42/'
20180104,1500,MMCE,CIUDAD_DEL_CARMEN_&,18.65,-91.80,68,9,,,,-9999,'MMCE 041445Z 10008KT 2SM -RA BKN008 OVC070 20/// A3024 RMK SLP240 52016 913 6//// 8/77/ LWR SC'
20180104,1500,MMCM,CHETUMAL,18.50,-88.30,70,12,,,,61,'MMCM 041445Z 35010KT 7SM BKN100 21/16 A3019 RMK SLP225 5//// 914 8/030 HZY'
20180104,1500,TXKF,BERMUDA_NAS/KINDLEY,32.37,-64.68,72,28,,,,64,'TXKF 041455Z 23024KT 9000 VCSH SCT019TCU BKN043 BKN300 22/18 Q1005 RMK TCU DSNT SE'
20180104,1500,MYGF,FREEPORT_INTL_ARPT,26.55,-78.70,57,22,,,,39,'MYGF 041500Z 33019KT 9999 SCT025 14/04 A3011'
20180104,1500,MYNN,NASSAU_INTL_AIRPORT,25.05,-77.47,64,14,25,,25,-9999,'MYNN 041500Z 29012G22KT 9999 SCT020 18/9 A3009'
20180104,1500,MUHA,HAVANA/JOSE_MARTI,22.98,-82.40,66,13,,,,61,'MUHA 041455Z 02011KT 9000 BKN020 19/16 Q1020'
20180104,1500,MUVR,VARADERO,23.13,-81.28,66,8,,,,59,'MUVR 041450Z 35007KT 320V020 9000 BKN020 19/15 Q1020'
20180104,1500,MUCM,CAMAGUEY/IGANCIO,21.42,-77.85,72,10,,,,57,'MUCM 041451Z 04009KT 9000 SCT018 22/14 Q1019'
20180104,1500,MUCU,SANTIAGO_DE_CUBA,19.97,-75.85,75,15,,,,63,'MUCU 041451Z 35013KT 330V030 9000 SCT020 SCT070 24/17 Q1017'
20180104,1500,MUCL,CAYO_LARGO_DEL_SUR,21.62,-81.55,72,8,,,,61,'MUCL 041450Z 35007KT 310V030 9000 FEW020 22/16 Q1020'
20180104,1500,MUGM,GUANTANAMO_BAY_NAS,19.90,-75.13,76,21,,,,71,'MUGM 041456Z 33018KT 9999 SCT040 BKN060 OVC150 24/22 A3003 RMK SLP168 T02440217 51018'
20180104,1500,MWCR,OWEN_ROBERTS_INTL,19.28,-81.35,77,13,,,,66,'MWCR 041500Z 35011KT 9999 SCT018 25/19 Q1018'
20180104,1500,MKJS,SANGSTER/MONTEGO,18.50,-77.92,77,15,,,,68,'MKJS 041500Z 03013KT 9999 BKN022 BKN045 25/20 Q1017'
20180104,1500,MKJP,NORMAN_MANLEY/KINGS,17.93,-76.78,82,10,,,,75,'MKJP 041500Z 13009KT 9999 SCT018 BKN080 28/24 Q1015'
20180104,1500,MDPP,PUERTO_PLATA_INTL,19.75,-70.55,79,0,,,,75,'MDPP 041500Z 00000KT 9999 BKN018 SCT070 26/24 Q1015'
20180104,1500,MDST,SANTIAGO_INTL_ARPT,19.47,-70.70,77,6,,,,75,'MDST 041500Z 15005KT 120V190 3000 BR BKN017 BKN070 25/24 Q1015 BR/ALL QDS'
20180104,1500,MDPC,PUNTA_CANA,18.57,-68.37,84,12,,,,73,'MDPC 041500Z 15010KT 9999 SCT022 29/23 Q1016'
20180104,1500,MDSD,CAUCEDO/DE_LAS_AMER,18.43,-69.67,86,9,,,,75,'MDSD 041500Z 16008KT 9999 SCT020 30/24 Q1015'
20180104,1500,TJBQ,AQUADILLA/BORINQUEN,18.50,-67.13,82,0,,,,68,'TJBQ 041450Z 00000KT 10SM SKC 28/20 A3004'
20180104,1500,TJSJ,SAN_JUAN_INTL_ARPT,18.43,-66.00,85,7,,,,70,'TJSJ 041456Z 16006KT 10SM FEW033 FEW100 29/21 A3003 RMK AO2 SLP167 T02940211 50009'
20180104,1500,TIST,C._AMALIE/CYRIL_E._(ASOS),18.33,-64.97,83,10,,,,73,'TIST 041453Z AUTO 12009KT 10SM CLR 28/23 A3004 RMK AO2 SLP172 T02830228 51009'
20180104,1500,TISX,CHRISTIANSTED/ALEXA_(ASOS),17.70,-64.80,83,12,,,,76,'TISX 041453Z 13010KT 10SM FEW022 SCT033 28/24 A3005 RMK AO2 SLP174 T02830244 50010 $'
20180104,1500,MZBZ,BELIZE_INTL_AIRPORT,17.53,-88.30,75,12,,,,72,'MZBZ 041500Z 01010KT CAVOK 24/22 A3018 Q1022 NOSIG'
20180104,1500,MGHT,HUEHUETENANGO,15.32,-91.47,59,0,,,,50,'MGHT 041500Z 00000KT 9999 SCT016 15/10 QFE823/6'
20180104,1500,MGPB,PUERTO_BARRIOS(MIL),15.72,-88.60,70,5,,,,68,'MGPB 041500Z 12004KT 9000 -RA SCT018 OVC080 21/20 Q1021 A3015'
20180104,1500,MGGT,GUATEMALA/LA_AURORA,14.58,-90.52,61,16,,,,50,'MGGT 041500Z 36014KT 9999 FEW018 SCT200 16/10 Q1029 A3039 FEW080'
20180104,1500,MGSJ,SAN_JOSE_(CIV/MIL),13.92,-90.82,82,0,,,,68,'MGSJ 041500Z 00000KT CAVOK 28/20 Q1015 A2997 BKN200'
20180104,1500,MSLP,EL_SALVADOR_INTL,13.43,-89.05,82,14,25,,25,59,'MSLP 041450Z 36012G22KT 330V040 CAVOK 28/15 Q1014 A2994 NOSIG'
20180104,1500,MHAM,AMAPALA/LOS_PELONAS,13.28,-87.67,82,5,,,,72,'MHAM 041500Z 36004KT 9999 FEW028 28/22'
20180104,1500,MHRO,ROATAN,16.32,-86.53,79,12,,,,66,'MHRO 041500Z 33010KT 9999 SCT020TCU 26/19 Q1020 A3012 NOSIG'
20180104,1500,MHLC,LA_CEIBA/GOLOSON__&,15.73,-86.87,68,5,,,,68,'MHLC 041500Z 20004KT 8000 -RA SCT024 BKN070 20/20 Q1020 A3012 NOSIG'
20180104,1500,MHTE,TELA,15.72,-87.48,72,5,,,,72,'MHTE 041500Z 28004KT 9999 BKN026TCU BKN080 22/22 Q1017 TCU ALL HZ'
20180104,1500,MHYR,YORO,15.17,-87.12,64,5,,,,63,'MHYR 041500Z 27004KT 9999 SCT020 BKN080 18/17 BR'
20180104,1500,MHLM,LA_MESA/PEDRO_SULA,15.45,-87.93,68,2,,,,68,'MHLM 041500Z 19002KT 8000 VCSH FEW006 SCT020 OVC070 20/20 Q1022 A3018 NOSIG'
20180104,1500,MHPL,PUERTO_LEMPIRA,15.22,-83.80,81,16,,,,73,'MHPL 041500Z 05014KT 9999 SCT028TCU BKN250 27/23 Q1016 TCU ALL HZ'
20180104,1500,MHCA,CATACAMAS,14.90,-85.93,72,2,,,,70,'MHCA 041500Z 08002KT 9999 FEW027 22/21 Q1020 HZ'
20180104,1500,MHSR,SANTA_ROSA_DE_COPAN,14.78,-88.78,59,2,,,,59,'MHSR 041500Z 36002KT 8000 VCSH SCT006 OVC018 15/15 REDZ 8KM ALL CL VCSH HZ'
20180104,1500,MHLE,LA_ESPERANZA,14.33,-88.17,55,12,,,,55,'MHLE 041500Z 05010KT 6000 VCSH BKN010 13/13 6KM NE E ESE CL VCSH'
20180104,1500,MHTG,TEGUCIGALPA/TONCONT,14.05,-87.22,64,9,,,,55,'MHTG 041500Z 02008KT 9999 BKN025 18/13 Q1023 A3021 NOSIG'
20180104,1500,MNPC,PUERTO_CABEZAS(MIL),14.05,-83.37,82,14,,,,75,'MNPC 041500Z 36012KT 7000 BKN016 28/24 Q1015 2AC100'
20180104,1500,MNJG,JINOTEGA,13.08,-85.98,64,18,,,,55,'MNJG 041500Z 36016KT 9999 FEW019 18/13 Q1017'
20180104,1500,TAPA,COOLIDGE_AIRPORT,17.12,-61.78,79,13,,,,72,'TAPA 041500Z 11011KT 9999 VCSH FEW018 SCT036 26/22 Q1017 NOSIG'
20180104,1500,TNCM,PRINSES_JULIANA,18.05,-63.12,84,13,,,,73,'TNCM 041500Z 12011KT 070V150 9999 FEW020 29/23 Q1018 A3006 NOSIG'
20180104,1500,TFFR,LE_RAIZET/GUADELOUP,16.27,-61.52,81,13,,,,70,'TFFR 041530Z AUTO 14013KT 110V170 9999 FEW029 BKN050 OVC090 29/22 Q1017 TEMPO 4000 SHRA SCT015TCU'
20180104,1500,TDPD,MELVILLE_HALL_ARPT,15.53,-61.30,79,3,,,,72,'TDPD 041500Z 17003KT 9999 BKN015 BKN032 26/22 Q1018'
20180104,1500,TDCF,CANEFIELD_AIRPORT,15.53,-61.40,82,5,,,,72,'TDCF 041500Z 34004KT 9999 -SHRA BKN018 28/22 Q1016'
20180104,1500,TFFF,LE_LAMENTIN_______&,14.60,-61.00,82,12,,,,73,'TFFF 041530Z AUTO 11006KT 080V150 CAVOK 29/22 Q1016 TEMPO 4000 SHRA SCT015TCU'
20180104,1500,FMH,OTIS_ANGB,41.65,-70.52,37,26,52,,52,36,'KFMH 041535Z AUTO 03032G42KT 1 3/4SM +UP OVC008 02/02 A2913 RMK AO2'
20180104,1500,TVR,VICKSBURG/TALLULAH_ARPT_(ASOS),32.35,-91.03,30,13,,,,21,'KTVR 041453Z AUTO 02011KT 10SM CLR M01/M06 A3038 RMK AO2 SLP296 T10111061 52015'
20180104,1500,FZY,FULTON/OSWEGO_CTY_AIRPORT,43.35,-76.38,20,0,,,,16,'KFZY 041528Z AUTO 03003KT 4SM BR SCT020 OVC070 M07/M09 A2979 RMK AO2 SNE22 P0000 T10671089'
20180104,1500,IZG,FRYEBERG_(ASOS),43.99,-70.95,15,5,,,,14,'KIZG 041454Z AUTO 33004KT 1/4SM SN FZFG VV009 M09/M10 A2968 RMK AO2 PRESFR SLP061 P0000 60000 T10941100 55047'
20180104,1500,AQW,NORTH_ADAMS_(ASOS),42.70,-73.17,17,10,,,,14,'KAQW 041452Z AUTO 25009KT 1/4SM SN FZFG VV007 M08/M10 A2963 RMK AO2 SLP046 P0006 60010 T10831100 56039'
20180104,1500,EYE,EAGLE_CREEK_AIRPARK_(ASOS),39.83,-86.29,2,12,,,,-4,'KEYE 041453Z AUTO 32010KT 10SM BKN044 M17/M20 A3022 RMK AO2 SNB1355E09 SLP250 P0000 60000 T11671200 51013'
20180104,1500,HYR,HAYWARD_MUNI_AIRPORT_(ASOS),46.02,-91.45,-10,3,,,,-15,'KHYR 041453Z AUTO 19003KT 10SM OVC014 M23/M26 A3035 RMK AO2 SLP323 T12331261 51009'
20180104,1500,LHQ,LANCASTER_(ASOS),39.76,-82.66,15,8,,,,10,'KLHQ 041515Z AUTO 31012KT 10SM FEW016 BKN034 OVC041 M10/M15 A3007 RMK AO2 SNE09P0000 T11001150'
20180104,1500,MVL,MORRISVILLE-STOWE_ARPT_(ASOS),44.53,-72.62,9,0,,,,7,'KMVL 041454Z AUTO 00000KT 10SM M13/M14 A2977 RMK AO2 SNB35E44 SLPNO P0000 60000 T11281139 $'
20180104,1500,UUU,NEWPORT_(ASOS),41.53,-71.28,29,29,43,49,49,28,'KUUU 041518Z AUTO 02023G38KT 1/4SM FZFG VV002 M02/M02 A2918 RMK AO2 PK WND 03043/1459 P0007 T10171017 PWINO FZRANO $'
20180104,1500,IWI,WISCASSET_(ASOS),43.96,-69.71,20,5,,,,19,'KIWI 041528Z AUTO VRB04KT 3/4SM -SN BR FEW009 OVC015 M06/M07 A2960 RMK AO2 PRESFR P0003 T10611072'
20180104,1500,FFC,PEACHTREE_CITY_(ASOS),33.34,-84.57,27,17,25,,25,11,'KFFC 041453Z AUTO 32015G22KT 10SM CLR M03/M12 A3009 RMK AO2 SLP201 T10281117 53013'
20180104,1500,ISW,WISCONSN_RAPIDS_(ASOS),44.44,-89.83,-8,0,,,,-13,'KISW 041512Z AUTO 00000KT 10SM SCT025 M22/M24 A3034 RMK AO2 T12171239'
20180104,1500,AFN,JAFFREY_MUNICIPAL_(ASOS),42.80,-72.00,18,6,,,,16,'KAFN 041452Z AUTO 02006KT M1/4SM SN FZFG VV004 M08/M09 A2956 RMK AO2 SLP035 P0011 60018 T10781089 55030'
20180104,1500,AIG,ANTIGO,45.03,-89.14,0,15,,,,-8,'KAIG 041535Z AUTO 35011KT 10SM BKN022 M18/M22 A3024 RMK AO2 T11771220'
20180104,1500,BIV,TULIP_CITY_ARPT/HOLLAND_(ASOS),42.75,-86.10,14,7,,,,5,'KBIV 041453Z AUTO 36006KT 10SM SCT047 OVC055 M10/M15 A3018 RMK AO2 SLP235 60000 T11001150 52005'
20180104,1500,DLL,BARABOO/WISCONSIN_DELLS,43.31,-89.46,-4,5,,,,-10,'KDLL 041535Z AUTO 32003KT 10SM CLR M18/M23 A3034 RMK AO2 T11851228'
20180104,1500,DMO,SEDALIA_(ASOS),38.72,-93.17,7,6,,,,1,'KDMO 041453Z AUTO 35005KT 10SM CLR M14/M17 A3042 RMK AO2 SLP319 T11391172'
20180104,1500,DVN,QUAD_CITIES/QUAD_CITIES_(ASOS),41.61,-90.57,-8,8,,,,-14,'KDVN 041452Z AUTO 31007KT 10SM CLR M22/M26 A3041 RMK AO2 SLP316 T12221256 53012'
20180104,1500,FFT,CAPITAL_CITY_ARPT_(ASOS),38.19,-84.90,11,8,,,,2,'KFFT 041453Z AUTO 31007KT 10SM BKN049 M12/M17 A3020 RMK AO2 SLP238 T11171167 51016'
20180104,1500,FSW,FORT_MADISON,40.67,-91.33,-4,7,,,,-8,'KFSW 041535Z AUTO 33003KT 10SM SCT120 M19/M22 A3041 RMK AO2'
20180104,1500,GVL,GAINSVILLE_(ASOS),34.32,-83.83,25,16,23,,23,9,'KGVL 041453Z AUTO 30014G20KT 10SM CLR M04/M13 A2998 RMK AO2 SLP160 T10391128 53015'
20180104,1500,IOW,IOWA_CITY_(ASOS),41.63,-91.55,-1,5,,,,-7,'KIOW 041452Z AUTO 33004KT 10SM OVC120 M18/M22 A3043 RMK AO2 SLP322 T11831217 53006'
20180104,1500,RPD,RICE_LAKE,45.48,-91.72,-17,0,,,,-23,'KRPD 041535Z AUTO 00000KT 10SM OVC011 M25/M28 A3039 RMK AO2 T12501280'
20180104,1500,SUW,SUPERIOR,46.69,-92.09,-18,5,,,,-23,'KSUW 041535Z AUTO 23003KT 10SM CLR M26/M29 A3045 RMK AO2 T12601290'
20180104,1500,DNL,AUGUSTA_(ASOS),33.47,-82.03,32,15,23,,23,11,'KDNL 041453Z AUTO 30013G20KT 10SM CLR 00/M12 A2997 RMK AO2 SLP152 T00001117 53015'
20180104,1500,EHR,HENDERSON_CITY,37.82,-87.68,9,9,,,,1,'KEHR 041456Z AUTO 32008KT 10SM CLR M13/M17 A3037 RMK AO2 SLP296 T11281172 53018 FZRANO'
20180104,1500,ENW,KENOSHA_(ASOS),42.59,-87.94,1,10,20,,20,-9,'KENW 041453Z 33009G17KT 10SM CLR M17/M23 A3029 RMK AO2 SLP275 T11721228 51009'
20180104,1500,MFI,MARSHFIELD_(ASOS),44.63,-90.18,-8,7,,,,-13,'KMFI 041454Z AUTO 34006KT 8SM FEW020 M22/M25 A3029 RMK AO2 SLP298 T12221250 53006 TSNO'
20180104,1500,SGJ,ST_AUGUSTINE_AIRPT,29.97,-81.33,36,8,,,,18,'KSGJ 041456Z 29007KT 10SM CLR 02/M09 A3012 RMK AO2 SLP198 T00221089 51010'
20180104,1500,UES,WAUKESHA_CNTY_ARPT,43.02,-88.14,-6,7,,,,-11,'KUES 041445Z 30006KT 10SM SKC M21/M24 A3030'
20180104,1500,UNO,WEST_PLAINS_(ASOS),36.73,-91.85,13,7,,,,4,'KUNO 041453Z AUTO 34006KT 10SM CLR M11/M16 A3035 RMK AO2 SLP296 T11061156 51015'
20180104,1500,FLD,FOND_DU_LAC_(ASOS),43.77,-88.49,-2,0,,,,-10,'KFLD 041453Z AUTO 00000KT 10SM CLR M19/M23 A3032 RMK AO2 SNE03 SLP289 P0000 60000 T11891233 52008 TSNO'
20180104,1500,LEE,LEESBURG_MUNICIPAL_ARPT_(ASOS),28.82,-81.81,39,12,,,,18,'KLEE 041453Z 31010KT 10SM CLR 04/M08 A3018 RMK AO2 SLP218 T00391078 51013'
20180104,1500,MIW,MARSHALLTOWN_(ASOS),42.11,-92.91,0,5,,,,-5,'KMIW 041453Z AUTO 32004KT 10SM FEW090 OVC110 M18/M21 A3038 RMK AO2 SLP315 T11781206 51006'
20180104,1500,SBM,SHEBOYGAN_(ASOS),43.78,-87.85,2,14,22,,22,-7,'KSBM 041453Z AUTO 34012G19KT 9SM CLR M17/M22 A3029 RMK AO2 SNB43E52 SLP276 P0000 60000 T11671217 51008 TSNO'
20180104,1500,LWV,LAWRENCEVILLE-VINCENNES_(ASOS),38.76,-87.60,6,12,,,,-2,'KLWV 041453Z AUTO 32010KT 10SM CLR M14/M19 A3034 RMK AO2 SLP284 T11441189 51013'
20180104,1500,PGD,PUNTA_GORDA_(ASOS),26.92,-82.00,47,9,,,,25,'KPGD 041453Z 02008KT 10SM CLR 08/M04 A3020 RMK AO2 SLP226 T00831039 51013'
20180104,1500,HTO,EASTHAMPTON,40.96,-72.25,29,23,,,,28,'KHTO 041535Z AUTO 36023G41KT OVC004 M01/M02 A2915 RMK AO2 P0001 T10091016 PWINO'
20180104,1500,DCU,DECATUR-PRYOR_FIELD_(ASOS),34.65,-86.94,20,12,,,,9,'KDCU 041453Z AUTO 35010KT 10SM CLR M07/M13 A3027 RMK AO2 SLP255 T10671128 51022'
20180104,1500,CDD,CRANE_LAKE_(AWOS),46.27,-92.57,-33,0,,,,-38,'KCDD 041528Z AUTO 00000KT 10SM CLR M33/M37 A3043 RMK AO2'
20180104,1500,JMR,MORA,45.89,-93.27,-13,3,,,,-18,'KJMR 041515Z AUTO 34004KT 10SM CLR M24/M27 A3042 RMK AO2'
20180104,1500,LVN,MINNEAPOLIS_(AIRLAKE_APT),44.63,-93.23,-2,0,,,,-8,'KLVN 041515Z AUTO 00000KT 10SM OVC080 M19/M22 A3040 RMK AO2'
20180104,1500,MCD,MACKINAC_ISLAND,45.86,-84.64,-8,10,16,,16,-15,'KMCD 041515Z AUTO 36007KT 10SM CLR M22/M26 A3024 RMK AO2 T12201263'
20180104,1500,OZW,HOWELL,42.63,-83.98,9,13,24,,24,0,'KOZW 041515Z AUTO 35012G25KT 5SM HZ OVC029 M13/M18 A3009 RMK AO2 T11291180'
20180104,1500,ANE,MINNEAPOLIS/BLAINE,45.15,-93.22,-6,5,,,,-11,'KANE 041455Z 01004KT 10SM BKN100 M21/M24 A3041'
20180104,1500,CKC,GRAND_MARAIS/COOK_COUNTY_AIRPORT,47.84,-90.38,-18,12,,,,-26,'KCKC 041515Z AUTO 34011G15KT 10SM CLR M27/M32 A3025 RMK AO2'
20180104,1500,GSH,GOSHEN_MUNICIPAL_AIRPORT_(ASOS),41.53,-85.79,,12,,,,-9999,'KGSH 041453Z AUTO 28010KT 4SM HZ OVC047 A3017 RMK AO2 SLPNO 51008 $'
20180104,1500,TZR,COLUMBUS_(BOLTON_FLD),39.90,-83.13,12,16,24,,24,5,'KTZR 041450Z 33014G21KT 10SM BKN019 BKN024 M11/M15 A3009'
20180104,1500,DTS,DESTIN_AIRPORT_(ASOS),30.39,-86.47,36,13,,,,14,'KDTS 041453Z 33011KT 10SM CLR 02/M10 A3025 RMK AO2 SLP243 T00221100 50014'
20180104,1500,DKK,DUNKIRK_AIRPORT_(ASOS),42.49,-79.28,14,20,30,30,30,6,'KDKK 041453Z AUTO 32017G26KT 7SM FEW026 M10/M14 A2989 RMK AO2 PK WND 32026/1447 SLP135 T11001144 56006'
20180104,1500,BJJ,WOOSTER/WAYNE_CTY_ARPT_(ASOS),40.87,-81.89,11,12,,,,3,'KBJJ 041527Z AUTO 32010KT 1 3/4SM -SN BKN020 OVC027 M12/M15 A3001 RMK AO2 P0000T11171150'
20180104,1500,SET,ST_CHARLES_(ASOS),38.93,-90.43,5,8,,,,-2,'KSET 041454Z AUTO 31007KT 10SM CLR M15/M19 A3042 RMK AO2 SLP308 T11501189 51012'
20180104,1500,AVC,SOUTH_HILL/MECKLENBURG-BRUNSWICK,36.69,-78.05,27,14,20,,20,10,'KAVC 041535Z AUTO 32009G18KT 10SM CLR M03/M12 A2981 RMK AO2 T10261125'
20180104,1500,CLI,CLINTONVILLE_MUNI_ARPT,44.61,-88.73,-2,5,,,,-9,'KCLI 041535Z AUTO 35005KT 10SM CLR M17/M22 A3032 RMK AO2'
20180104,1500,DYT,DULUTH-SKY_HARBOR_ARPT,46.72,-92.04,-15,7,,,,-18,'KDYT 041515Z AUTO 22005KT 10SM CLR M25/M28 A3045 RMK AO2'
20180104,1500,EGV,EAGLE_RIVER-UNION_ARPT,45.93,-89.27,1,9,,,,-7,'KEGV 041535Z AUTO 34011KT 7SM OVC021 M17/M22 A3023 RMK AO2 T11711220'
20180104,1500,UNU,JUNEAU-DODGE_CTY_ARPT,43.43,-88.70,-5,0,,,,-10,'KUNU 041535Z AUTO 33004KT 10SM CLR M19/M23 A3033 RMK AO2 T11931226'
20180104,1500,TTF,MONROE-CUSTER_ARPT,41.94,-83.43,8,12,,,,0,'KTTF 041515Z AUTO 30008KT 10SM OVC030 M13/M18 A3010 RMK AO2 T11301177'
20180104,1500,ACB,BELLAIRE-ANTRIM_CTY_ARPT,44.99,-85.20,2,9,,,,-2,'KACB 041515Z AUTO 03008KT 5SM HZ BKN022 OVC028 M17/M20 A3024 RMK AO2 T11701197'
20180104,1500,AMN,ALMA-GRATIOT_COMM_ARPT,43.32,-84.69,9,12,18,,18,0,'KAMN 041518Z AUTO 33012KT 10SM CLR M13/M18 A3015 RMK AO2 T11271182'
20180104,1500,IDI,INDIANA-INDIANA_CTY_ARPT,40.63,-79.10,16,9,17,,17,12,'KIDI 041535Z AUTO 32007G16KT 290V350 9SM OVC020 M09/M12 A2986 RMK A01'
20180104,1500,IRS,STURGIS-KIRSCH_MUNI_ARPT,41.81,-85.44,12,3,,,,4,'KIRS 041515Z AUTO 29006KT 10SM SCT040 BKN050 M10/M15 A3014 RMK AO2 T11041155'
20180104,1500,MRJ,MINERAL_POINT-IOWA_CTY_ARPT,42.89,-90.23,-4,5,,,,-8,'KMRJ 041535Z AUTO 32006KT 10SM CLR M18/M20 A3032 RMK AO2'
20180104,1500,GKJ,MEADVILLE-PORT_MEADVILLE_ARPT,41.63,-80.21,13,9,,,,10,'KGKJ 041519Z AUTO 31008G23KT 1 1/4SM -SN BR FEW012 BKN017 OVC035 M10/M12 A2985 RMK AO2 P0000 T11001122 $'
20180104,1500,TEW,MASON-JEWETT_FIELD,42.57,-84.42,10,13,17,,17,1,'KTEW 041515Z AUTO 34011KT 5SM -SN SCT018 M12/M17 A3011 RMK AO2 T11201173'
20180104,1500,OGB,ORANGEBURG/MUNI_ARPT_(ASOS),33.46,-80.85,30,10,,,,14,'KOGB 041453Z AUTO 30009KT 10SM CLR M01/M10 A2995 RMK AO2 SLP143 T10111100 53013'
20180104,1500,MUHG,HOLGUIN_(CIV/MIL)_&,20.78,-76.32,73,10,,,,61,'MUHG 041450Z 02009KT 350V060 9000 FEW030 23/16 Q1018'
20180104,1500,GZH,EVERGREEN_(ASOS),31.42,-87.04,31,9,17,,17,12,'KGZH 041453Z AUTO 34008G15KT 10SM CLR M01/M11 A3026 RMK AO2 SLP248 T10061111 51011'
20180104,1500,MAI,MARIANA_(ASOS),30.80,-85.21,33,10,,,,13,'KMAI 041453Z AUTO 30009KT 10SM CLR 01/M11 A3021 RMK AO2 SLP230 T00061106 51018'
20180104,1500,LPR,LORAIN/ELYRIA_(ASOS),41.34,-82.18,11,12,,,,-1,'KLPR 041453Z AUTO 35010KT 5SM -SN OVC030 M12/M18 A3005 RMK AO2 SNB33 SLP192 P0000 60000 T11171183 51003'
20180104,1500,P92,SALT_POINT__(ASOS),29.60,-91.30,37,3,,,,20,'KP92 041453Z AUTO VRB03KT 03/M07 A3037 RMK AO1 SLP284 T00281067 53015 $'
20180104,1500,HAO,HAMILTON_AIRPORT_(ASOS),39.36,-84.52,12,9,,,,5,'KHAO 041453Z AUTO 30008KT 10SM OVC047 M11/M15 A3020 RMK AO2 SLP238 T11111150 53013'
20180104,1500,HLX,HILLSVILLE,36.77,-80.82,13,28,35,,35,-1,'KHLX 041535Z AUTO 33027G37KT 10SM OVC033 M10/M18 A2972 RMK AO2 T11021185'
20180104,1500,BAX,BAD_AXE,43.78,-82.99,3,16,20,,20,-3,'KBAX 041515Z AUTO 32011KT 1SM -SN SCT016 OVC027 M16/M20 A3010 RMK AO2 T11641196'
20180104,1500,EFT,MONROE,42.62,-89.59,-4,6,,,,-9,'KEFT 041535Z AUTO 32007KT 10SM CLR M18/M22 A3031 RMK AO2'
20180104,1500,ERY,NEWBERRY,46.31,-85.46,-4,12,,,,-8,'KERY 041515Z AUTO 03010G16KT 4SM HZ SCT015 SCT021 OVC032 M19/M22 A3023 RMK AO2 T11951224'
20180104,1500,OEB,COLDWATER,41.94,-85.05,12,9,,,,2,'KOEB 041515Z AUTO 33007KT 10SM BKN046 M11/M17 A3013 RMK AO2 T11081170'
20180104,1500,RMY,MARSHALL,42.25,-84.96,10,5,,,,3,'KRMY 041515Z AUTO 31004KT 10SM OVC039 M11/M16 A3012 RMK AO2 T11151161'
20180104,1500,MDZ,MEDFORD,45.10,-90.30,-8,5,,,,-12,'KMDZ 041535Z AUTO 34005KT 10SM OVC019 M21/M23 A3028 RMK AO2 T12081231'
20180104,1500,STE,STEVENS_POINT_MUNI,44.55,-89.53,-7,5,,,,-12,'KSTE 041515Z AUTO 32003KT 10SM SCT024 M21/M24 A3031 RMK AO2 T12081237'
20180104,1500,SEG,SELINSGROVE_(ASOS),40.83,-76.87,22,14,,,,12,'KSEG 041453Z AUTO 33012KT 8SM BKN050 OVC075 M06/M11 A2974 RMK AO2 SLP078 60000 T10561111 56012'
20180104,1500,THV,YORK_AIRPORT_(ASOS),39.93,-76.88,21,17,25,,25,13,'KTHV 041453Z AUTO 33015G22KT 6SM -SN BKN036 OVC044 M06/M11 A2968 RMK AO2 SNB27 SLP060 P0000 60000 T10611106 58002'
20180104,1500,PQL,PASCAGOULA_(ASOS),30.47,-88.53,33,8,,,,15,'KPQL 041453Z 33007KT 10SM CLR 01/M09 A3033 RMK AO2 SLP273 T00061094 53013'
20180104,1500,AKQ,WAKEFIELD_(ASOS),36.98,-77.00,24,10,,,,19,'KAKQ 041513Z AUTO 31007KT 1 3/4SM -SN BKN029 OVC036 M04/M07 A2972 RMK AO2 P0000T10441072'
20180104,1500,GED,GEORGETOWN/SUSSEX_(ASOS),38.68,-75.37,24,17,33,33,33,20,'KGED 041519Z AUTO 31014G29KT 1/4SM FZFG VV012 M04/M07 A2946 RMK AO2 PK WND 34029/1511 T10441067 PWINO FZRANO'
20180104,1500,VAY,MOUNT_HOLLY_(ASOS),39.93,-74.83,24,23,32,32,32,22,'KVAY 041454Z AUTO 33020G28KT 1/4SM +SN FZFG VV006 M04/M06 A2945 RMK AO2 PK WND 34028/1445 SNB01 SLP974 P0000 60000 T10441056 58018'
20180104,1500,FIT,FITCHBURG_(ASOS),42.55,-71.76,24,15,25,,25,20,'KFIT 041531Z AUTO 35013G20KT 1/4SM +SN FZFG VV004 M04/M06 A2947 RMK AO2 PRESFR P0002 T10441061'
20180104,1500,MGY,DAYTON_(ASOS),39.59,-84.22,12,8,,,,6,'KMGY 041453Z AUTO 31007KT 10SM OVC044 M11/M14 A3013 RMK AO2 SLP219 T11111144 51009'
20180104,1500,TAN,TAUNTON_(ASOS),41.87,-71.02,30,13,28,31,31,-9999,'KTAN 041508Z AUTO 01013G27KT 1/4SM +SN VV004 M01/ A2932 RMK AO2 PK WND 03027/1506 LTG DSNT SW PRESFR P0000 T1011 $'
20180104,1500,TOB,DODGE_CENTER,44.02,-92.83,-2,3,,,,-9,'KTOB 041515Z AUTO 01003KT 10SM BKN080 M19/M23 A3034 RMK AO2'
20180104,1500,MTO,MATTOON/CHARLESTON_(ASOS),39.48,-88.28,0,12,,,,-5,'KMTO 041453Z AUTO 32010KT 10SM CLR M18/M21 A3031 RMK AO2 SLP282 T11781206 51012'
20180104,1500,POF,POPLAR_BLUFF_(ASOS),36.77,-90.32,14,10,,,,2,'KPOF 041453Z AUTO 35009KT 10SM CLR M10/M17 A3041 RMK AO2 SLP308 T11001167 51018'
20180104,1500,VPZ,VALPARAISO_(ASOS),41.45,-87.00,9,15,,,,4,'KVPZ 041535Z AUTO 29014KT 3/4SM -SN BKN011 OVC038 M12/M15 A3023 RMK AO2 P0000 T11171150'
20180104,1500,TDZ,METCALF_FIELD/TOLEDO_(ASOS),41.56,-83.48,8,10,,,,0,'KTDZ 041453Z AUTO 30009KT 10SM BKN033 M13/M18 A3013 RMK AO2 SLP215 T11331178 50008'
20180104,1500,PEO,PENN_YAN_AIRPORT_(ASOS),42.64,-77.05,19,10,20,,20,12,'KPEO 041528Z AUTO 31011G18KT 2 1/2SM -SN BKN033 OVC043 M07/M11 A2976 RMK AO2 UPB1459E04SNE1459B04 P0000 T10671111'
20180104,1500,MGJ,ORANGE_COUNTY_AIRPORT_(ASOS),41.51,-74.26,21,7,,,,18,'KMGJ 041454Z AUTO 01006KT 1/4SM SN FZFG VV006 M06/M08 A2955 RMK AO2 SLP014 P0010 60016 T10611078 58036'
20180104,1500,ADG,LENAWEE_COUNTY_AIRPORT_(ASOS),41.87,-84.07,7,7,,,,0,'KADG 041453Z AUTO 34006KT 10SM SCT033 M14/M18 A3013 RMK AO2 SLP222 T11391178 51007 TSNO'
20180104,1500,DFI,DEFIANCE_MEMORIAL_APRT_(ASOS),41.34,-84.43,9,5,,,,-2,'KDFI 041453Z AUTO 27004KT 10SM BKN042 M13/M19 A3016 RMK AO2 SLP228 T11281189 52007'
20180104,1500,40J,PERRY_FOLEY_ARPT_(ASOS),30.07,-83.57,34,8,,,,15,'K40J 041535Z AUTO 29009G14KT 10SM CLR 03/M09 A3020 RMK AO2 T00281091'
20180104,1500,AOH,LIMA_ALLEN_CNTY_APT_(ASOS),40.71,-84.03,,10,,,,-9999,'KAOH 041453Z AUTO 32009KT 10SM BKN038 A3011 RMK AO2 SLPNO 51011 $'
20180104,1500,CTY,CROSS_CITY_ARPT_(ASOS),29.62,-83.10,35,7,,,,15,'KCTY 041535Z AUTO 29007KT 10SM CLR 03/M10 A3024 RMK AO2 T00301105'
20180104,1500,FLP,FLIPPIN_(AWOS),36.20,-92.47,18,5,,,,9,'KFLP 041456Z AUTO 35004KT 10SM CLR M08/M13 A3041 RMK AO2 SLP308 T10781128 53017 FZRANO'
20180104,1500,PHD,HARRY_CLEVER_FIELD_(ASOS),40.47,-81.42,12,13,26,,26,3,'KPHD 041453Z AUTO 33011G23KT 6SM -SN OVC034 M11/M16 A3002 RMK AO2 SNB1358E08B51 SLP181 P0000 60000 T11111161 51007'
20180104,1500,RQB,ROBIN_HOOD_AIRPORT,43.72,-85.50,7,9,,,,-2,'KRQB 041515Z AUTO 36008KT 10SM CLR M13/M19 A3014 RMK AO2 T11331192'
20180104,1500,EDE,EDENTON_NORTHEA,36.03,-76.57,27,12,20,,20,24,'KEDE 041525Z AUTO 32008G16KT 7SM UP BKN015 BKN024 M02/M04 A2973 RMK AO2 T10201045'
20180104,1500,ILN,AIRBORNE_AIRPARK_ARPT_(ASOS),39.42,-83.77,12,10,,,,7,'KILN 041454Z AUTO 31009KT 7SM OVC044 M11/M14 A3010 RMK AO2 SLP235 60000 T11111139 51007'
20180104,1500,RAC,RACINE_JOHN_H_B_(ASOS),42.76,-87.81,3,13,,,,-7,'KRAC 041453Z AUTO 33011KT 10SM CLR M16/M22 A3030 RMK AO2 SLP276 T11611217 51008'
20180104,1500,GLR,OTSEGO_COUNTY_ARPT_(ASOS),45.01,-84.70,-6,8,,,,-13,'KGLR 041518Z AUTO VRB05KT 10SM SCT012 M21/M25 A3013 RMK AO2 T12111250'
20180104,1500,FAY,FAYETTEVILLE_RGNL_(ASOS),34.98,-78.88,30,17,24,,24,12,'KFAY 041453Z 30015G21KT 10SM CLR M01/M11 A2984 RMK AO2 SLP102 T10111111 53018'
20180104,1500,DMH,BALTIMORE_SCIENCE_CNTR_(ASOS),39.28,-76.61,25,,,,,14,'KDMH 041454Z AUTO M04/M10 A2965 RMK AO1 SLP038 T10391100 56010'
20180104,1500,CCO,NEWNAN_COWETA_ARPT,33.31,-84.77,27,9,16,,16,8,'KCCO 041535Z AUTO 32010G15KT 10SM CLR M02/M14 A3010 RMK AO2 T10191138'
20180104,1500,FQD,RUTHERFORDTON,35.43,-81.94,28,6,,,,7,'KFQD 041525Z AUTO 33005KT 10SM CLR M01/M14 A2990 RMK AO2 T10151139'
20180104,1500,JYM,HILLSDALE,41.92,-84.59,10,14,,,,1,'KJYM 041515Z AUTO 32010G16KT 10SM OVC033 M12/M17 A3009 RMK AO2'
20180104,1500,MNN,MARION_(ASOS),40.62,-83.06,9,13,,,,1,'KMNN 041453Z AUTO 33011KT 10SM SCT037 M13/M17 A3008 RMK AO2 SNE1355 SLP208 P0000 60000 T11281172 53013'
20180104,1500,SFQ,SUFFOLK,36.68,-76.60,26,17,24,,24,21,'KSFQ 041535Z AUTO 30013G19KT 1SM -SN OVC018 M04/M06 A2970 RMK AO2 T10371060'
20180104,1500,OEO,OSCEOLA,45.31,-92.69,-16,0,,,,-22,'KOEO 041535Z AUTO 00000KT 10SM BKN007 M25/M28 A3046 RMK AO2 T12541284'
20180104,1500,ETB,WEST_BEND,43.42,-88.13,0,8,,,,-8,'KETB 041535Z AUTO 34007KT 10SM CLR M17/M22 A3029 RMK AO2'
20180104,1500,DNN,DALTON_MUNI_AIRPORT,34.72,-84.87,25,15,22,,22,12,'KDNN 041535Z AUTO 35013G21KT 10SM SCT034 M03/M11 A3016 RMK AO2'
20180104,1500,CPK,CHESAPEAKE,36.66,-76.32,24,14,28,,28,20,'KCPK 041535Z AUTO 29017G24KT OVC011 M05/M06 A2968 RMK AO2 T10471061 PWINO'
20180104,1500,CJR,CULPEPER,38.53,-77.86,25,17,29,,29,6,'KCJR 041535Z AUTO 32011G21KT 10SM SCT044 OVC050 M03/M14 A2976 RMK AO2 T10351145'
20180104,1500,EET,SHELBY_COUNTY_ARPT_(ASOS),33.17,-86.77,27,9,,,,13,'KEET 041453Z AUTO 33008KT 10SM CLR M03/M11 A3022 RMK AO2 SLP239 T10281106 53015'
20180104,1500,ISQ,MANISTIQUE,45.97,-86.17,2,10,17,,17,-6,'KISQ 041515Z AUTO 36007KT 10SM SCT030 SCT035 OVC041 M16/M21 A3025 RMK AO2 T11641207'
20180104,1500,OWD,NORWOOD_MEMORIAL_ARPT_(ASOS),42.18,-71.17,27,18,29,,29,24,'KOWD 041453Z 35016G25KT 1/4SM SN FZFG VV008 M03/M04 A2944 RMK AO2 PRESFR SLP969 P0003 60004 T10281044 56074'
20180104,1500,GEZ,SHELBYVILLE_MUNI_ARPT_(ASOS),39.65,-85.80,7,8,,,,0,'KGEZ 041453Z AUTO 31007KT 9SM OVC047 M14/M18 A3021 RMK AO2 SNB30E39 SLP247 P0000 60000 T11391178 52012'
20180104,1500,BUY,BURLINGTON-ALAMANCE_REG_(ASOS),36.03,-79.47,31,18,33,33,33,9,'KBUY 041454Z AUTO 31016G29KT 10SM CLR M01/M13 RMK AO2 PK WND 31029/1447 SLPNO T10061128'
20180104,1500,MEB,LAURINBURG-MAXTON_ARPT_(ASOS),34.78,-79.37,28,10,,,,13,'KMEB 041452Z AUTO 32009KT 10SM CLR M02/M11 A2987 RMK AO2 SLP118 T10221106 53017'
20180104,1500,BYH,EAKER_AFB,35.97,-89.95,16,10,17,,17,7,'KBYH 041458Z 02009G15KT 10SM SKC M09/M14 A3041'
20180104,1500,CWF,CHENAULT_AIRPARK,30.22,-93.15,,8,,,,-9999,'KCWF 041455Z 04007KT 10SM SKC 2/M05 A3040'
20180104,1500,PMP,POMPANO_BEACH_(ASOS),26.25,-80.11,48,22,28,,28,24,'KPMP 041453Z 32019G24KT 9SM CLR 09/M04 A3017 RMK AO2 SLP218 T00891044 51022'
20180104,1500,AAF,APALACHICOLA_MUNI_(ASOS),29.73,-85.03,35,12,,,,13,'KAAF 041453Z AUTO 32010KT 10SM CLR 02/M11 A3023 RMK AO2 SLP237 T00171106 50018'
20180104,1500,GNA,GRAND_MARAIS_(ASOS),47.75,-90.35,-8,0,,,,-18,'KGNA 041456Z AUTO 00000KT M22/M28 A3043 RMK AO1 SLP338 T12221278 51010 $'
20180104,1500,12N,ANDOVER/AEROFLEX_ARPT_(ASOS),41.00,-74.73,20,10,18,,18,17,'K12N 041454Z AUTO 36009G16KT 320V020 M07/M08 A2954 RMK AO1 SLP019 P0009 60020 T10671083 56029'
20180104,1500,OQT,OAK_RIDGE_(ASOS),36.02,-84.23,22,10,18,,18,7,'KOQT 041453Z AUTO 35009G16KT 320V020 10SM BKN030 OVC036 M06/M14 A3013 RMK AO2 SNE23 SLP224 P0000 60000 T10561139 53019'
20180104,1500,MTP,MONTAUK_AIRPORT_(ASOS),41.07,-71.92,34,28,43,43,43,31,'KMTP 041454Z AUTO 01024G37KT 01/M01 A2921 RMK AO1 PK WND 02037/1449 SLP892 P0034 60045 T00111006 58084'
20180104,1500,LBT,LUMBERTON_MUNI_AIRPORT_(ASOS),34.61,-79.06,26,10,,,,12,'KLBT 041454Z AUTO 28009KT 10SM CLR M03/M11 A2987 RMK AO2 SLP116 60000 T10331111 53018'
20180104,1500,ASX,KENNEDY_MEMORIAL_AIRPORT_(ASOS),46.54,-90.92,2,8,,,,-6,'KASX 041453Z AUTO 01007KT 10SM OVC016 M17/M21 A3039 RMK AO2 SLP315 T11671211 51007'
20180104,1500,CUB,COLUMBIA_OWENS_AIRPORT_(ASOS),33.97,-80.99,34,7,17,,17,10,'KCUB 041453Z AUTO 31006G15KT 10SM CLR 01/M12 A2995 RMK AO2 SLP141 T00111122 53015'
20180104,1500,MQE,MILTON_(ASOS),42.22,-71.12,25,,,37,37,22,'KMQE 041456Z AUTO M04/M06 A2937 RMK AO1 PK WND 34032/1452 PRESFR SLP965 P0011 60018 T10391056 56076'
20180104,1500,1V4,ST._JOHNSBURY_(ASOS),44.42,-72.02,7,,,,,4,'K1V4 041454Z AUTO M14/M16 A2974 RMK AO1 SLP096 T11391156 56041'
20180104,1500,SVH,STATESVILLE,35.76,-80.96,27,10,20,,20,0,'KSVH 041525Z AUTO 33013G20KT 10SM CLR M02/M18 A2986 RMK AO2 T10211182'
20180104,1500,WWD,WILDWOOD(AWOS),39.02,-74.92,25,18,36,36,36,23,'KWWD 041455Z AUTO 32016G31KT 1/4SM +SN FZFG OVC005 M04/M05 A2940 RMK AO2 PK WND 34031/1449 CIG 003V008 SLP957 P0001 60001 T10391050 56011 FZRANO'
20180104,1500,DDH,MORSE_STATE_AIRPORT_(ASOS),42.89,-73.24,17,5,,,,13,'KDDH 041454Z AUTO 30004KT 1/4SM SN FZFG VV009 M08/M11 A2962 RMK AO2 PRESFR SLP046 P0008 60010 T10831106 58027'
20180104,1500,HZY,ASHTABULA_COUNTY_AIRPORT_(ASOS),41.77,-80.69,14,13,22,,22,10,'KHZY 041530Z AUTO 34013G21KT 2 1/2SM -SN BKN018 BKN025 OVC029 M10/M13 A2995 RMKAO2 VIS 2V4 P0000 T11001133'
20180104,1500,UZA,ROCK_HILL-YORK_CNTY_ARPT_(ASOS),34.98,-81.05,30,14,21,,21,10,'KUZA 041454Z AUTO 32012G18KT 10SM CLR M01/M12 A2989 RMK AO2 SLP133 T10111122 53016'
20180104,1500,VTA,NEWARK-HEATH_AIRPORT_(ASOS),40.02,-82.46,14,14,,,,8,'KVTA 041535Z AUTO 32012KT 4SM -SN FEW016 SCT026 OVC037 M10/M14 A3006 RMK AO2 P0000 T11001144'
20180104,1500,ASD,SLIDELL_(ASOS),30.35,-89.82,33,5,,,,17,'KASD 041453Z AUTO 36004KT 10SM CLR 01/M08 A3035 RMK AO2 SLP278 T00061083 51016'
20180104,1500,ROS,RUSH_CITY,45.70,-92.95,-13,0,,,,-18,'KROS 041515Z AUTO 36003KT 10SM SCT100 M24/M27 A3042 RMK AO2 T12451271'
20180104,1500,BPK,BAXTER_COUNTY_ARPT_(ASOS),36.37,-92.47,15,3,,,,8,'KBPK 041453Z AUTO VRB03KT 10SM CLR M09/M13 A3038 RMK AO2 SLP301 T10941133 53016'
20180104,1500,LLQ,MONTICELLO_ARPT_(ASOS),33.64,-91.75,29,7,,,,14,'KLLQ 041453Z AUTO 03006KT 10SM CLR M02/M10 A3039 RMK AO2 SLP293 T10171100 53015'
20180104,1500,HKA,BLYTHEVILLE_ARPT_(ASOS),35.94,-89.83,16,16,,,,7,'KHKA 041453Z AUTO 01014KT 10SM CLR M09/M14 A3041 RMK AO2 SLP302 T10891139 51019 $'
20180104,1500,CHO,CHARLOTTESVILLE_APRT_(ASOS),38.14,-78.45,26,13,30,32,32,4,'KCHO 041453Z 34011G26KT 300V010 10SM FEW048 M03/M16 A2976 RMK AO2 PK WND 34028/1357 SLP082 T10331156 53023'
20180104,1500,DPL,KENANSVILLE/DUPLIN_COUNTY,35.00,-77.98,28,12,23,,23,12,'KDPL 041525Z AUTO 30011KT 10SM CLR M01/M11 A2982 RMK AO2'
20180104,1500,HFF,MACKALL_AAF,35.03,-79.50,26,7,,,,12,'KHFF 041456Z AUTO 31006KT 10SM CLR M03/M11 A2985 RMK AO2 SLP128 P0002 60003 T10331111 52014 $'
20180104,1500,RUE,RUSSELLVILLE_MCPL_(ASOS),35.25,-93.09,26,8,,,,11,'KRUE 041453Z AUTO 01007KT 10SM CLR M03/M12 A3039 RMK AO2 SLP293 T10331117 51018'
20180104,1500,AKH,GASTONIA_MCPL_(ASOS),35.19,-81.15,31,6,,,,7,'KAKH 041454Z AUTO VRB05KT 10SM CLR M01/M14 A2987 RMK AO2 SNB14E47 SLP125 P0000 60000 T10061139 53017'
20180104,1500,PSF,PITTSFIELD_MCPL_APRT_(ASOS),42.42,-73.29,18,5,,,,14,'KPSF 041454Z AUTO 26004KT 1/4SM -SN FZFG VV007 M08/M10 A2954 RMK AO2 SLP027 P0007 60013 T10781100 58041'
20180104,1500,EQY,MONROE_AIRPORT_(ASOS),35.02,-80.62,30,14,,,,8,'KEQY 041453Z AUTO 31012KT 10SM CLR M01/M13 A2986 RMK AO2 SLP136 T10111133 53014'
20180104,1500,OVS,BOSCOBEL_(ASOS),43.16,-90.68,-6,3,,,,-10,'KOVS 041453Z AUTO 20003KT 8SM CLR M21/M23 A3041 RMK AO2 SLP321 T12111233 53011'
20180104,1500,PTW,POTTSTOWN_LIMERICK_(ASOS),40.24,-75.55,19,18,31,33,33,16,'KPTW 041535Z AUTO 33013G24KT 3/4SM -SN BR VV016 M07/M09 A2954 RMK AO2 PK WND 32029/1456 P0000 T10671089'
20180104,1500,TKPK,GOLDEN_ROCK,17.30,-62.68,84,10,,,,75,'TKPK 041500Z 09009KT 9999 SCT018 29/24 Q1018'
20180104,1500,HWO,NORTH_PERRY_ARPT_(ASOS),25.99,-80.24,49,17,,,,25,'KHWO 041453Z 34015KT 10SM CLR 09/M04 A3019 RMK AO2 SLP223 T00941039 51021'
20180104,1500,AKR,AKRON_FULTON_INTL_ARPT_(ASOS),41.04,-81.46,12,13,,,,5,'KAKR 041513Z AUTO 31014G18KT 2SM -SN OVC016 M11/M15 A2998 RMK AO2 P0000 T11111150 $'
20180104,1500,APG,PHILLIPS_AAF/ABERDN,39.47,-76.17,21,12,24,,24,18,'KAPG 041458Z 33010G21KT 2SM -SN BLSN OVC030 M06/M08 A2959 RMK AO2A SLPNO P0000 60001 57016 $'
20180104,1500,CDW,CALDWELL/ESSEX_CO_(ASOS),40.88,-74.28,21,8,24,,24,19,'KCDW 041453Z 02007G21KT 320V080 1/4SM SN FZFG VV008 M06/M07 A2949 RMK AO2 SLP993 P0006 60009 T10611072 58037'
20180104,1500,SAW,K._I._SAWYER_AFB,46.35,-87.40,3,9,,,,-2,'KSAW 041447Z 32008KT 1/2SM SN SCT006 BKN014 OVC018 M16/M19 A3022'
20180104,1500,SMQ,SOMERSET_AIRPORT_(ASOS),40.62,-74.67,23,17,25,,25,21,'KSMQ 041514Z AUTO 34013G25KT 310V010 1/4SM SN FZFG VV016 M06/M07 A2945 RMK AO2 P0001 T10561067'
20180104,1500,MRN,MORGANTON-LENOIR_AIRPORT,35.82,-81.61,27,14,20,,20,5,'KMRN 041525Z AUTO 30013G29KT 10SM CLR M03/M15 A2993 RMK AO2 T10351151'
20180104,1500,MWK,MOUNT_AIRY/SURRY_COUNTY_APRT,36.46,-80.55,24,23,37,,37,1,'KMWK 041525Z AUTO 31014G27KT 300V360 10SM CLR M04/M18 A2986 RMK AO2 T10421176'
20180104,1500,OCW,WASHINGTON/WARREN_FIELD_APRT,35.57,-77.05,29,10,16,,16,18,'KOCW 041525Z AUTO 29012KT 10SM CLR M01/M09 A2976 RMK AO2 T10111087'
20180104,1500,P58,PORT_HOPE_(ASOS),44.02,-82.79,9,18,32,33,33,3,'KP58 041451Z AUTO 32016G28KT M13/M16 A3007 RMK AO1 PK WND 31029/1436 SLP203 T11281161 53006'
20180104,1500,PDC,PRAIRIE_DU_CHIEN_MUNI_APRT,43.02,-91.12,-6,3,,,,-12,'KPDC 041535Z AUTO 29005KT 10SM CLR M19/M23 A3041 RMK AO2 T11911231'
20180104,1500,VDI,VIDALIA_MUNI_APRT,32.19,-82.37,34,13,21,,21,14,'KVDI 041535Z AUTO 31011G16KT 10SM CLR 02/M10 A3004 RMK AO2'
20180104,1500,GEV,ASHE_COUNTY_ARPT,36.43,-81.42,10,23,37,,37,0,'KGEV 041530Z AUTO 32025G46KT 10SM OVC019 M12/M19 A2971 RMK AO2 T11251187'
20180104,1500,HBI,ASHEBORO_MUNI_ARPT,35.65,-79.90,27,20,28,,28,7,'KHBI 041540Z AUTO 30013G22KT 10SM CLR M02/M14 A2986 RMK AO2 T10251138'
20180104,1500,HRJ,ERWIN/HARNETT_COUNTY_ARPT,35.38,-78.73,29,8,16,,16,7,'KHRJ 041525Z AUTO 30008G15KT 10SM CLR M01/M14 A2983 RMK AO2 T10111136'
20180104,1500,MMK,MERIDEN/MARKHAM_MUNI_(ASOS),41.51,-72.83,22,20,29,33,33,20,'KMMK 041526Z AUTO 36013G26KT 1/4SM +SN FZFG VV005 M05/M06 A2935 RMK AO2 PK WND 36029/1506 P0002 T10501061'
20180104,1500,SRC,SEARCY_MUNI_AIRPORT,35.21,-91.74,23,9,,,,12,'KSRC 041456Z AUTO 02008KT 10SM CLR M05/M11 A3041 RMK AO2 SLP310 T10501111 51017 FZRANO'
20180104,1500,UKF,NORTH_WILKESBORO/WILKES_CNTY,36.22,-81.10,23,12,23,,23,1,'KUKF 041515Z AUTO 30015G29KT 10SM SCT050 M05/M17 A2992 RMK AO2'
20180104,1500,IGX,WILLIAMS_AIRPORT_(ASOS),35.77,-79.06,27,16,28,33,33,7,'KIGX 041456Z AUTO 31014G24KT 10SM CLR M03/M14 A2981 RMK AO2 PK WND 28029/1417 SLP098 T10281139 53016'
20180104,1500,DYL,DOYLESTOWN_AIRPORT_(ASOS),40.33,-75.12,22,18,32,32,32,19,'KDYL 041512Z AUTO 34017G26KT 1/2SM -SN FZFG VV010 M06/M08 A2948 RMK AO2 PK WND 36028/1455 P0000 T10611078'
20180104,1500,OXB,OCEAN_CITY_MUNI_(ASOS),38.31,-75.12,24,28,45,41,45,22,'KOXB 041534Z AUTO 32022G30KT 1/4SM FZFG VV011 M05/M06 A2941 RMK AO2 PK WND 32036/1510 T10501056 PWINO FZRANO'
20180104,1500,HWV,BROOKHAVEN_AIRPORT_(ASOS),40.82,-72.87,26,25,45,44,45,25,'KHWV 041528Z AUTO 35027G35KT 1/4SM SN FZFG VV005 M03/M04 A2923 RMK AO2 PK WND 34038/1501 SNB19 PRESFR P0000 T10331039 $'
20180104,1500,MPO,POCONO_MNTS_MUNIL_ARPT_(ASOS),41.14,-75.38,13,25,36,41,41,10,'KMPO 041522Z AUTO 32025G36KT 1SM -SN BR BKN016 OVC037 M11/M12 A2946 RMK AO2 PK WND 31036/1522 PRESFR P0000 T11061122'
20180104,1500,LDM,LUDINGTON/MASON_APRT,43.96,-86.41,10,6,,,,7,'KLDM 041515Z AUTO 04003KT 3/4SM -SN BKN011 OVC016 M12/M14 A3020 RMK AO2 T11211140'
20180104,1500,LKU,LOUISA_COUNTY,38.01,-77.97,25,13,20,,20,9,'KLKU 041535Z AUTO 32018G25KT 10SM BKN048 BKN055 OVC095 M04/M13 A2979 RMK AO2 T10381135'
20180104,1500,MOP,MOUNT_PLEASANT_MUNI_APRT,43.62,-84.74,10,8,,,,-2,'KMOP 041515Z AUTO 34009G15KT 10SM OVC030 M12/M19 A3014 RMK AO2 T11211191'
20180104,1500,MZH,MOOSE_LAKE,46.42,-92.80,-24,0,,,,-31,'KMZH 041515Z AUTO 00000KT 10SM CLR M28/M32 A3038 RMK AO2'
20180104,1500,NSE,WHITING_FLD_NAS-N.,30.72,-87.02,31,8,18,,18,14,'KNSE 041456Z 34007G16KT 10SM FEW250 M01/M10 A3026 RMK AO2 SLP238 T10061100 51014 $'
20180104,1500,PGV,PITT-GREENVILLE_APRT,35.63,-77.40,30,14,22,,22,16,'KPGV 041530Z AUTO 31007G14KT 10SM CLR M01/M10 A2980 RMK AO2'
20180104,1500,RRL,MERRILL_MUNI_AIRPORT,45.18,-89.70,-1,0,,,,-6,'KRRL 041535Z AUTO 00000KT 10SM OVC022 M17/M21 A3029 RMK AO2 T11721206'
20180104,1500,TOI,TROY_MUNICIPAL_(ASOS),31.87,-86.02,29,15,20,,20,13,'KTOI 041453Z AUTO 32013G17KT 10SM CLR M02/M11 A3022 RMK AO2 SLP234 T10171106 52016'
20180104,1500,DAW,SKYHAVEN_AIRPORT_(ASOS),43.27,-70.92,20,20,25,,25,18,'KDAW 041525Z AUTO 36013G20KT 1/2SM FZFG VV008 M07/M07 A2955 RMK AO2 SNEMM P0000T10671072 PWINO FZRANO $'
20180104,1500,ELZ,WELLSVILLE_MUNI_AIRPORT_(ASOS),42.11,-77.98,14,14,,,,7,'KELZ 041514Z AUTO 34011KT 1 3/4SM -SN BKN016 OVC039 M09/M14 A2973 RMK AO2 P0000T10941139'
20180104,1500,FIG,CLEARFIELD-LAWRENCE_ARPT_(ASOS),41.04,-78.41,16,10,,,,9,'KFIG 041523Z AUTO 30010KT 1 3/4SM -SN BKN024 OVC033 M08/M12 A2977 RMK AO2 P0000T10831122'
20180104,1500,NYC,NEW_YORK_CITY,40.77,-73.98,21,13,28,33,33,19,'KNYC 041521Z AUTO 34018G27KT 1/4SM SN FZFG BKN009 OVC014 M05/M07 A2942 RMK AO2 PK WND 34029/1456 P0001 T10501067 $'
20180104,1500,W99,GRANT_COUNTY_AIRPORT,38.98,-79.13,20,14,18,,18,5,'KW99 041510Z AUTO 32015G20KT 10SM OVC046 M06/M15 A2983 RMK AO2 T10621153'
20180104,1500,RUQ,ROWAN_COUNTY_AIRPORT,35.65,-80.52,28,10,24,,24,4,'KRUQ 041525Z AUTO 34012G20KT 10SM CLR M02/M15 A2987 RMK AO2 T10221152'
20180104,1500,DSV,DANSVILLE_MUNI_AIRPORT_(ASOS),42.57,-77.71,19,10,,,,11,'KDSV 041454Z AUTO 32009KT 10SM OVC020 M07/M12 A2982 RMK AO2 SLP116 T10721117 55010'
20180104,1500,CEU,OCONEE_COUNTY_REGL_ARPT_(ASOS),34.67,-82.88,29,14,20,,20,7,'KCEU 041454Z AUTO 31012G17KT 280V340 10SM CLR M02/M14 A2992 RMK AO2 SLP140 T10171139 51010'
20180104,1500,BVE,BOOTHVILLE_(ASOS),29.33,-89.40,39,8,,,,22,'KBVE 041451Z AUTO 01007KT 10SM CLR 04/M06 A3035 RMK AO2 SLP277 T00391056 51018'
20180104,1500,VPC,CARTERSVILLE_AIRPORT_(ASOS),34.13,-84.85,25,5,,,,11,'KVPC 041453Z AUTO VRB04KT 10SM CLR M04/M12 A3013 RMK AO2 SLP208 T10391117 53016'
20180104,1500,MRH,SMITH_FIELD/BEAUFORT_(ASOS),34.73,-76.66,29,21,,30,30,23,'KMRH 041458Z AUTO 30018KT 10SM UP CLR M02/M05 A2978 RMK AO2 PK WND 31026/1418 SLP084 6//// I1004 I3/// T10171050 51045 TSNO PNO $'
20180104,1500,HBG,CHAIN_MUNICIPAL_AIRPORT_(ASOS),31.27,-89.26,30,7,,,,16,'KHBG 041453Z AUTO 35006KT 10SM CLR M01/M09 A3035 RMK AO2 SLP277 T10111089 53017 $'
20180104,1500,EXX,LEXINGTON_DAVIDSON_COUNTY_AIRP,35.78,-80.30,28,10,17,,17,7,'KEXX 041525Z AUTO 29007KT 10SM CLR M02/M14 A2985 RMK AO2 T10161142'
20180104,1500,GRD,GREENWOOD_COUNTY_AIRPORT_(ASOS),34.25,-82.16,29,10,,,,12,'KGRD 041456Z AUTO 28009KT 10SM UP CLR M02/M11 A2995 RMK AO2 UPB24 SLP148 P0000 60000 T10171111 52016'
20180104,1500,HKS,HAWKINS_FIELD_(ASOS),32.34,-90.22,27,5,,,,18,'KHKS 041453Z VRB04KT 10SM CLR M03/M08 A3036 RMK AO2 SLP280 T10281078 53019 $'
20180104,1500,IER,NATTCHITOCHES_REGIONAL_AIRPORT,31.74,-93.10,32,3,,,,22,'KIER 041535Z AUTO 04005KT 10SM CLR 02/M07 A3041 RMK AO2 T00161069'
20180104,1500,LGC,LA_GRANGE,33.00,-85.00,29,16,23,,23,12,'KLGC 041535Z AUTO 33010G16KT 10SM CLR 00/M12 A3014 RMK AO2 T10051119'
20180104,1500,OMH,ORANGE_COUNTY_AIRPORT,38.25,-78.05,27,16,24,,24,9,'KOMH 041535Z AUTO 34017G26KT 10SM SCT042 OVC090 M03/M13 A2976 RMK AO2'
20180104,1500,TNB,WATAUGA_CNTY_HOSP_HELIP,36.20,-81.65,11,15,33,,33,2,'KTNB 041535Z AUTO 32013G26KT 4SM HZ CLR M12/M17 A2976 RMK AO2 T11171174'
20180104,1500,UDG,DARLINGTON,34.45,-79.88,30,7,,,,15,'KUDG 041456Z AUTO 27006KT 10SM CLR M01/M09 A2990 RMK AO2 SLP133 T10111094 51017 FZRANO'
20180104,1500,MHCH,CHOLUTECA,13.30,-87.18,84,23,,,,63,'MHCH 041500Z 04020KT 9999 FEW030 29/17 FEW250 HZ'
20180104,1500,AYS,WAYCROSS/WARE_CO.,31.25,-82.40,32,10,20,,20,12,'KAYS 041535Z AUTO 30011G15KT 10SM CLR 01/M11 A3008 RMK AO2 T00131108'
20180104,1500,FWN,SUSSEX_AIRPORT_(ASOS),41.18,-74.62,22,8,,,,19,'KFWN 041535Z AUTO 01009KT 1/2SM SN FZFG VV010 M06/M08 A2950 RMK AO2 PRESFR P0003 T10611078'
20180104,1500,IPJ,LINCOLNTON,35.48,-81.16,28,12,17,,17,4,'KIPJ 041530Z AUTO 30011G20KT 270V340 10SM CLR M02/M16 A2988 RMK AO2 T10161161'
20180104,1500,JNX,SMITHFIELD,35.54,-78.38,30,6,,,,12,'KJNX 041540Z AUTO 35003KT 10SM CLR 00/M12 A2981 RMK AO2'
20180104,1500,LZU,LAWRENCEVILLE,33.98,-83.96,25,8,17,,17,10,'KLZU 041456Z 30007G15KT 260V340 10SM CLR M04/M12 A3002 RMK AO2 SLP175 T10391122 53013 $'
20180104,1500,MHSC,SOTO_CANO_AB,14.38,-87.62,67,15,,,,62,'MHSC 041508Z AUTO 35014KT 9999 BKN029 OVC035 20/16 A3019 RMK AO2 CIG 029V037 BKN V SCT CIG 028 RWY17 SLP199 $'
20180104,1500,MSSA,SANTA_ANA/EL_PALMAR,13.98,-89.57,75,6,,,,55,'MSSA 041450Z 32005KT CAVOK 24/13 Q1023 A3022'
20180104,1500,MSSS,ILOPANGO/S.SALVADOR,13.70,-89.12,72,12,,,,57,'MSSS 041450Z 01010KT CAVOK 22/14 Q1018 A3009'
20180104,1500,OPN,THOMASTON,32.95,-84.27,30,13,20,,20,7,'KOPN 041515Z AUTO 32014KT 10SM CLR M01/M15 A3009 RMK AO2'
20180104,1500,RNH,NEW_RICHMOND,45.15,-92.54,-16,0,,,,-22,'KRNH 041535Z AUTO 36003KT 10SM CLR M24/M27 A3041 RMK AO2 T12391272'
20180104,1500,RYY,MARIETTA,34.01,-84.60,23,12,21,,21,11,'KRYY 041448Z 31010G18KT 280V360 10SM CLR M05/M12 A3008 RMK AO2 SLP910 T10501117 53017'
20180104,1500,TDF,ROXBORO,36.28,-78.98,27,9,20,,20,9,'KTDF 041525Z AUTO 31010G19KT 280V340 10SM CLR M03/M15 A2982 RMK AO2'
20180104,1500,VUJ,ALBEMARLE,35.42,-80.15,29,14,23,,23,7,'KVUJ 041525Z AUTO 32011G21KT 10SM CLR M01/M14 A2990 RMK AO2 T10111143'
20180104,1500,WDR,WINDER,33.98,-83.67,30,15,20,,20,12,'KWDR 041535Z AUTO 31014G19KT 10SM CLR M01/M12 A3004 RMK AO1'
20180104,1500,WST,WESTERLY_STATE_ARPT_(ASOS),41.35,-71.80,30,17,40,40,40,29,'KWST 041453Z AUTO 36015G35KT M1/4SM FZFG VV003 M01/M02 A2924 RMK AO2 PK WND 36035/1450 SNEMMB24SNEMMB34SNEMM PRESFR SLP903 P0005 60009 T10111017 58067 PWINO FZRANO $'
20180104,1500,BUU,BURLINGTON_MUNI_ARPT,42.68,-88.30,-2,9,,,,-10,'KBUU 041535Z AUTO 34007KT 10SM CLR M17/M23 A3031 RMK AO2 T11741226'
20180104,1500,CKV,CLARKSVILLE/OUTLAW_FIELD,36.62,-87.42,11,9,,,,1,'KCKV 041452Z AUTO 34008KT 10SM CLR M12/M17 A3033 RMK AO2 SLP280 T11171172 51021'
20180104,1500,CMY,MCCOY_(USA-AF),43.97,-90.73,-15,0,,,,-20,'KCMY 041535Z AUTO 00000KT 10SM CLR M22/M24 A3039 RMK AO2 T12171245'
20180104,1500,CVX,CHARLEVOIX_MUNI_AIRPORT,45.30,-85.27,2,15,21,,21,-4,'KCVX 041515Z AUTO 02012G16KT 1 3/4SM HZ OVC014 M17/M20 A3027 RMK AO2 VIS 1V2 1/2 T11701200'
20180104,1500,HYX,SAGINAW_CNTY_HW_BROWNE_AIRPORT,43.43,-83.86,5,10,,,,-2,'KHYX 041515Z AUTO 35010KT 10SM OVC027 M15/M19 A3016 RMK AO2'
20180104,1500,ISM,KISSIMMEE_MUNI_AIRPORT,28.29,-81.44,42,12,16,,16,17,'KISM 041456Z 31010G14KT 10SM CLR 06/M08 A3018 RMK AO2 SLP222 T00561083 50009'
20180104,1500,JQF,CONCORD,35.38,-80.71,30,13,22,,22,7,'KJQF 041450Z 31011G19KT 10SM CLR M01/M14 A2989'
20180104,1500,MDLR,LA_ROMANA_INTL_ARPT,18.42,-68.95,84,12,,,,77,'MDLR 041500Z 18010KT 9999 SCT022 SCT300 29/25 Q1016'
20180104,1500,OLV,OLIVE_BRANCH_AIRPORT,34.98,-89.79,18,14,,,,5,'KOLV 041450Z 01012KT 10SM FEW250 M08/M15 A3034'
20180104,1500,RZN,SIREN/BURNETT_CTY_ARPT,45.82,-92.37,-14,0,,,,-19,'KRZN 041515Z AUTO 00000KT 10SM OVC008 M25/M28 A3041 RMK AO2 T12471277'
20180104,1500,SUA,STUART/WITHAM_FIELD_AIRPORT,27.18,-80.22,46,9,17,,17,23,'KSUA 041455Z 31008G15KT 7SM SKC 08/M05 A3018'
20180104,1500,TTA,SANFORD-LEE_COUNTY_RGNL_AIRPORT,35.58,-79.10,25,5,,,,10,'KTTA 041530Z AUTO 33011G19KT 10SM CLR M03/M11 A2983 RMK AO2 T10261115'
20180104,1500,VDF,TAMPA/VANDENBURG_AIRPORT,28.02,-82.35,43,9,,,,28,'KVDF 041535Z AUTO 34004KT 10SM CLR 07/M02 A3020 RMK AO2'
20180104,1500,VQQ,CECIL_FIELD_NAS,30.22,-81.88,36,10,,,,18,'KVQQ 041450Z 30009KT 10SM CLR 02/M08 A3012'
20180104,1500,VVG,THE_VILLAGES,28.96,-81.97,37,9,,,,21,'KVVG 041510Z AUTO 12008KT 10SM 04/M07 A3008 RMK A01'
20180104,1500,CTZ,CLINTON,34.98,-78.37,30,9,18,,18,12,'KCTZ 041525Z AUTO 31010G15KT 10SM CLR 00/M11 A2984 RMK AO2 T10031111'
20180104,1500,IKK,KANKAKEE,41.06,-87.85,-2,7,,,,-9,'KIKK 041535Z AUTO 31008KT 10SM CLR M17/M22 A3032 RMK AO2 T11751221'
20180104,1500,TBR,STATESBORO,32.48,-81.73,33,17,24,,24,11,'KTBR 041535Z AUTO 30013G18KT 10SM CLR 02/M12 A3001 RMK AO2 T00161121'
20180104,1500,1H2,EFFINGHAM,39.07,-88.53,5,10,,,,-2,'K1H2 041535Z AUTO 30008KT 10SM CLR M14/M18 A3038 RMK AO2 T11401180'
20180104,1500,AAA,LINCOLN/LOGAN_CO,40.16,-89.33,-2,5,,,,-8,'KAAA 041535Z AUTO 32006KT 10SM CLR M18/M21 A3039 RMK AO2 T11811214'
20180104,1500,C09,MORRIS,41.43,-88.42,,8,,,,-9999,'KC09 041535Z AUTO 32007KT 10SM M18/M22 A3033 RMK AO2 T11851225'
20180104,1500,C75,LACON/MARSHALL_CO,41.02,-89.39,-10,0,,,,-14,'KC75 041535Z AUTO 00000KT 10SM CLR M20/M23 A3038 RMK AO2 T11981230'
20180104,1500,DKB,DE_KALB,41.93,-88.72,-4,9,,,,-10,'KDKB 041535Z AUTO 33008KT 10SM CLR M19/M23 A3032 RMK AO2 T11941227'
20180104,1500,DNV,DANVILLE/VERMILION,40.20,-87.60,-3,13,,,,-10,'KDNV 041535Z AUTO 31009KT 10SM CLR M19/M22 A3028 RMK AO2 T11871225'
20180104,1500,ENL,CENTRALIA,38.52,-89.08,6,9,,,,0,'KENL 041535Z AUTO 32008KT 10SM CLR M13/M17 A3038 RMK AO2 T11351175'
20180104,1500,FDK,FREDERICK_MUNI_APT,39.41,-77.37,25,18,25,,25,9,'KFDK 041447Z 33016G22KT 7SM OVC070 M04/M13 A2976'
20180104,1500,FEP,FREEPORT,42.25,-89.58,-4,8,,,,-10,'KFEP 041535Z AUTO 32007KT 10SM CLR M19/M23 A3037 RMK AO2 T11911229'
20180104,1500,FOA,FLORA,38.67,-88.45,7,9,,,,0,'KFOA 041535Z AUTO 32007KT 10SM CLR M13/M17 A3038 RMK AO2 T11301175'
20180104,1500,FWC,FAIRFIELD,38.38,-88.42,6,5,,,,-1,'KFWC 041535Z AUTO 30003KT 10SM CLR M13/M18 A3038 RMK AO1 T11321181'
20180104,1500,GBG,GALESBURG,40.94,-90.43,-8,3,,,,-12,'KGBG 041515Z AUTO 27004KT 10SM CLR M21/M23 A3040 RMK AO2 T12111232'
20180104,1500,HSB,HARRISBURG,37.82,-88.55,8,7,,,,1,'KHSB 041535Z AUTO 28006KT 10SM CLR M12/M17 A3040 RMK AO2 T11221169'
20180104,1500,IGQ,CHICAGO_(LANSING),41.54,-87.53,4,7,,,,-2,'KIGQ 041535Z AUTO 33008KT 10SM CLR M14/M17 A3028 RMK AO2 T11421175'
20180104,1500,IJX,JACKSONVILLE,39.78,-90.23,0,8,,,,-6,'KIJX 041535Z AUTO 31006KT 10SM CLR M17/M21 A3041 RMK AO2 T11701207'
20180104,1500,JOT,JOLIET_PARK_DISTRICT,41.52,-88.18,0,5,,,,-8,'KJOT 041535Z AUTO 32004KT 10SM CLR M17/M21 A3034 RMK AO2 T11661215'
20180104,1500,LOT,CHICAGO/ROMEOVILLE,41.61,-88.09,-1,6,,,,-7,'KLOT 041535Z AUTO 33006KT 10SM CLR M16/M21 A3032 RMK AO2 T11651211'
20180104,1500,MQB,MACOMB,40.52,-90.65,-5,8,,,,-9,'KMQB 041535Z AUTO 33008KT 10SM CLR M19/M22 A3043 RMK AO2 T11891219'
20180104,1500,MSAC,ACAJUTLA/SONSONATE,13.57,-89.83,86,7,,,,50,'MSAC 041450Z 08006KT CAVOK 30/10 Q1010 A2983'
20180104,1500,NAK,ANNAPOLIS,38.98,-76.48,25,23,35,35,35,19,'KNAK 041506Z AUTO 31018G30KT 6SM -SN BKN036 OVC047 M03/M07 A2962 RMK AO2 PK WND34030/1500 P0000 T10331072 $'
20180104,1500,OLY,OLNEY-NOBLE,38.73,-88.18,5,9,,,,-3,'KOLY 041535Z AUTO 31007KT 10SM CLR M14/M19 A3037 RMK AO2 T11391193'
20180104,1500,PNT,PONTIAC,40.92,-88.63,-7,10,,,,-12,'KPNT 041535Z AUTO 31007KT 10SM CLR M21/M24 A3035 RMK AO2 T12081236'
20180104,1500,PPQ,PITTSFIELD,39.63,-90.78,2,7,,,,-4,'KPPQ 041535Z AUTO 31005KT 10SM CLR M15/M19 A3042 RMK AO2 T11531195'
20180104,1500,PRG,PARIS,39.70,-87.67,-4,9,,,,-9,'KPRG 041535Z AUTO 31008KT 7SM CLR M19/M22 A3033 RMK AO2 T11871218'
20180104,1500,SAR,SPARTA,38.15,-89.70,6,8,,,,0,'KSAR 041535Z AUTO 32004KT 10SM CLR M14/M17 A3041 RMK AO2 T11361175'
20180104,1500,SJX,BEAVER_ISLAND,45.69,-85.57,1,12,20,,20,-8,'KSJX 041515Z AUTO 01009G17KT 10SM BKN020 M17/M22 A3025 RMK AO2 T11721219'
20180104,1500,SLO,SALEM-LECKRONE,38.65,-88.97,6,7,,,,-1,'KSLO 041535Z AUTO 30006KT 10SM CLR M13/M18 A3038 RMK AO2 T11341180'
20180104,1500,SUT,SOUTHPORT/BRUNSWICK,33.93,-78.07,28,6,,,,18,'KSUT 041525Z AUTO 31005KT 10SM CLR M01/M08 A2987 RMK AO2 T10101078'
20180104,1500,TAZ,TAYLORVILLE,39.53,-89.33,1,8,,,,-5,'KTAZ 041535Z AUTO 33009KT 10SM CLR M16/M20 A3039 RMK AO2 T11581203'
20180104,1500,TIP,RANTOUL/FRANK_ELLIOT_FLD,40.29,-88.14,-4,13,17,,17,-10,'KTIP 041535Z AUTO 32008KT 10SM CLR M19/M22 A3032 RMK AO2 T11901223'
20180104,1500,TNCE,FDR_ARPT/ORANJESTAD,17.48,-62.98,84,12,,,,73,'TNCE 041455Z AUTO 10010KT 060V140 //// // ///////// 29/23 Q1018 RE//'
20180104,1500,VYS,PERU,41.35,-89.15,-7,7,,,,-14,'KVYS 041535Z AUTO 32008KT 10SM CLR M21/M25 A3037 RMK AO2 T12061246'
20180104,1500,KACQ,WASECA_MUNI_AIRPORT,44.07,-93.55,3,0,,,,-6,'KACQ 041515Z AUTO 00000KT 10SM SCT048 BKN060 OVC110 M16/M21 A3039 RMK AO2'
20180104,1500,DUH,TOLEDO_SUBURBAN_ARPT,41.74,-83.66,8,7,,,,0,'KDUH 041515Z AUTO 31008KT 10SM OVC034 M13/M17 A3012 RMK AO2 T11301175'
20180104,1500,FPK,FITCH_BEACH_AIRPORT,42.57,-84.81,10,10,,,,4,'KFPK 041515Z AUTO 33008KT 10SM BKN019 M11/M15 A3011 RMK AO2 T11151155'
20180104,1500,GOV,GRAYLING_AAF_AIRPORT,44.68,-84.73,-1,14,29,,29,-9,'KGOV 041515Z AUTO 33017G22KT 3SM HZ OVC021 M18/M23 A3014 RMK AO2 T11851234'
20180104,1500,HDC,HAMMOND_MUNI_ARPT,30.52,-90.42,32,0,,,,19,'KHDC 041535Z AUTO 01004KT 10SM CLR 01/M07 A3037 RMK AO2'
20180104,1500,MGN,HARBOR_SPRINGS_AIRPORT,45.43,-84.91,-7,3,,,,-14,'KMGN 041515Z AUTO 36007KT 10SM CLR M21/M26 A3024 RMK AO2 T12071261'
20180104,1500,MHNO,GUANAJA,16.47,-86.07,70,12,,,,59,'MHNO 041500Z 34010KT 9999 FEW035 21/15 HZ'
20180104,1500,MTPP,PORT-AU-PRINCE_ARPT,18.57,-72.30,79,6,,,,73,'MTPP 041500Z 11005KT 9000 SCT016 BKN050 26/23 Q1014 A2997'
20180104,1500,MUCF,CIENFUEGOS(CIV/MIL),22.15,-80.40,70,6,,,,61,'MUCF 041450Z 03005KT 350V080 9999 FEW020 21/16 Q1019'
20180104,1500,RPJ,ROCHELLE_MUNI_ARPT/KORITZ_FIELD,41.89,-89.08,-4,5,,,,-10,'KRPJ 041515Z AUTO 35006KT 10SM CLR M20/M23 A3034 RMK AO2 T11961230'
20180104,1500,TUPJ,BEEF_ISL/ROADTOWN,18.45,-64.53,84,10,,,,73,'TUPJ 041500Z 18009KT 9999 SCT018 29/23 Q1017 RMK A3006'
20180104,1500,BGE,BAINBRIDGE/DECATUR_CO_INDUS,30.97,-84.64,34,13,,,,19,'KBGE 041535Z AUTO 30012KT 10SM CLR 02/M07 A3020 RMK AO2'
20180104,1500,CPC,COLUMBUS_CNTY_MUNI_ARPT,34.27,-78.71,30,6,,,,10,'KCPC 041525Z AUTO 30005KT 10SM CLR 00/M12 A2988 RMK AO2 T00001117'
20180104,1500,EMV,EMPORIA-GREENSVILLE_RGNL_ARPT,36.69,-77.48,27,8,,,,18,'KEMV 041535Z AUTO 28011G24KT 250V310 10SM SCT043 M02/M11 A2975 RMK AO2 P0001'
20180104,1500,FKA,PRESTON/FILLMORE_CO_ARPT,43.68,-92.18,-5,6,,,,-10,'KFKA 041515Z AUTO 34004KT 10SM OVC100 M20/M23 A3034 RMK AO2 T12011232'
20180104,1500,GWW,GOLDSBORO-WAYNE_MUNI_ARPT,35.46,-77.96,28,9,18,,18,12,'KGWW 041530Z AUTO 29009KT 10SM CLR M01/M11 A2980 RMK AO2 T10131110'
20180104,1500,HNZ,HENDERSON-OXFORD_ARPT,36.36,-78.53,25,12,25,,25,5,'KHNZ 041525Z AUTO 33013G23KT 10SM CLR M03/M16 A2978 RMK AO2 T10351158'
20180104,1500,MDQ,MADISON_CNTY_EXEC_ARPT,34.86,-86.56,19,15,20,,20,9,'KMDQ 041535Z AUTO 33011KT 10SM CLR M06/M13 A3024 RMK AO2'
20180104,1500,MPZ,MOUNT_PLEASANT_MUNI_AIRPORT,40.95,-91.51,0,6,,,,-8,'KMPZ 041535Z AUTO 35003KT 10SM SCT080 OVC120 M17/M21 A3041 RMK AO2'
20180104,1500,OKK,KOKOMO(AWOS),40.53,-86.07,4,10,,,,-2,'KOKK 041456Z AUTO 28009KT 10SM CLR M16/M19 A3021 RMK AO2 SNB15E38 SLP250 P0000 60000 T11561189 51011 FZRANO'
20180104,1500,PEA,PELLA_MUNI_AIRPORT,41.40,-92.95,1,3,,,,-5,'KPEA 041535Z AUTO 00000KT 10SM CLR M16/M20 A3042 RMK AO2 T11651205'
20180104,1500,SLH,CHEBOYGAN_CNTY_ARPT,45.65,-84.52,-8,12,17,,17,-13,'KSLH 041515Z AUTO 34010KT 7SM CLR M21/M25 A3024 RMK AO2 T12171250'
20180104,1500,MSSM,SAN_MIGUEL/PAPALON,13.45,-88.12,77,7,,,,57,'MSSM 041450Z 01006KT CAVOK 25/14 Q1014 A2995'
20180104,1500,AWM,WEST_MEMPHIS_MUNI,35.13,-90.23,19,14,,,,11,'KAWM 041453Z AUTO 02012KT 10SM CLR M07/M12 A3039 RMK AO2 SLP293 T10721117 51019'
20180104,1500,IIB,INDEPENDENCE_MUNICIPAL_AIRPORT,42.45,-91.95,-2,9,,,,-7,'KIIB 041535Z AUTO 36006KT 10SM SCT090 BKN120 M18/M21 A3038 RMK AO2 T11801213'
20180104,1500,LOM,PHILADELPHIA/WINGS_FIELD,40.14,-75.27,21,13,21,,21,19,'KLOM 041535Z AUTO 32011G21KT 290V360 3/4SM OVC008 M06/M08 A2951 RMK AO1'
20180104,1500,VTI,VINTON_VETERANS_MEMORIAL_AIRPARK,42.22,-92.03,0,3,,,,-5,'KVTI 041535Z AUTO 34003KT CLR M17/M21 A3040 RMK AO2 T11731210 PWINO'
20180104,1500,ALX,ALEXANDER_CITY,32.90,-85.95,27,14,23,,23,15,'KALX 041535Z AUTO 32010G15KT 10SM CLR M02/M09 A3018 RMK AO2 T10201092'
20180104,1500,JGG,WILLIAMSBURG,37.23,-76.72,25,21,30,,30,19,'KJGG 041535Z AUTO 32017G23KT 3/4SM OVC008 M04/M07 A2969 RMK AO1 P0001'
20180104,1500,LHZ,LOUISBURG/FRANKLIN_CNTY_ARPT,36.02,-78.33,28,9,18,,18,10,'KLHZ 041525Z AUTO 29008G18KT 250V340 10SM CLR M02/M12 A2981 RMK AO2'
20180104,1500,NEL,LAKEHURST_NAS,40.03,-74.35,24,15,26,,26,22,'KNEL 041500Z AUTO 33013G23KT M1/4SM +SN FZFG VV005 M04/M06 A2935 RMK AO2 SLP938 6//// T10441056 56040 FZRANO PNO $'
20180104,1500,ONZ,DETROIT/GROSSE_ILE,42.10,-83.16,11,16,24,,24,0,'KONZ 041515Z AUTO 34013G17KT 10SM OVC031 M12/M18 A3009 RMK AO2 T11161178'
20180104,1500,W22,BUCKHANNON,39.00,-80.27,14,6,15,,15,9,'KW22 041535Z AUTO VRB06G14KT 3SM -SN BKN019 OVC024 M10/M13 A2989 RMK AO2'
20180104,1500,MWCB,GERRARD_SMITH,19.68,-79.88,77,13,,,,66,'MWCB 041500Z 02011KT 9999 BKN018 25/19 Q1018'
20180104,1500,HQU,THleafON,33.53,-82.52,30,14,22,,22,10,'KHQU 041535Z AUTO 36011G18KT 10SM CLR 00/M12 A3005 RMK AO2 T10031125'
20180104,1500,RHP,ANDREWS-MURPHY_AIRPORT,35.19,-83.86,20,5,,,,8,'KRHP 041525Z AUTO 07003KT 10SM SCT035 M06/M14 A3001 RMK AO2 T10601136'
20180104,1500,ASW,WARSAW_MUNI,41.27,-85.83,12,7,,,,5,'KASW 041535Z AUTO 29006KT 7SM -SN OVC044 M11/M14 A3019 RMK AO2'
20180104,1500,MUCC,CANAGUA,22.47,-78.33,72,13,,,,59,'MUCC 041450Z 34011KT 9000 FEW020 22/15 Q1018'
20180104,1500,1A5,FRANKLIN,35.22,-83.42,22,10,23,,23,6,'K1A5 041525Z AUTO 30012G19KT 10SM CLR M05/M16 A2994 RMK AO2 T10551157'
20180104,1500,CUL,CARMI_MUNI_ARPT,38.09,-88.12,7,9,,,,0,'KCUL 041535Z AUTO 30003KT 10SM CLR M13/M17 A3038 RMK AO2 T11301175'
20180104,1500,DQH,DOUGLAS_MUNI_ARPT,31.48,-82.86,32,9,18,,18,12,'KDQH 041535Z AUTO 29012G16KT 10SM CLR 01/M11 A3010 RMK AO2'
20180104,1500,EHO,SHELBY_MUNI_ARPT,35.25,-81.60,27,8,,,,10,'KEHO 041525Z AUTO 32010G15KT 10SM CLR M02/M14 A2990 RMK AO2 T10201139'
20180104,1500,FFA,KILL_DEVIL_HILLS,36.02,-75.67,26,17,29,,29,25,'KFFA 041520Z AUTO 29016G30KT M03/M03 A2961 RMK AO2 T10331035 PWINO'
20180104,1500,FYJ,WEST_POINT,37.52,-76.76,24,13,18,,18,19,'KFYJ 041535Z AUTO 30014G24KT 7SM OVC021 M04/M09 A2970 RMK AO2 T10411089'
20180104,1500,HZX,MC_GREGOR,46.62,-93.31,-18,0,,,,-24,'KHZX 041515Z AUTO 00000KT 10SM CLR M27/M30 A3038 RMK AO2'
20180104,1500,JYL,SYLVANIA,32.65,-81.60,33,16,24,,24,17,'KJYL 041515Z AUTO 32015G19KT 10SM CLR 01/M08 A3001 RMK AO2 T00051083'
20180104,1500,LUM,MENOMONIE,44.89,-91.86,-10,0,,,,-16,'KLUM 041535Z AUTO 25003KT 3SM HZ M22/M25 A3040 RMK AO2 SKY OBSCURED T12231250'
20180104,1500,MBPV,PROVIDENCIALES,21.77,-72.27,75,12,,,,-9999,'MBPV 041500Z 24010KT 9000 SCT012 BKN040 24/// Q1015'
20180104,1500,MDBH,BARAHONA,18.22,-71.10,77,9,,,,73,'MDBH 041500Z 13008KT 8000 -RA BKN016 BKN300 25/23 Q1016'
20180104,1500,MGR,MOULTRIE,31.08,-83.80,32,9,,,,14,'KMGR 041515Z AUTO 30012KT 10SM CLR 00/M10 A3015 RMK AO2'
20180104,1500,RMN,STAFFORD,38.40,-77.46,25,20,33,,33,13,'KRMN 041535Z AUTO 32022G29KT 1 3/4SM -SN BKN015 OVC022 M05/M08 A2978 RMK AO2 T10461085'
20180104,1500,RSV,ROBINSON_MUNI_ARPT,39.02,-87.65,4,7,,,,-3,'KRSV 041535Z AUTO 31008KT 10SM CLR M15/M18 A3036 RMK AO2 T11471185'
20180104,1500,SFY,SAVANNA/TRI-TOWNSHIP_ARPT,42.05,-90.11,-4,5,,,,-9,'KSFY 041535Z AUTO 00000KT 10SM CLR M18/M22 A3039 RMK AO2 T11821223'
20180104,1500,TLPC,CASTRIES/VIGIE,14.02,-61.00,84,7,,,,70,'TLPC 041500Z 10006KT 9999 FEW026 29/21 Q1017 NOSIG'
20180104,1500,TLPL,HEWANORRA_INTL_ARPT,13.75,-60.95,84,12,,,,72,'TLPL 041500Z 11010KT 9999 FEW029 29/22 Q1017 NOSIG'
20180104,1500,UKT,QUAKERTOWN_ARPT,40.44,-75.38,19,17,28,,28,18,'KUKT 041515Z AUTO 35011G22KT 1/2SM OVC001 M07/M08 A2953 RMK AO1'
20180104,1500,4A9,FORT_PAYNE,34.47,-85.72,21,,,,,3,'K4A9 041535Z AUTO 10SM CLR M05/M16 A3017 RMK AO2'
20180104,1500,M30,METROPOLIS_MUNICIPAL_ARPT,37.19,-88.75,9,10,,,,1,'KDRM 041515Z AUTO 35006KT 10SM CLR M25/M30 A3021 RMK AO2 T12551304'
20180104,1500,AJG,MOUNT_CARMEL,38.61,-87.73,6,7,,,,-2,'KAJG 041535Z AUTO 30008KT 10SM CLR M14/M18 A3035 RMK AO2 T11371185'
20180104,1500,1P1,PLYMOUTH,43.78,-71.75,8,0,,,,6,'K1P1 041535Z AUTO 00000KT 1/4SM SN OVC003 M13/M14 A2965 RMK AO2 P0004 T11271140'
20180104,1500,CIR,CAIRO,37.06,-89.22,10,7,,,,1,'KCIR 041535Z AUTO 33007KT 10SM CLR M11/M17 A3041 RMK AO2 T11141169'
20180104,1500,EZM,EASTMAN,32.21,-83.13,33,10,18,,18,-2,'KEZM 041515Z AUTO 31012KT 10SM CLR 01/M20 A3010 RMK AO2 T00141202'
20180104,1500,FKS,FRANKFORT,44.63,-86.20,12,12,18,,18,5,'KFKS 041515Z AUTO 35012G17KT 1/2SM -SN OVC005 M11/M14 A3021 RMK AO2 T11131140'
20180104,1500,HSA,BAY_ST._LOUIS,30.37,-89.45,32,5,,,,18,'KHSA 041449Z 34004KT 10SM CLR 00/M08 A3036'
20180104,1500,I16,PINEVILLE,37.60,-81.56,15,,,,,9,'KI16 041535Z AUTO 1 1/2SM -SN M09/M13 A3001 RMK AO2 T10931129'
20180104,1500,HXD,HILTON_HEAD_(AWOS),32.22,-80.70,30,6,,,,19,'KHXD 041450Z 24005KT 10SM SKC M01/M07 A3000 RMK HXD AIRPORT CLOSED. NOTAM 01/009.'
20180104,1500,LNL,LAND_O_LAKES,46.15,-89.21,1,5,,,,-5,'KLNL 041535Z AUTO 36006KT 4SM -SN OVC022 M17/M20 A3025 RMK AO2 T11711202'
20180104,1500,PCZ,WAUPACA,44.33,-89.01,0,7,,,,-8,'KPCZ 041535Z AUTO 30007KT 10SM CLR M16/M21 A3034 RMK AO2 T11571212'
20180104,1500,RCX,LADYSMITH,45.50,-91.00,-11,0,,,,-16,'KRCX 041535Z AUTO 33004KT 10SM CLR M22/M24 A3035 RMK AO2 T12181243'
20180104,1500,7N0,N.O_DOWNTOWN_HELIPORT,29.95,-90.08,36,10,,,,14,'K7N0 041456Z AUTO 03009KT 10SM CLR 02/M10 A3036 RMK AO2 SLP282 T00221100 51012 FZRANO'
20180104,1500,RME,GRIFFISS_AFB/ROME,43.23,-75.40,14,0,,,,7,'KRME 041514Z 00000KT 2 1/2SM -SN OVC033 M10/M13 A2979 RMK AO2 P0000 T11001133'
20180104,1500,CGS,COLLEGE_PARK,39.00,-76.92,24,10,26,,26,10,'KCGS 041526Z AUTO 23014G22KT 10SM BKN032 OVC040 M04/M12 A2967 RMK AO1 T10431121'
20180104,1500,GAI,GAITHERSBURG,39.17,-77.17,22,12,23,31,31,11,'KGAI 041530Z AUTO 32016G27KT 300V020 1 3/4SM -SN BKN022 BKN029 OVC034 M06/M10 A2967 RMK AO2 PK WND 30027/1528 VIS 1 1/4V3 P0000 FZRANO'
20180104,1500,2W6,LEONARDTOWN,38.30,-76.55,23,12,23,,23,18,'K2W6 041526Z AUTO 30012G26KT 270V330 5SM BKN026 OVC032 M05/M08 A2965 RMK AO1'
20180104,1500,FME,ODENTON/TIPTON,39.06,-76.69,23,10,26,,26,16,'KFME 041524Z AUTO 33011G24KT 10SM SCT030 SCT037 OVC043 M04/M09 A2968 RMK AO1'
20180104,1500,2G4,ACCIDENT/OAKLAND,39.63,-79.32,9,16,21,,21,5,'K2G4 041535Z AUTO 31011G20KT 1/2SM OVC003 M13/M15 A2964 RMK AO1'
20180104,1500,CGE,CAMBRIDGE,38.56,-76.07,23,23,35,,35,19,'KCGE 041525Z AUTO 31022G32KT 3/4SM BR SCT017 M05/M07 A2956 RMK A01'
20180104,1500,ESN,EASTON,38.80,-76.07,25,24,37,,37,19,'KESN 041453Z 33021G32KT 1SM -SN OVC007 M04/M07 A2960'
20180104,1500,W29,STEVENSVILLE,38.97,-76.34,23,,,,,18,'KW29 041525Z AUTO 1SM -SN OVC021 M05/M08 A2961 RMK AO2'
20180104,1500,CBE,CUMBERLAND,39.62,-78.77,21,10,24,,24,9,'KCBE 041526Z AUTO 33008G19KT 10SM CLR A2986 RMK AO1'
20180104,1500,3I2,POINT_PLEASANT,38.85,-82.12,17,6,,,,11,'K3I2 041535Z AUTO 25005KT 10SM SCT001 SCT006 BKN021 M07/M11 A3010 RMK AO2 T10751113'
20180104,1500,DBN,DUBLIN,32.54,-82.89,32,18,22,,22,10,'KDBN 041535Z AUTO 32009G15KT 10SM CLR 01/M13 A3008 RMK AO2'
20180104,1500,3J7,GREENSBORO,33.56,-83.08,32,9,20,,20,14,'K3J7 041535Z AUTO 28011G20KT 260V330 10SM CLR 00/M10 A2998 RMK AO2'
20180104,1500,MLJ,MILLEDGEVILLE,33.05,-83.23,32,20,,,,14,'KMLJ 041535Z AUTO 30016G23KT 10SM CLR 01/M10 A3006 RMK AO2'
20180104,1500,BQP,BASTROP,32.78,-91.90,30,5,,,,15,'KBQP 041535Z AUTO 05006KT 10SM CLR 00/M10 A3041 RMK AO2 T00001097'
20180104,1500,DRI,DE_RIDDER,30.83,-93.28,31,3,,,,19,'KDRI 041535Z AUTO 06007KT 10SM CLR 02/M08 A3042 RMK AO2 T00151082'
20180104,1500,GAO,GALLIANO,29.43,-90.29,36,5,,,,23,'KGAO 041535Z AUTO 01005KT 10SM CLR 04/M07 A3037 RMK AO2 T00351074'
20180104,1500,ACP,OAKDALE,30.82,-92.67,31,0,,,,22,'KACP 041535Z AUTO 02006KT 10SM CLR 02/M07 A3040 RMK AO2 T00181067'
20180104,1500,UTA,TUNICA,34.68,-90.35,23,10,,,,12,'KUTA 041535Z AUTO 35012KT 10SM M05/M11 A3041 RMK AO2 TSNO'
20180104,1500,8A0,ALBERTVILLE,34.26,-86.20,21,10,21,,21,12,'K8A0 041535Z AUTO 32011KT 10SM CLR M05/M11 A3018 RMK AO2'
20180104,1500,JKA,GULF_SHORES,30.29,-87.67,33,7,,,,15,'KJKA 041535Z AUTO 34007G14KT 10SM CLR 01/M10 A3031 RMK AO2 T00141097'
20180104,1500,1M4,HALEYVILLE,34.23,-87.63,20,13,18,,18,10,'K1M4 041456Z AUTO 36011G16KT 10SM CLR M07/M12 A3025 RMK AO2 SLP270 T10671122 51018'
20180104,1500,M19,NEWPORT,35.60,-91.28,19,13,,,,9,'KM19 041456Z AUTO 36011KT 10SM CLR M07/M13 A3043 RMK AO2 SLP310 T10721128 51017'
20180104,1500,GYH,GREENVILLE,34.76,-82.38,28,0,,,,9,'KGYH 041447Z 00000KT 10SM SKC M02/M13 A2990'
20180104,1500,RCZ,ROCKINGHAM,34.89,-79.76,28,8,,,,13,'KRCZ 041520Z AUTO 29008KT 10SM CLR M01/M11 A2986 RMK AO2 T10151108'
20180104,1500,GLW,GLASGOW,36.98,-85.90,12,8,,,,6,'KGLW 041515Z AUTO 33006KT 10SM CLR M10/M15 A3027 RMK AO2 T11021148'
20180104,1500,1A6,MIDDLESBORO,36.61,-83.71,17,7,,,,10,'K1A6 041535Z AUTO 00000KT 7SM -SN SCT029 SCT035 OVC046 M07/M12 A3013 RMK AO2 T10751123'
20180104,1500,EKQ,MONTICELLO,36.87,-84.83,16,8,,,,7,'KEKQ 041456Z AUTO 33007KT 10SM FEW018 M09/M14 A3022 RMK AO2 SLP258 60000 T10891139 51017'
20180104,1500,UNI,ALBANY,39.20,-82.22,16,8,,,,10,'KUNI 041535Z AUTO 28011G14KT 10SM OVC043 M08/M12 A3007 RMK AO2 T10851125'
20180104,1500,4I3,MOUNT_VERNON,40.33,-82.52,12,14,20,,20,9,'K4I3 041535Z AUTO 31012G20KT 5SM -SN SCT016 BKN033 M11/M14 A3004 RMK AO2'
20180104,1500,SGH,SPRINGFIELD,39.94,-83.81,12,17,21,,21,9,'KSGH 041508Z AUTO 32016G20KT 10SM SCT018 OVC040 M11/M16 A3010 RMK AO2 SNE02 P0000'
20180104,1500,CFS,CARO,43.45,-83.40,2,14,18,,18,-6,'KCFS 041515Z AUTO 34009KT 10SM CLR M16/M21 A3014 RMK AO2 T11651213'
20180104,1500,DRM,DRUMMOND_ISLAND,46.01,-83.74,-14,6,,,,-23,'KDRM 041515Z AUTO 35006KT 10SM CLR M25/M30 A3021 RMK AO2 T12551304'
20180104,1500,RNP,OWOSSO,42.93,-84.16,9,8,,,,-1,'KRNP 041515Z AUTO 33010G14KT 10SM OVC028 M13/M18 A3013 RMK AO2 T11261185'
20180104,1500,PZQ,ROGERS/PRESQUE_ISLE,45.42,-83.80,-1,14,20,,20,-5,'KPZQ 041515Z AUTO 34011G19KT 1SM -SN OVC012 M18/M20 A3019 RMK AO2 T11801205'
20180104,1500,LWA,SOUTH_HAVEN,42.35,-86.25,14,3,,,,10,'KLWA 041515Z AUTO 04003KT 1/2SM SN OVC005 M10/M12 A3019 RMK AO2 T10981121'
20180104,1500,HAI,THREE_RIVERS,41.94,-85.62,12,6,,,,4,'KHAI 041515Z AUTO 30006KT 10SM SCT039 SCT045 OVC050 M10/M15 A3017 RMK AO2 T11051149'
20180104,1500,VLL,TROY/OAKLAND,42.58,-83.13,10,13,24,,24,0,'KVLL 041515Z AUTO 32012G19KT 10SM OVC028 M12/M18 A3011 RMK AO2 T11231181'
20180104,1500,MJX,Tleaf_RIVER,39.93,-74.18,24,23,30,33,33,21,'KMJX 041510Z AUTO 34017G29KT 1/4SM +SN FZFG OVC005 M04/M06 A2937 RMK AO2 PK WND33029/1503 P0000 FZRANO'
20180104,1500,KGBK,MAGNOLIA_(AWOS-3),27.20,-92.20,52,6,16,,16,37,'KGBK 041535Z AUTO 35008G18KT 300V020 10SM BKN039 11/03 A3036 RMK A01'
20180104,1500,KSPR,SHIP_SHOAL_(AWOS-3),28.60,-91.21,41,17,,,,19,'KSPR 041535Z AUTO 03013KT 10SM CLR 06/M07 A3037 RMK A01'
20180104,1500,KGUL,GUNNISON_(AWOS-3),27.30,-93.53,55,6,,,,36,'KGUL 041535Z AUTO 04006KT 10SM BKN040 13/03 A3037 RMK A01'
20180104,1500,KDLP,WEST_DELTA_(AWOS-3),29.12,-89.55,39,18,,,,18,'KDLP 041535Z AUTO 02011KT 10SM CLR 04/M08 A3035 RMK A01'
20180104,1500,KEHC,EAST_CAMERON_(AWOS-3),28.43,-92.88,55,9,,,,37,'KEHC 041535Z AUTO 36006KT 10SM CLR 14/03 A3036 RMK A01'
20180104,1500,KSCF,SOUTH_MARSH_(AWOS-3),29.12,-91.87,41,9,,,,25,'KSCF 041535Z AUTO 03010KT 10SM CLR 05/M04 A3041 RMK A01'
20180104,1500,KEIR,EUGENE_ISLAND_(AWOS-3),28.63,-91.49,43,16,,,,19,'KEIR 041535Z AUTO 07011KT 10SM 06/M06 A3040 RMK A01'
20180104,1500,KATP,GREEN_CANYON_787_(AWOS-3),27.20,-90.03,52,16,,,,37,'KATP 041535Z AUTO 34011KT 10SM BKN036 11/03 A3033 RMK A01'
