YMD,HHNN,STN,ID,LAT,LON,TMPF,SUSMPH,GUSTMPH,PKWNDMPH,MAXMPH,DWPF,'RAWOB'
20180104,1600,CYBN,BORDEN,44.27,-79.91,7,20,31,,31,1,'CYBN 041550Z AUTO 33017G27KT 290V360 2 1/2SM OVC014 M14/M17 A2990'
20180104,1600,CYCX,GAGETOWN__(CAN-MIL),45.83,-66.43,25,8,,,,23,'CYCX 041552Z 04007KT 15SM -SN SCT025 OVC060 M04/M05 A2978 RMK SC3SC5 DA-1898FT PRESFR SLP089'
20180104,1600,CYFC,FREDERICTON_AIRPORT,45.87,-66.53,25,8,,,,23,'CYFC 041554Z AUTO 02007KT 9SM -SN SCT029 OVC038 M04/M05 A2979 RMK PRESFR SLP092'
20180104,1600,CYGV,HAVRE_ST_PIERRE,50.28,-63.60,16,16,,,,14,'CYGV 041555Z AUTO 06014KT 2SM -SN OVC013 M09/M10 A3017 RMK SLP221'
20180104,1600,CYHD,DRYDEN_AIRPORT,49.83,-92.75,-24,2,,,,-31,'CYHD 041548Z AUTO 24002KT 6SM HZ CLR M31/M35 A3037 RMK SLP349'
20180104,1600,CYNA,NATASHQUAN_AIRPORT,50.18,-61.82,18,15,,,,16,'CYNA 041550Z AUTO 08013KT 9SM -SN SCT020 BKN027 OVC035 M08/M09 A3023 RMK SLP238'
20180104,1600,CYNM,MATAGAMI_AIRPORT,49.77,-77.80,-17,12,,,,-20,'CYNM 041557Z AUTO 34008KT 4SM -SN SCT009 BKN041 OVC055 M26/M29 A3008 RMK ICG SLP223'
20180104,1600,CYQA,MUSKOKA_AIRPORT,44.97,-79.30,0,12,17,,17,-8,'CYQA 041557Z AUTO 34009G15KT 1 1/2SM -SN M17/M21 A2986 RMK ICG CLD MISG SLP136'
20180104,1600,CYQG,WINDSOR_AIRPORT,42.27,-82.97,9,20,,,,-2,'CYQG 041545Z 34017KT 10SM BKN030 M13/M19 A3009 RMK CU7 SLP203'
20180104,1600,CYRJ,ROBERVAL_AIRPORT,48.52,-72.27,1,5,,,,-4,'CYRJ 041548Z 32004KT 2SM -SN OVC029 M17/M20 A2991 RMK SN3SC5 PRESFR SLP152'
20180104,1600,CYSJ,SAINT_JOHN_AIRPORT,45.30,-65.87,32,16,26,,26,32,'CYSJ 041554Z 08014G23KT 3/4SM R05/5000VP6000FT/D -SN DRSN VV006 00/M00 A2971 RMK SN8 PRESFR SLP069'
20180104,1600,CYTL,BIG_TROUT_LAKE,53.82,-89.90,-27,8,,,,-35,'CYTL 041546Z AUTO 32007KT 9SM SCT027 M33/M37 A3044 RMK SLP350'
20180104,1600,CMGB,GRANBY,45.37,-72.77,15,2,,,,9,'CMGB 041545Z AUTO 36002KT M09/M13 RMK AO1 SOG 24 6034 SLP098 T10931129'
20180104,1600,EYW,KEY_WEST_INTL_ARPT_(ASOS),24.55,-81.75,54,13,,,,46,'KEYW 041553Z 03011KT 10SM OVC025 12/08 A3019 RMK AO2 SLP221 T01220078'
20180104,1600,NQX,KEY_WEST_NAS,24.57,-81.68,55,14,,,,47,'KNQX 041553Z 02012KT 10SM SCT025 BKN035 13/08 A3018 RMK AO2 SLP219 T01280083 $'
20180104,1600,MTH,MARATHON_AIRPORT_(ASOS),24.73,-81.05,55,14,,,,39,'KMTH 041553Z AUTO 36012KT 10SM CLR 13/04 A3018 RMK AO2 SLP218 T01280039'
20180104,1600,MIA,MIAMI_INTL_AIRPORT_(ASOS),25.82,-80.28,53,10,21,,21,30,'KMIA 041553Z 34009G18KT 10SM CLR 12/M01 A3017 RMK AO2 SLP216 T01171011'
20180104,1600,OPF,MIAMI/OPA_LOCKA_(ASOS),25.90,-80.28,52,16,23,,23,29,'KOPF 041553Z 33014G20KT 10SM CLR 11/M02 A3017 RMK AO2 SLP217 T01111017'
20180104,1600,FLL,FT_LAUDERDALE/HOLLY_(ASOS),26.07,-80.15,50,16,,,,29,'KFLL 041553Z 31014KT 10SM CLR 10/M02 A3015 RMK AO2 SLP209 T01001017'
20180104,1600,HST,HOMESTEAD_AFB,25.48,-80.38,53,14,22,,22,34,'KHST 041556Z AUTO 34012G19KT 10SM CLR 12/01 A3015 RMK AO2 SLP213 T01150009'
20180104,1600,TMB,MIAMI/KENDALL-TAMIA_(ASOS),25.65,-80.43,52,21,,,,31,'KTMB 041553Z 34018KT 10SM CLR 11/M01 A3016 RMK AO2 SLP213 T01111006'
20180104,1600,PBI,WEST_PALM_BEACH_(ASOS),26.68,-80.12,47,14,,,,17,'KPBI 041553Z 34012KT 10SM CLR 08/M08 A3017 RMK AO2 SLP214 T00831083 $'
20180104,1600,APF,NAPLES_MUNICIPAL,26.15,-81.77,51,8,,,,29,'KAPF 041553Z 01007KT 340V040 10SM CLR 11/M02 A3018 RMK AO2 SLP219 T01061017 $'
20180104,1600,FXE,FORT_LAUDERDALE_(ASOS),26.20,-80.17,49,15,23,,23,26,'KFXE 041553Z 34013G20KT 10SM CLR 09/M03 A3016 RMK AO2 SLP214 T00941033 $'
20180104,1600,MLB,MELBOURNE_REGIONAL_(ASOS),28.10,-80.65,47,17,,,,20,'KMLB 041553Z 28015KT 10SM CLR 08/M07 A3014 RMK AO2 SLP204 T00831067'
20180104,1600,GIF,WINTER_HAVEN_(ASOS),28.05,-81.75,45,12,,,,23,'KGIF 041553Z AUTO 29010KT 10SM CLR 07/M05 A3018 RMK AO2 SLP220 T00721050'
20180104,1600,VRB,VERO_BEACH_MUNI_(ASOS),27.65,-80.42,47,9,,,,21,'KVRB 041553Z 30008KT 10SM CLR 08/M06 A3015 RMK AO2 SLP207 T00831061'
20180104,1600,TIX,TITUSVILLE,28.52,-80.80,48,12,,,,16,'KTIX 041547Z 228010KT 7SM SKC 09/M09 A3014'
20180104,1600,MCO,ORLANDO_JETPORT___(ASOS),28.43,-81.32,44,16,,,,18,'KMCO 041553Z 30014KT 10SM CLR 07/M08 A3016 RMK AO2 SLP212 T00671078'
20180104,1600,ORL,ORLANDO/HERNDON___(ASOS),28.55,-81.33,45,15,,,,17,'KORL 041553Z 29013KT 10SM CLR 07/M08 A3015 RMK AO2 SLP216 T00721083'
20180104,1600,BKV,BROOKSVILLE_(ASOS),28.47,-82.45,45,15,,,,25,'KBKV 041553Z 29013KT 10SM CLR 07/M04 A3019 RMK AO2 SLP224 T00721039'
20180104,1600,OCF,OCALA_MUNI_(AWOS),29.17,-82.22,39,10,17,,17,14,'KOCF 041551Z 28009G15KT 10SM CLR 04/M10 A3018 RMK AO2 SLP224 T00391100'
20180104,1600,DAB,DAYTONA_BEACH_RGNL_(ASOS),29.18,-81.05,43,15,,,,21,'KDAB 041553Z 28013KT 10SM CLR 06/M06 A3013 RMK AO2 SLP200 T00611061'
20180104,1600,SFB,SANFORD/ORLANDO_(ASOS),28.78,-81.23,43,13,,,,17,'KSFB 041553Z 28011KT 10SM CLR 06/M08 A3015 RMK AO2 SLP209 T00611083'
20180104,1600,JAX,JACKSONVILLE_INTL_(ASOS),30.50,-81.70,40,15,24,,24,19,'KJAX 041556Z 27013G21KT 10SM CLR 04/M07 A3009 RMK AO2 SLP190 T00441072'
20180104,1600,NIP,JACKSONVILLE_NAS,30.23,-81.68,39,16,23,,23,14,'KNIP 041553Z 27014G20KT 10SM CLR 04/M10 A3011 RMK AO2 SLP192 T00391100 $'
20180104,1600,NRB,MAYPORT_NS,30.40,-81.42,38,14,21,,21,17,'KNRB 041552Z 27012G18KT 10SM CLR 03/M08 A3009 RMK AO2 SLP187 T00331083 $'
20180104,1600,CRG,JACKSONVILLE/CRAIG_(ASOS),30.33,-81.52,39,14,23,,23,13,'KCRG 041553Z 28012G20KT 10SM CLR 04/M11 A3009 RMK AO2 SLP190 T00391106'
20180104,1600,SAV,SAVANNAH_MUNICIPAL_(ASOS),32.13,-81.20,34,17,22,,22,20,'KSAV 041553Z 28015G19KT 10SM CLR 01/M07 A3001 RMK AO2 SLP162 T00111067'
20180104,1600,CHS,CHARLESTOWN_MUNI_(ASOS),32.90,-80.03,33,9,,,,20,'KCHS 041556Z 29008KT 10SM CLR 00/M07 A2995 RMK AO2 SLP142 T00061067 $'
20180104,1600,LHW,FT_STEWART/WRIGHT_&,31.88,-81.57,33,10,,,,19,'KLHW 041556Z AUTO 27009KT 10SM CLR 00/M07 A3001 RMK AO2 SLP166 T00031072 $'
20180104,1600,FPR,FT_PIERCE/ST_LUCIE_(ASOS),27.50,-80.37,47,14,,,,24,'KFPR 041553Z 29012KT 10SM CLR 08/M04 A3015 RMK AO2 SLP207 T00831044'
20180104,1600,SPG,SAINT_PETERSBURG_(ASOS),27.77,-82.63,49,7,,,,34,'KSPG 041553Z 32006KT 10SM CLR 09/01 A3017 RMK AO2 SLP216 T00940011'
20180104,1600,FMY,FORT_MYERS/PAGE_FLD_(ASOS),26.58,-81.87,52,9,,,,29,'KFMY 041553Z 02008KT 10SM CLR 11/M02 A3018 RMK AO2 SLP221 T01111017'
20180104,1600,RSW,FT_MYERS/SW_FLORIDA_(ASOS),26.53,-81.75,51,8,,,,30,'KRSW 041553Z AUTO 33007KT 10SM CLR 11/M01 A3019 RMK AO2 SLP220 T01061011'
20180104,1600,TPA,TAMPA_INTL_AIRPORT_(ASOS),27.97,-82.53,51,8,,,,33,'KTPA 041553Z 28007KT 10SM FEW045 11/01 A3018 RMK AO2 SLP220 T01060006'
20180104,1600,SRQ,SARASOTA-BRADENTON_(ASOS),27.40,-82.55,50,9,,,,33,'KSRQ 041553Z 36008KT 10SM SCT042 10/01 A3018 RMK AO2 SLP218 T01000006'
20180104,1600,PIE,SAINT_PETERSBURG_(ASOS),27.92,-82.68,51,17,,,,35,'KPIE 041556Z 32014G18KT 10SM SCT038 10/02 A3019 RMK AO2 T01000022'
20180104,1600,BOW,BARTOW_MUNICIPAL__&,27.95,-81.78,43,13,,,,21,'KBOW 041545Z 29011KT 10SM SKC 06/M06 A3018'
20180104,1600,AMG,ALMA/BACON_CO._(ASOS),31.53,-82.50,35,13,,,,13,'KAMG 041553Z AUTO 30011KT 10SM CLR 02/M11 A3007 RMK AO2 SLP183 T00171106'
20180104,1600,BQK,BRUNSWICK/GLYNCO,31.25,-81.47,32,7,,,,27,'KBQK 041555Z AUTO 26006KT 10SM CLR 00/M03 A3007 RMK AO2'
20180104,1600,SSI,BRUNSWICK/MALCOLM_(ASOS),31.15,-81.38,35,14,,,,21,'KSSI 041553Z AUTO 28012KT CLR 02/M06 A3005 RMK AO2 SLP177 T00171061 TSNO $'
20180104,1600,TLH,TALLAHASSEE_RGNL_(ASOS),30.38,-84.37,37,9,,,,13,'KTLH 041553Z 30008KT 280V340 10SM CLR 03/M11 A3018 RMK AO2 SLP221 T00281106'
20180104,1600,GNV,GAINESVILLE_RGNL_(ASOS),29.68,-82.27,39,13,,,,16,'KGNV 041553Z 30011KT 10SM CLR 04/M09 A3018 RMK AO2 SLP220 T00391089'
20180104,1600,ABY,ALBANY_MUNICIPAL,31.53,-84.18,37,9,,,,12,'KABY 041553Z 30008KT 10SM CLR 03/M11 A3018 RMK AO2 SLP222 T00281111'
20180104,1600,VLD,VALDOSTA_REGIONAL_(ASOS),30.78,-83.28,37,3,,,,16,'KVLD 041553Z VRB03KT 10SM CLR 03/M09 A3014 RMK AO2 SLP217 T00281089'
20180104,1600,MCN,MACON/LEWIS_WILSON_(ASOS),32.70,-83.65,34,16,23,,23,10,'KMCN 041553Z 28014G20KT 10SM CLR 01/M12 A3010 RMK AO2 SLP193 T00111122'
20180104,1600,WRB,WARNER_ROBINS_AFB,32.63,-83.60,35,16,21,,21,11,'KWRB 041556Z 30014G18KT 10SM CLR 02/M12 A3009 RMK AO2A SLP195 T00161119'
20180104,1600,AGS,AUGUSTA/BUSH_FIELD_(ASOS),33.37,-81.97,36,18,25,,25,11,'KAGS 041553Z 27016G22KT 10SM CLR 02/M12 A2999 RMK AO2 SLP156 T00221117'
20180104,1600,ATL,ATLANTA_INTL_ARPT_(ASOS),33.65,-84.42,28,22,32,32,32,9,'KATL 041552Z 31019G28KT 10SM FEW200 FEW250 M02/M13 A3007 RMK AO2 PK WND 31028/1550 SLP194 T10221128'
20180104,1600,FTY,ATLANTA/FULTON_CO._(ASOS),33.78,-84.52,27,12,22,,22,10,'KFTY 041553Z 32010G19KT 280V340 10SM CLR M03/M12 A3009 RMK AO2 SLP197 T10281122'
20180104,1600,PDK,ATLANTA/DEKALB_(ASOS),33.88,-84.30,26,21,28,30,30,7,'KPDK 041553Z 32018G24KT 10SM CLR M03/M14 A3006 RMK AO2 PK WND 31026/1536 SLP199 T10331139'
20180104,1600,VPS,EGLIN_AFB/VALPARAIS,30.48,-86.53,37,13,18,,18,11,'KVPS 041555Z 36011G16KT 10SM CLR 03/M12 A3025 RMK AO2A SLP25 T00251118 $'
20180104,1600,CEW,CRESTVIEW/BOB_SIKES_(ASOS),30.78,-86.52,36,14,20,,20,11,'KCEW 041553Z AUTO 34012G17KT 10SM CLR 02/M12 A3027 RMK AO2 SLP252 T00221117'
20180104,1600,PNS,PENSACOLA_REGIONAL(ASOS),30.47,-87.18,37,13,,,,15,'KPNS 041553Z 34011KT 10SM CLR 03/M09 A3028 RMK AO2 SLP257 T00281094'
20180104,1600,NPA,PENSACOLA_NAS,30.35,-87.32,37,9,17,,17,14,'KNPA 041556Z 33008G15KT 300V010 10SM CLR 03/M10 A3028 RMK AO2 SLP255 T00281100 $'
20180104,1600,MOB,MOBILE/BATES_FIELD_(ASOS),30.68,-88.25,36,12,,,,14,'KMOB 041556Z 35010KT 10SM FEW060 FEW250 02/M10 A3031 RMK AO2 SLP264 T00221100'
20180104,1600,BFM,MOBILE_DOWNTOWN_(ASOS),30.63,-88.07,38,12,,,,15,'KBFM 041553Z 34010KT 10SM CLR 03/M09 A3032 RMK AO2 SLP267 T00331094'
20180104,1600,ECP,PANAMA_CITY,30.36,-85.80,37,8,,,,14,'KECP 041553Z 30007KT 280V350 10SM CLR 03/M10 A3022 RMK AO2 SLP246 T00281100'
20180104,1600,LSF,FORT_BENNING,32.33,-85.00,33,14,,,,10,'KLSF 041556Z AUTO 28012KT 10SM CLR 01/M12 A3017 RMK AO2 SLP224 T00071120'
20180104,1600,CSG,COLUMBUS_METRO_ARPT_(ASOS),32.52,-84.93,33,13,,,,9,'KCSG 041551Z 33011KT 10SM CLR 01/M13 A3016 RMK AO2 SLP215 T00061128'
20180104,1600,MGM,MONTGOMERY/DANNELLY_(ASOS),32.30,-86.40,32,13,18,,18,11,'KMGM 041553Z 33011G16KT 10SM CLR 00/M12 A3025 RMK AO2 SLP244 T00001117'
20180104,1600,MXF,MAXWELL_AFB/MONTGOM,32.38,-86.37,33,12,,,,12,'KMXF 041556Z AUTO 32010KT 10SM CLR 01/M11 A3022 RMK AO2 SLP238 T00051109 $'
20180104,1600,DHN,DOTHAN_MUNICIPAL,31.32,-85.45,34,,,,,13,'KDHN 041553Z 10SM CLR 01/M11 A3022 RMK AO2 SLPNO T00111106 $'
20180104,1600,OZR,CAIRNS_AAF/OZARK,31.28,-85.72,33,8,,,,10,'KOZR 041556Z AUTO 32007KT 10SM CLR 01/M12 A3020 RMK AO2 SLP232 T00061121'
20180104,1600,BHM,BIRMINGHAM_MUNI_(ASOS),33.57,-86.75,28,10,,,,11,'KBHM 041553Z 32009KT 10SM FEW250 M02/M12 A3025 RMK AO2 SLP249 T10221117'
20180104,1600,AUO,AUBURN-OPELIKA_APT,32.62,-85.43,30,17,23,,23,12,'KAUO 041556Z AUTO 32015G20KT 10SM CLR M01/M11 A3016 RMK AO2 SLP240 T10111111 FZRANO'
20180104,1600,GAD,GADSEN_MUNI_(AWOS),33.97,-86.08,27,12,18,,18,12,'KGAD 041556Z AUTO 34010G16KT 10SM CLR M03/M11 A3022 RMK AO2 SLP244 T10281111 FZRANO'
20180104,1600,TCL,TUSCALOOSA_MUNI_(ASOS),33.22,-87.62,30,10,,,,11,'KTCL 041553Z 35009KT 10SM CLR M01/M12 A3029 RMK AO2 SLP258 T10111117'
20180104,1600,ANB,ANNISTON/CALHOUN_CO_(ASOS),33.58,-85.85,28,14,20,,20,11,'KANB 041553Z AUTO 27012G17KT 10SM CLR M02/M12 A3019 RMK AO2 SLP238 T10221117'
20180104,1600,MSY,NEW_ORLEANS/MOISANT_(ASOS),29.98,-90.25,39,8,,,,18,'KMSY 041553Z 01007KT 10SM FEW250 04/M08 A3037 RMK AO2 SLP288 T00391078'
20180104,1600,ARA,NEW_IBERIA/ACADIANA_(ASOS),30.03,-91.88,39,7,,,,18,'KARA 041553Z 04006KT 10SM CLR 04/M08 A3041 RMK AO2 SLP296 T00391078'
20180104,1600,NEW,NEW_ORLEANS/LAKEFRO_(ASOS),30.05,-90.03,39,10,,,,18,'KNEW 041553Z 03009KT 10SM CLR 04/M08 A3038 RMK AO2 SLP279 T00391078'
20180104,1600,BTR,BATON_ROUGE/RYAN_(ASOS),30.53,-91.15,38,8,,,,16,'KBTR 041553Z 05007KT 040V100 10SM CLR 03/M09 A3039 RMK AO2 SLP290 T00331089'
20180104,1600,PTN,PATTERSON_MEMORIAL,29.72,-91.33,39,6,,,,19,'KPTN 041556Z AUTO 07005KT 10SM CLR 04/M07 A3040 RMK AO2 SLP294 T00391072'
20180104,1600,NMM,MERIDIAN_NAS/MCCAIN,32.55,-88.57,32,10,,,,13,'KNMM 041556Z 32009KT 10SM FEW250 00/M11 A3032 RMK AO2 SLP283 T00001106 $'
20180104,1600,PIB,PINE_BELT_RGNL_AWOS,31.47,-89.33,34,14,,,,16,'KPIB 041556Z AUTO 01012KT 10SM CLR 01/M09 A3034 RMK AO2 SLP278 T00111089 FZRANO'
20180104,1600,JAN,JACKSON/THOMPSON_(ASOS),32.32,-90.08,32,10,,,,15,'KJAN 041554Z 34009KT 10SM CLR 00/M09 A3034 RMK AO2 SLP278 T00001094'
20180104,1600,GLH,GREENVILLE_MUNI,33.48,-90.98,30,12,,,,12,'KGLH 041553Z 01010KT 10SM CLR M01/M11 A3039 RMK AO2 SLP302 T10111111'
20180104,1600,MCB,MCCOMB/LEWIS_FIELD,31.18,-90.47,36,7,,,,14,'KMCB 041553Z AUTO 01006KT 10SM CLR 02/M10 A3034 RMK AO2 SLP277 T00221100'
20180104,1600,GWO,GREENWOOD/LEFLORE_(ASOS),33.50,-90.08,29,8,,,,14,'KGWO 041553Z AUTO 34007KT 10SM CLR M02/M10 A3039 RMK AO2 SLP291 T10171100'
20180104,1600,POE,FORT_POLK_(ARMY),31.05,-93.20,36,8,,,,16,'KPOE 041558Z AUTO 06007KT 9SM CLR 02/M09 A3039 RMK AO2 SLP296 T00241087'
20180104,1600,LCH,LAKE_CHARLES_MUNI_(ASOS),30.12,-93.22,37,9,,,,21,'KLCH 041553Z 07008KT 10SM CLR 03/M06 A3040 RMK AO2 SLP301 T00281061'
20180104,1600,LFT,LAFAYETTE_REGIONAL_(ASOS),30.20,-91.98,38,5,,,,19,'KLFT 041553Z 07004KT 10SM CLR 03/M07 A3040 RMK AO2 SLP294 T00331072 $'
20180104,1600,MLU,MONROE_REGIONAL_(ASOS),32.52,-92.03,34,9,,,,17,'KMLU 041553Z 06008KT 10SM CLR 01/M08 A3042 RMK AO2 SLP300 T00111083'
20180104,1600,ESF,ALEXANDRIA/ESLER_(ASOS),31.40,-92.30,36,7,,,,17,'KESF 041553Z AUTO VRB06KT 10SM CLR 02/M08 A3040 RMK AO2 SLP294 T00221083'
20180104,1600,ILM,WILMINGTON/NEW_HAN_(ASOS),34.27,-77.90,31,13,,,,16,'KILM 041553Z 28011KT 10SM CLR M01/M09 A2985 RMK AO2 SLP108 T10061089'
20180104,1600,POB,POPE_AFB,35.17,-79.02,31,20,24,,24,11,'KPOB 041556Z 32017G21KT 10SM CLR M01/M11 A2984 RMK AO2A SLP110 T10081115 $'
20180104,1600,MQI,MANTEO/DARE_CO_RGNL,35.92,-75.70,26,22,33,,33,23,'KMQI 041545Z AUTO 32019G29KT OVC013 M03/M05 A2966 RMK AO2 T10351051 PWINO'
20180104,1600,RDU,RALEIGH-DURHAM_(ASOS),35.87,-78.78,28,15,29,30,30,7,'KRDU 041551Z 33013G25KT 280V360 10SM FEW045 M02/M14 A2982 RMK AO2 PK WND 28026/1539 SLP102 T10221139'
20180104,1600,GSB,SEYMOUR-JOHNSON_AFB,35.33,-77.97,31,14,23,,23,10,'KGSB 041556Z AUTO 30012G20KT 10SM CLR 00/M12 A2979 RMK AO2 SLPNO T10051122 $'
20180104,1600,ISO,KINSTON/STALLINGS,35.33,-77.61,32,12,21,,21,12,'KISO 041556Z 30010G18KT 10SM CLR M00/M11 A2980 RMK AO2'
20180104,1600,RWI,ROCKY_MOUNT-WILSON_(ASOS),35.85,-77.90,29,20,30,30,30,11,'KRWI 041553Z AUTO 29017G26KT 10SM CLR M02/M12 A2979 RMK AO2 PK WND 30026/1552 SLP089 T10171117'
20180104,1600,OAJ,JACKSONVILLE_(AWOS),34.83,-77.62,33,9,16,,16,18,'KOAJ 041556Z AUTO 29008G14KT 250V320 10SM CLR 01/M08 A2982 RMK AO2 SLP102 T00061078 FZRANO'
20180104,1600,NTU,OCEANA_NAS/SOUCEK,36.82,-76.03,23,20,31,31,31,19,'KNTU 041556Z AUTO 31017G27KT 1/2SM SN FZFG VV011 M05/M07 A2962 RMK AO2 PK WND 31027/1510 SLP034 P0000 T10501072 $'
20180104,1600,ORF,NORFOLK_INTL_ARPT_(ASOS),36.90,-76.20,24,10,22,,22,24,'KORF 041551Z 31009G19KT 280V340 1/2SM R05/2600V3500FT FZFG VV010 M04/M04 A2965 RMK AO2 SLP041 T10441044'
20180104,1600,FKN,FRANKLIN/J_B_ROSE,36.70,-76.90,25,16,21,,21,20,'KFKN 041555Z AUTO 30014G18KT 2 1/2SM -SN SCT011 BKN016 OVC031 M04/M07 A2973 RMK AO2 T10411067'
20180104,1600,NGU,NORFOLK_NAS/CHAMBER,36.93,-76.28,25,23,33,38,38,20,'KNGU 041552Z AUTO 30020G29KT 1/2SM HZ VV013 M04/M07 A2967 RMK AO2 PK WND 31033/1515 T10391067 PWINO FZRANO $'
20180104,1600,PHF,NEWPORT_NEWS_(ASOS),37.13,-76.50,24,20,28,35,35,18,'KPHF 041554Z 30017G24KT 3/4SM -SN VV016 M04/M08 A2967 RMK AO2 PK WND 29030/1526 SLP047 P0000 T10441078'
20180104,1600,FAF,FORT_EUSTIS/FELKER,37.13,-76.62,25,26,33,33,33,18,'KFAF 041556Z AUTO 31019G28KT 1 5/8SM +UP OVC012 M04/M08 A2966 RMK AO2 PK WND 31029/35 VIS 1 1/8V1 5/8 SNE02UPB02E11SNB11E42UPB42E46SNB46E51UPB51 SLP047 P0000 T1'
20180104,1600,NKT,CHERRY_POINT_MCAS,34.90,-76.88,39,14,,,,-9999,'KNKT 041554Z 28012KT 10SM -RA CLR 04/ A2979 RMK AO2 UPE09RAB09 SLP085 T0039 PNO $'
20180104,1600,EWN,NEW_BERN/CRAVEN_CO_(ASOS),35.07,-77.05,29,13,21,,21,20,'KEWN 041554Z AUTO 28011G18KT 10SM CLR M02/M07 A2979 RMK AO2 SLP088 T10171067'
20180104,1600,NCA,NEW_RIVER_MCAS,34.72,-77.45,30,18,25,,25,17,'KNCA 041556Z AUTO 30016G22KT 10SM CLR M01/M08 A2982 RMK AO2 SLP099 T10111083 PWINO FZRANO $'
20180104,1600,CAE,COLUMBIA_METRO_(ASOS),33.95,-81.12,36,12,,,,14,'KCAE 041556Z 30010KT 10SM CLR 02/M10 A2994 RMK AO2 SLP140 T00221100'
20180104,1600,MMT,MCENTIRE_ANG_BASE,33.92,-80.80,35,18,24,,24,12,'KMMT 041556Z AUTO 30016G21KT 10SM CLR 02/M11 A2992 RMK AO2 SLP137 T00171111 $'
20180104,1600,FLO,FLORENCE_REGIONAL_(ASOS),34.18,-79.72,30,8,,,,13,'KFLO 041553Z 29007KT 10SM CLR M01/M11 A2991 RMK AO2 SLP127 T10111106'
20180104,1600,AHN,ATHENS_MUNICIPAL_(ASOS),33.95,-83.32,31,13,25,,25,10,'KAHN 041551Z 31011G22KT 10SM CLR M01/M12 A3000 RMK AO2 SLP169 T10061122'
20180104,1600,GMU,GREENVILLE_DOWNTOWN_(ASOS),34.85,-82.35,33,6,,,,6,'KGMU 041553Z 30005KT 10SM CLR 01/M14 A2992 RMK AO2 SLP142 T00061144'
20180104,1600,GSP,GREENVILLE/SPARTANB_(ASOS),34.90,-82.22,30,12,,,,8,'KGSP 041553Z 36010KT 10SM CLR M01/M13 A2993 RMK AO2 SLP142 T10111133'
20180104,1600,AND,ANDERSON_CO_AIRPORT_(ASOS),34.50,-82.72,33,9,20,,20,9,'KAND 041556Z AUTO 27008G17KT 240V300 10SM CLR 01/M13 A2995 RMK AO2 SLP147 T00061128'
20180104,1600,HSE,HATTERAS_(ASOS),35.22,-75.62,30,22,35,40,40,25,'KHSE 041551Z AUTO 30019G30KT 10SM BKN026 M01/M04 A2969 RMK AO2 PK WND 31035/1506 UPB1456E01SNE1456 SLP053 P0000 T10111039 TSNO'
20180104,1600,CLT,CHARLOTTE/DOUGLAS_(ASOS),35.22,-80.95,32,15,23,,23,6,'KCLT 041552Z 29013G20KT 10SM FEW030 00/M14 A2990 RMK AO2 SLP130 T00001144'
20180104,1600,SOP,SOUTHERN_PINES_AWOS,35.23,-79.40,32,8,18,,18,11,'KSOP 041556Z AUTO 31007G16KT 280V350 10SM CLR 00/M12 A2985 RMK AO2 UPB00E51 SLP127 P0000 T00001117 FZRANO'
20180104,1600,HKY,HICKORY_REGIONAL_(ASOS),35.73,-81.38,27,10,23,,23,4,'KHKY 041553Z 34009G20KT 300V010 10SM BKN050 M03/M16 A2989 RMK AO2 SLP126 T10281156'
20180104,1600,AVL,ASHEVILLE_MUNICIPAL_(ASOS),35.43,-82.55,21,20,37,43,43,7,'KAVL 041554Z 35017G32KT 10SM BKN025 M06/M14 A2987 RMK AO2 PK WND 33037/1526 UPB1457E47SNB14E27 SLP135 P0000 T10611139'
20180104,1600,GSO,GREENSBORO/PIEDMONT_(ASOS),36.08,-79.95,27,25,31,39,39,3,'KGSO 041554Z 32022G27KT 10SM FEW055 M03/M16 A2982 RMK AO2 PK WND 32034/1457 SLP107 T10281161'
20180104,1600,TRI,BRISTOL/TRI-CITY__(ASOS),36.48,-82.40,21,16,26,,26,4,'KTRI 041553Z 30014G23KT 10SM BKN047 M06/M16 A3003 RMK AO2 SLP175 T10611156'
20180104,1600,INT,WINSTON-SALEM/SMITH_(ASOS),36.13,-80.22,26,16,29,35,35,2,'KINT 041554Z 31014G25KT 280V340 10SM FEW049 M03/M17 A2986 RMK AO2 PK WND 32030/1511 SLP120 T10331167'
20180104,1600,RMG,ROME/RUSSELL_(ASOS),34.35,-85.17,28,15,23,,23,7,'KRMG 041553Z AUTO 35013G20KT 10SM CLR M02/M14 A3015 RMK AO2 SLP212 T10221139'
20180104,1600,HSV,HUNTSVILLE/MADISON_(ASOS),34.65,-86.77,24,10,,,,10,'KHSV 041553Z 35009KT 10SM CLR M04/M12 A3027 RMK AO2 SLP255 T10441122'
20180104,1600,MSL,MUSCLE_SHOALS_RGNL_(ASOS),34.75,-87.62,23,8,,,,8,'KMSL 041553Z AUTO 35007KT 10SM CLR M05/M13 A3032 RMK AO2 SLP271 T10501133'
20180104,1600,CHA,CHATTANOOGA/LOVELL_(ASOS),35.03,-85.20,23,14,18,,18,6,'KCHA 041553Z 35012G16KT 10SM SCT035 M05/M14 A3019 RMK AO2 SLP228 T10501144'
20180104,1600,TYS,KNOXVILLE_MUNICIPAL_(ASOS),35.82,-83.98,22,13,,,,11,'KTYS 041553Z 35011KT 10SM BKN034 BKN042 M06/M12 A3013 RMK AO2 SLP212 T10561117'
20180104,1600,CSV,CROSSVILLE_MEMORIAL,35.95,-85.08,13,13,,,,4,'KCSV 041553Z AUTO 31011KT 2 1/2SM -SN OVC020 M11/M16 A3011 RMK AO2 SNB44 SLP221 P0000 T11061156'
20180104,1600,BNA,NASHVILLE_METRO_(ASOS),36.13,-86.68,16,10,,,,4,'KBNA 041553Z 35009KT 10SM SCT022 M09/M16 A3032 RMK AO2 SNE19 SLP275 P0000 T10891156'
20180104,1600,MQY,SMYRNA,36.02,-86.52,14,13,,,,4,'KMQY 041556Z 33011KT 10SM SCT022 M10/M16 A3032 RMK AO2 SLP329 T11001156'
20180104,1600,CBM,COLUMBUS_AFB,33.65,-88.45,27,13,,,,12,'KCBM 041556Z AUTO 35011KT 10SM CLR M03/M11 A3032 RMK AO2 SLP273 T10271110 $'
20180104,1600,GTR,GOLDEN_TRI(AWOS),33.45,-88.58,28,15,,,,13,'KGTR 041556Z 33013KT 10SM CLR M02/M11 A3033 RMK AO2 SLP276 T10221106'
20180104,1600,TUP,TUPELO/C.D._LEMONS_(ASOS),34.27,-88.77,24,12,20,,20,7,'KTUP 041553Z 32010G17KT 10SM CLR M04/M14 A3035 RMK AO2 SLP279 T10441139'
20180104,1600,MEM,MEMPHIS_INTL_ARPT_(ASOS),35.05,-90.00,22,14,,,,5,'KMEM 041554Z 01012KT 10SM FEW150 FEW250 M06/M15 A3040 RMK AO2 SLP297 T10561150 $'
20180104,1600,NQA,MEMPHIS_NAS,35.35,-89.87,19,14,,,,5,'KNQA 041550Z 34012KT 10SM FEW150 M07/M15 A3040'
20180104,1600,MKL,JACKSON/MCKELLAR_(ASOS),35.60,-88.92,17,10,,,,5,'KMKL 041553Z 34009KT 10SM CLR M08/M15 A3040 RMK AO2 SLP300 T10831150'
20180104,1600,DYR,DYERSBURG(AWOS),36.00,-89.40,16,13,,,,4,'KDYR 041556Z AUTO 34011KT 10SM CLR M09/M16 A3042 RMK AO2 SLPNO T10891156 FZRANO'
20180104,1600,LIT,LITTLE_ROCK/ADAMS_(ASOS),34.73,-92.23,28,5,,,,11,'KLIT 041553Z VRB04KT 10SM SCT250 M02/M12 A3043 RMK AO2 SLP310 T10221117'
20180104,1600,LRF,LITTLE_ROCK_AFB,34.92,-92.15,27,8,,,,9,'KLRF 041556Z AUTO 01007KT 10SM CLR M03/M13 A3041 RMK AO2 SLP305 T10261126'
20180104,1600,ARG,WALNUT_RIDGE_(AWOS),36.13,-90.92,19,9,,,,6,'KARG 041556Z AUTO 34008KT 10SM CLR M07/M14 A3043 RMK AO2 SLP312 T10721144 FZRANO'
20180104,1600,JBR,JONESBORO_MUNICIPAL_(ASOS),35.83,-90.65,20,9,,,,6,'KJBR 041553Z AUTO 35008KT 10SM CLR M07/M14 A3043 RMK AO2 SLP306 T10671144 $'
20180104,1600,HOT,HOT_SPRINGS_(ASOS),34.48,-93.10,33,6,,,,12,'KHOT 041553Z AUTO 34005KT 10SM CLR 01/M11 A3039 RMK AO2 SLP296 T00061111'
20180104,1600,SGT,STUTTGART_(AWOS),34.60,-91.57,26,10,,,,12,'KSGT 041556Z AUTO 02009KT 10SM CLR M03/M11 A3043 RMK AO2 SLP308 T10331111 FZRANO'
20180104,1600,PBF,PINE_BLUFF/GRIDER_(ASOS),34.18,-91.93,29,10,,,,14,'KPBF 041553Z AUTO 01009KT 10SM CLR M02/M10 A3043 RMK AO2 SLP304 T10171100'
20180104,1600,ELD,EL_DORADO/GOODWIN_(ASOS),33.22,-92.80,32,10,,,,16,'KELD 041553Z AUTO 04009KT 10SM CLR 00/M09 A3041 RMK AO2 SLP300 T00001089'
20180104,1600,HRO,HARRISON/BOONE_CO_(ASOS),36.27,-93.15,19,7,,,,4,'MHRO 041600Z 30010KT 9999 BKN020TCU 25/20 Q1020 A3012 NOSIG'
20180104,1600,BVX,BATESVILLE_(AWOS),35.73,-91.65,21,7,,,,6,'KBVX 041556Z AUTO VRB06KT 10SM CLR M06/M14 A3042 RMK AO2 SLP308 T10611144 FZRANO'
20180104,1600,CGI,CAPE_GIRARDEAU_MUNI_(ASOS),37.23,-89.57,13,9,,,,0,'KCGI 041553Z 35008KT 10SM CLR M11/M18 A3042 RMK AO2 SLP307 T11061178'
20180104,1600,RIC,RICHMOND/BYRD_FIELD_(ASOS),37.50,-77.33,24,22,28,35,35,16,'KRIC 041554Z 33019G24KT 3SM BLSN BR OVC037 M04/M09 A2974 RMK AO2 PK WND 33030/1538 SLP076 T10441089'
20180104,1600,PTB,PETERSBURG_(AWOS),37.18,-77.52,27,10,,,,18,'KPTB 041600Z AUTO 34009KT 5SM HZ OVC043 M03/M08 A2975 RMK AO2'
20180104,1600,FVX,FARMVILLE,37.35,-78.43,30,8,21,,21,9,'KFVX 041555Z AUTO 35007G18KT 320V020 10SM CLR M01/M13 A2977 RMK AO2 T10121128'
20180104,1600,WAL,WALLOPS_ISLAND_STN_(ASOS),37.93,-75.48,24,29,41,45,45,21,'KWAL 041554Z AUTO 31025G36KT 3/4SM BR BKN016 OVC021 M04/M06 A2947 RMK AO2 PK WND 31039/1519 SLP978 T10441061 PWINO FZRANO'
20180104,1600,MFV,MELFA/ACCOMACK_ARPT,37.65,-75.77,25,29,44,,44,22,'KMFV 041555Z AUTO 30025G38KT 1/4SM SN OVC009 M04/M05 A2955 RMK AO2 T10401055'
20180104,1600,OFP,RICHMOND_(ASOS),37.70,-77.43,24,16,28,,28,15,'KOFP 041554Z AUTO 31014G24KT 2SM -SN OVC034 M04/M09 A2976 RMK AO2 SNB1456 SLP080 P0000 T10441094'
20180104,1600,IAD,WASHINGTON/DULLES_(ASOS),38.95,-77.45,23,24,32,39,39,13,'KIAD 041552Z 32021G28KT 5SM -SN BKN027 OVC036 M05/M11 A2972 RMK AO2 PK WND 32034/1504 SLP067 P0000 T10501106'
20180104,1600,EZF,SHANNON_ARPT,38.27,-77.45,23,14,30,,30,18,'KEZF 041555Z AUTO 31012G26KT 1 1/2SM -SN BKN011 BKN017 BKN023 M05/M08 A2974 RMK AO2 T10481080'
20180104,1600,NYG,QUANTICO_MCAF,38.50,-77.30,25,17,39,39,39,16,'KNYG 041551Z 33015G34KT 1 1/2SM -SN BKN030 OVC047 M04/M09 A2975 RMK AO2 PK WND 36034/1543 TWR VIS 2 1/2 SNB02 P0000'
20180104,1600,HEF,MANASSAS_MUNI(AWOS),38.72,-77.52,24,28,37,38,38,12,'KHEF 041556Z 33024G32KT 9SM -SN BKN037 OVC045 M04/M11 A2974 RMK AO2 PK WND 32033/1531 SLP082 T10441111 FZRANO PNO $'
20180104,1600,DAA,FORT_BELVOIR/DAVISO,38.72,-77.18,23,18,29,33,33,14,'KDAA 041556Z AUTO 31013G23KT 2 1/2SM -SN OVC017 M05/M09 A2971 RMK AO2 PK WND 31029/35 VIS 2 1/2V4 SNB30E35UPB35E46SNB46 SLP065 P0000 T10501095 $'
20180104,1600,NHK,PATUXENT_RIVER_NAS,38.28,-76.40,24,29,39,46,46,18,'KNHK 041552Z AUTO 31025G34KT 1 1/4SM HZ FEW020 BKN029 OVC038 M04/M08 A2960 RMK AO2 PK WND 32040/1456 SLP022 T10441078 PWINO FZRANO $'
20180104,1600,SBY,SALISBURY_REGIONAL_(ASOS),38.33,-75.52,23,22,39,43,43,20,'KSBY 041554Z 31019G34KT 1/2SM FZFG OVC017 M05/M07 A2948 RMK AO2 PK WND 32037/1515 SLP987 T10501067'
20180104,1600,DCA,WASHINGTON/NATIONAL_(ASOS),38.85,-77.03,24,18,30,35,35,16,'KDCA 041552Z 32016G26KT 3SM -SN OVC035 M04/M09 A2970 RMK AO2 PK WND 33030/1455 SLP056 SNB10 T10441089 PNO $'
20180104,1600,OKV,WINCHESTER_RGNL,39.15,-78.15,21,22,32,,32,10,'KOKV 041555Z AUTO 31019G28KT 10SM SCT037 OVC043 M06/M12 A2977 RMK AO2'
20180104,1600,JYO,LEESBURG/GODFREY,39.08,-77.57,27,24,35,,35,14,'KJYO 041555Z AUTO 34021G30KT 10SM SCT037 BKN050 OVC065 M03/M10 A2973 RMK AO2'
20180104,1600,MKJ,MARION_/_WYTHEVILLE,36.90,-81.35,15,17,28,,28,0,'KMKJ 041555Z AUTO 29015G24KT 270V340 10SM OVC030 M10/M18 A2986 RMK AO2 T10961179'
20180104,1600,VJI,ABINGTON,36.68,-82.03,17,15,21,,21,6,'KVJI 041555Z AUTO 32013G18KT 7SM BKN029 OVC036 M08/M15 A2995 RMK AO2 T10811146'
20180104,1600,BWI,BALTIMORE/WASH_INTL_(ASOS),39.18,-76.67,24,21,36,39,39,14,'KBWI 041554Z COR 31018G31KT 6SM -SN BR FEW039 OVC060 M04/M10 A2962 RMK AO2 PK WND 32034/1542 SLP032 P0000 T10441100 P-GRP ESTMD'
20180104,1600,HGR,HAGERSTOWN_REGIONAL_(ASOS),39.70,-77.73,23,25,32,33,33,10,'KHGR 041553Z 31022G28KT 10SM SCT038 BKN080 OVC090 M05/M12 A2971 RMK AO2 PK WND 34029/1542 SLP081 T10501122'
20180104,1600,MTN,BALTIMORE/MARTIN,39.33,-76.42,27,24,35,,35,18,'KMTN 041545Z 30021G30KT 7SM OVC050 M03/M08 A2961'
20180104,1600,ACY,ATLANTIC_CITY_INTL_(ASOS),39.45,-74.57,25,31,44,48,48,23,'KACY 041554Z 33027G38KT 1/8SM FZFG VV005 M04/M05 A2932 RMK AO2 PK WND 33042/1533 SFC VIS 1/4 SNEMM SLP930 P0002 T10391050 $'
20180104,1600,MIV,MILLVILLE_MUNICIPAL_(ASOS),39.37,-75.07,23,20,38,38,38,22,'KMIV 041554Z AUTO 32017G33KT 1/4SM FZFG VV009 M05/M06 A2942 RMK AO2 PK WND 32033/1546 SLP962 T10501056 PWINO FZRANO $'
20180104,1600,PHL,PHILADELPHIA_INTL_(ASOS),39.88,-75.25,23,21,,39,39,19,'KPHL 041554Z 33018KT 3/4SM R09R/3500V4000FT -SN BLSN OVC014 M05/M07 A2947 RMK AO2 PK WND 32034/1532 SLP980 P0002 T10501072'
20180104,1600,BLM,BELMAR-FARMDALE,40.18,-74.13,23,21,38,44,44,22,'KBLM 041556Z AUTO 33018G33KT 1/4SM +SN FZFG OVC004 M05/M06 A2933 RMK AO2 PK WND 34038/1542 SLP936 P0000 T10501056 FZRANO RVRNO'
20180104,1600,PNE,PHILADELPHIA_NE_(ASOS),40.08,-75.02,24,23,33,38,38,19,'KPNE 041554Z 33020G29KT 1/2SM HZ VV013 M04/M07 A2946 RMK AO2 PK WND 33033/1519 SLP979 T10441072 RVRNO $'
20180104,1600,ILG,WILMINGTON_AIRPORT_(ASOS),39.68,-75.60,22,22,32,37,37,18,'KILG 041551Z 32019G28KT 1SM R01/5000VP6000FT -SN BR VV020 M06/M08 A2951 RMK AO2 PK WND 33032/1514 SLP992 P0004 T10561078'
20180104,1600,TTN,TRENTON/MERCER_CO._(ASOS),40.28,-74.82,23,20,35,38,38,20,'KTTN 041553Z 33017G30KT 1/4SM FZFG VV006 M05/M07 A2942 RMK AO2 PK WND 35033/1500 SNE53 SLP960 P0000 T10501067 $'
20180104,1600,WRI,MCGUIRE_AFB,40.02,-74.60,23,28,38,38,38,21,'KWRI 041556Z 32025G31KT 1/4SM BLSN VV005 M05/M06 A2935 RMK AO2A PK WND 33033/36CIG 003 RWY18 CIG 004 RWY24 SLP940 P0000 T10491062 $'
20180104,1600,MMU,MORRISTOWN_MUNI,40.80,-74.42,23,18,32,,32,21,'KMMU 041545Z 36016G28KT 1/4SM +SN BLSN VV008 M05/M06 A2944'
20180104,1600,LYH,LYNCHBURG/P._GLENN_(ASOS),37.33,-79.20,25,12,26,,26,0,'KLYH 041554Z 34010G23KT 270V020 10SM CLR M04/M18 A2977 RMK AO2 SLP092 T10391178'
20180104,1600,SHD,STAUNTON/SHENANDOAH,38.27,-78.90,23,15,22,,22,2,'KSHD 041555Z AUTO 33013G19KT 10SM OVC049 M05/M17 A2978 RMK AO2 T10511166'
20180104,1600,ROA,ROANOKE_MUNICIPAL_(ASOS),37.32,-79.97,21,21,36,45,45,2,'KROA 041554Z 32018G31KT 10SM SCT049 M06/M17 A2983 RMK AO2 PK WND 32039/1515 SLP117 T10611167'
20180104,1600,BCB,VIRGINIA_TECH_ARPT,37.22,-80.42,17,22,35,,35,2,'KBCB 041555Z AUTO 31019G30KT 10SM OVC036 M08/M16 A2981 RMK AO2 T10811165'
20180104,1600,HSP,HOT_SPRINGS/INGALLS,37.95,-79.83,10,23,38,,38,-2,'KHSP 041555Z AUTO 30020G33KT 10SM OVC020 M12/M19 A2957 RMK AO2 T11251188'
20180104,1600,PSK,DUBLIN/NEW_RIV_VLLY,37.13,-80.68,19,16,28,,28,3,'KPSK 041555Z AUTO 29014G24KT 10SM OVC038 M07/M16 A2983 RMK AO2 T10721163'
20180104,1600,LNP,WISE/LONESOME_PINE,36.98,-82.53,12,8,16,,16,9,'KLNP 041555Z AUTO 33007G14KT 5SM BKN015 BKN024 OVC041 M11/M13 A2995 RMK AO2 PWINO'
20180104,1600,BKW,BECKLEY_MEMORIAL_(ASOS),37.78,-81.12,10,18,28,,28,5,'KBKW 041551Z AUTO 31016G24KT 3/4SM -SN BKN013 OVC021 M12/M15 A2985 RMK AO2 SLP164 P0000 T11221150 TSNO'
20180104,1600,BLF,BLUEFIELD/MERCER_CO,37.30,-81.20,9,14,26,,26,2,'KBLF 041552Z AUTO 32012G23KT 2SM -SN BKN017 BKN023 OVC029 M13/M17 A2983 RMK AO2 SLP145 P0000 T11281167'
20180104,1600,LWB,LEWISBURG/GREENBRIE,37.87,-80.40,14,17,25,,25,5,'KLWB 041555Z AUTO 34015G22KT 310V010 3SM -SN SCT018 BKN024 OVC029 M10/M15 A2982 RMK AO2 T11011152'
20180104,1600,CRW,CHARLESTON/KANAWHA_(ASOS),38.37,-81.60,16,12,,,,8,'KCRW 041554Z 30010KT 3SM -SN OVC017 M09/M13 A3004 RMK AO2 SLP186 P0000 T10891133'
20180104,1600,EKN,ELKINS/RANDOLPH_FLD_(ASOS),38.88,-79.85,12,14,23,,23,5,'KEKN 041551Z AUTO 32012G20KT 1SM -SN BKN016 OVC023 M11/M15 A2983 RMK AO2 SLP145 P0039 T11111150 TSNO'
20180104,1600,CKB,CLARKSBURG/BENEDUM_(ASOS),39.30,-80.23,17,15,,,,7,'KCKB 041553Z 31013KT 3SM -SN BKN020 OVC026 M08/M14 A2992 RMK AO2 SLP144 P0000 T10831139'
20180104,1600,MGW,MORGANTOWN/HART_FLD_(ASOS),39.65,-79.92,17,7,,,,8,'KMGW 041553Z 31006KT 7SM HZ BKN022 OVC031 M08/M13 A2990 RMK AO2 SNE23 SLP145 P0000 T10831133'
20180104,1600,MRB,MARTINSBURG_RGNL,39.40,-77.98,22,18,26,,26,9,'KMRB 041553Z 31016G23KT 10SM SCT036 BKN085 OVC100 M06/M13 A2975 RMK AO2 SLP083 T10561128'
20180104,1600,CVG,CINCINNATI/COVINGTO_(ASOS),39.05,-84.67,12,8,,,,6,'KCVG 041552Z 29007KT 8SM OVC044 M11/M14 A3018 RMK AO2 SLP232 T11111144'
20180104,1600,LEX,LEXINGTON/BLUEGRASS_(ASOS),38.03,-84.60,14,10,,,,6,'KLEX 041554Z 32009KT 10SM OVC048 M10/M14 A3019 RMK AO2 SLP237 T11001144'
20180104,1600,SDF,LOUISVILLE/STANDIFO_(ASOS),38.18,-85.73,14,8,,,,2,'KSDF 041556Z 29007KT 10SM FEW040 FEW250 M10/M17 A3027 RMK AO2 SLP259 T11001167'
20180104,1600,LOU,LOUISVILLE/BOWMAN_(ASOS),38.23,-85.67,14,6,,,,4,'KLOU 041553Z VRB05KT 10SM SCT036 M10/M16 A3027 RMK AO2 SLP259 T11001156'
20180104,1600,JKL,JACKSON/J._CARROLL_(ASOS),37.60,-83.32,14,8,,,,6,'KJKL 041553Z AUTO 31007KT 3SM -SN SCT018 BKN031 OVC049 M10/M14 A3011 RMK AO2 SLP213 P0000 T11001144'
20180104,1600,OWB,OWENSBORO/DAVIESS,37.73,-87.17,11,9,,,,3,'KOWB 041556Z 31008KT 10SM CLR M12/M16 A3036 RMK AO2 SLP295 T11171161'
20180104,1600,FTK,FORT_KNOX/GODMAN__&,37.90,-85.97,11,8,,,,2,'KFTK 041556Z AUTO 28007KT 10SM CLR M11/M16 A3025 RMK AO2 SNB1456E54 SLP260 P0000 T11141165'
20180104,1600,LOZ,LONDON-CORBIN_ARPT_(ASOS),37.09,-84.07,15,9,,,,7,'KLOZ 041553Z AUTO 30008KT 9SM OVC025 M09/M14 A3015 RMK AO2 SNE1458 SLP226 P0000 T10941139'
20180104,1600,HTS,HUNTINGTON/TRI_STAT_(ASOS),38.37,-82.55,16,9,,,,8,'KHTS 041551Z 30008KT 2 1/2SM -SN FEW022 SCT027 OVC050 M09/M13 A3011 RMK AO2 SNE15B26 SLP207 P0000 T10891133'
20180104,1600,PKB,PARKERSBURG/WILSON&,39.35,-81.43,17,13,,,,9,'KPKB 041553Z 29011KT 3SM -SN BKN020 BKN038 BKN050 M08/M13 A3005 RMK AO2 SNB34 SLP187 P0000 T10831128'
20180104,1600,HLG,WHEELING/OHIO_CO._(ASOS),40.18,-80.65,14,22,29,35,35,0,'KHLG 041553Z 30019G25KT 10SM BKN028 M10/M18 A2994 RMK AO2 PK WND 30030/1457 SNE02 SLP162 P0000 T11001178'
20180104,1600,CMH,PORT_COLUMBUS_INTL_(ASOS),40.00,-82.88,13,12,,,,4,'KCMH 041551Z 33010KT 10SM FEW021 SCT034 M11/M16 A3009 RMK AO2 SNE38 SLP204 P0000 T11061156'
20180104,1600,LCK,RICKENBACKER_ANGB,39.82,-82.93,13,13,18,,18,4,'KLCK 041555Z AUTO 34011G16KT 10SM SCT032 BKN043 M11/M15 A3010 RMK AO2 T11071153'
20180104,1600,ZZV,ZANESVILLE_MUNI_(ASOS),39.95,-81.90,15,17,,,,5,'KZZV 041553Z AUTO 33015KT 3SM -SN FEW027 OVC034 M09/M15 A3004 RMK AO2 SLP187 P0000 T10941150'
20180104,1600,OSU,OHIO_ST_U/COLUMBUS_(ASOS),40.08,-83.07,12,14,,,,4,'KOSU 041553Z 33012KT 10SM BKN040 M11/M16 A3009 RMK AO2 SLP208 T11111156'
20180104,1600,DAY,DAYTON/JAMES_M_COX_(ASOS),39.90,-84.20,13,16,,,,4,'KDAY 041556Z 33014KT 10SM FEW025 BKN041 M11/M16 A3015 RMK AO2 SLP227 T11061156'
20180104,1600,LUK,CINCINNATI/LUNKIN_(ASOS),39.10,-84.42,15,6,,,,6,'KLUK 041553Z 30005KT 10SM BR OVC050 M09/M14 A3023 RMK AO2 SLP244 T10941144'
20180104,1600,EVV,EVANSVILLE_REGIONAL_(ASOS),38.05,-87.53,7,9,,,,1,'KEVV 041554Z 31008KT 10SM CLR M14/M17 A3034 RMK AO2 SLP283 T11391172 $'
20180104,1600,MVN,MOUNT_VERNON_(AWOS),38.32,-88.87,13,7,,,,2,'KMVN 041556Z AUTO VRB06KT 10SM CLR M11/M17 A3040 RMK AO2 SLP303 T11061167 FZRANO'
20180104,1600,MDH,CARBONDALE/MURPHYSB_(ASOS),37.78,-89.25,10,7,,,,1,'KMDH 041552Z 33006KT 10SM CLR M12/M17 A3041 RMK AO2 SLP303 T11221172'
20180104,1600,BLV,SCOTT_AFB/BELLEVILL,38.55,-89.85,9,8,,,,-2,'KBLV 041556Z AUTO 31007KT 10SM CLR M13/M19 A3041 RMK AO2 SLP311 T11261190 $'
20180104,1600,MWA,MARION_REGIONAL,37.75,-89.02,10,12,,,,0,'KMWA 041547Z 28010KT 10SM SKC M12/M18 A3040'
20180104,1600,STL,ST._LOUIS/LAMBERT_(ASOS),38.75,-90.37,8,8,,,,0,'KSTL 041551Z 33007KT 10SM CLR M13/M18 A3042 RMK AO2 SLP322 T11331178'
20180104,1600,SUS,SPIRIT_OF_ST_LOUIS_(ASOS),38.67,-90.65,8,7,,,,-1,'KSUS 041554Z 33006KT 10SM CLR M13/M18 A3043 RMK AO2 SLP323 T11331183'
20180104,1600,PAH,PADUCAH/BARKLEY___(ASOS),37.07,-88.77,13,6,,,,0,'KPAH 041553Z 34005KT 10SM CLR M11/M18 A3039 RMK AO2 SLP296 T11061178'
20180104,1600,BAK,COLUMBUS/BALKALAR_&,39.27,-85.90,9,6,,,,0,'KBAK 041545Z 31005KT 10SM BKN050 M13/M18 A3026'
20180104,1600,HNB,HUNTINGBURG,38.25,-86.95,11,7,,,,2,'KHNB 041556Z AUTO 32006KT 10SM CLR M12/M17 A3033 RMK AO2 SLP281 T11171167 FZRANO'
20180104,1600,HUF,TERRE_HAUTE/HULMAN_(ASOS),39.45,-87.32,3,8,,,,-6,'KHUF 041553Z 33007KT 10SM CLR M16/M21 A3032 RMK AO2 SLP282 T11611211'
20180104,1600,BMG,BLOOMINGTON/MONROE_(ASOS),39.15,-86.62,7,5,,,,-3,'KBMG 041553Z 33004KT 10SM CLR M14/M19 A3026 RMK AO2 SLP263 T11391194'
20180104,1600,IND,INDIANAPOLIS_INTL_(ASOS),39.73,-86.27,7,8,,,,0,'KIND 041554Z 30007KT 10SM FEW011 FEW040 M14/M18 A3024 RMK AO2 SLP255 T11391178'
20180104,1600,AID,ANDERSON_MUNICIPAL,40.12,-85.62,3,12,,,,0,'KAID 041554Z 31010KT 10SM SCT040 M16/M18 A3021'
20180104,1600,LAF,LAFAYETTE/PURDUE_U_(ASOS),40.42,-86.93,3,7,,,,-3,'KLAF 041554Z VRB06KT 10SM CLR M16/M19 A3028 RMK AO2 SLP266 T11611194'
20180104,1600,SPI,SPRINGFIELD/CAPITAL_(ASOS),39.85,-89.67,4,6,,,,-5,'KSPI 041552Z 33005KT 10SM CLR M16/M21 A3040 RMK AO2 SLP309 T11561206 $'
20180104,1600,ALN,ALTON/ST_LOUIS_RGNL,38.90,-90.05,7,6,,,,0,'KALN 041550Z 33005KT 10SM SKC M14/M18 A3042'
20180104,1600,UIN,QUINCY_MUNI/BALDWIN_(ASOS),39.95,-91.20,2,5,,,,-5,'KUIN 041554Z AUTO 32004KT 10SM FEW110 M17/M21 A3042 RMK AO2 SLP319 T11671206'
20180104,1600,BMI,BLOOMINGTON/NORMAL,40.48,-88.92,1,14,,,,-7,'KBMI 041556Z 34012KT 10SM CLR M17/M22 A3034 RMK AO2 SNB02E10 SLP307 P0000 T11721217'
20180104,1600,SGF,SPRINGFLD_MUNI_(ASOS),37.23,-93.38,16,0,,,,5,'KSGF 041552Z 00000KT 10SM CLR M09/M15 A3037 RMK AO2 SLP304 T10891150'
20180104,1600,COU,COLUMBIA_REGIONAL_(ASOS),38.82,-92.22,9,7,,,,-1,'KCOU 041554Z 34006KT 10SM CLR M13/M18 A3041 RMK AO2 SLP315 T11281183'
20180104,1600,FAM,FARMINGTON_AIRPORT,37.77,-90.43,11,6,,,,1,'KFAM 041556Z AUTO 31005KT 10SM CLR M12/M17 A3037 RMK AO2 SLP303 T11171172 FZRANO'
20180104,1600,IRK,KIRKSVILLE_REGIONAL_(ASOS),40.10,-92.55,4,7,,,,-3,'KIRK 041555Z AUTO 34006KT 10SM BKN110 M16/M19 A3042 RMK AO2 SLP327 T11561194'
20180104,1600,VIH,ROLLA/VICHY_AIRPORT_(ASOS),38.13,-91.77,8,5,,,,0,'KVIH 041553Z AUTO VRB04KT 10SM CLR M13/M18 A3037 RMK AO2 SLP307 T11331178'
20180104,1600,TBN,FORT_LEONARD_WOOD,37.73,-92.13,11,3,,,,0,'KTBN 041556Z AUTO 28003KT 10SM CLR M11/M18 A3036 RMK AO2 SLP305 T11151176'
20180104,1600,JEF,JEFFERSON_CITY_ARPT_(ASOS),38.59,-92.16,8,6,,,,-1,'KJEF 041553Z 27005KT 10SM CLR M13/M18 A3045 RMK AO2 SLP310 T11331183'
20180104,1600,SZL,WHITEMAN_AFB,38.73,-93.55,8,3,,,,-2,'KSZL 041556Z 31003KT 10SM SCT100 M13/M19 A3039 RMK AO2A SLP312 T11311191 $'
20180104,1600,EWR,NEWARK_INTL_AIRPORT_(ASOS),40.70,-74.17,23,28,41,41,41,21,'KEWR 041551Z 34027G36KT 1/4SM R04R/2000V2600FT SN BLSN VV006 M05/M06 A2940 RMK AO2 PK WND 34036/1548 SFC VIS 1/2 SLP954 SNINCR 1/4 P0008 T10501061 $'
20180104,1600,TEB,TETERBORO_AIRPORT_(ASOS),40.85,-74.07,23,15,30,32,32,20,'KTEB 041551Z 35013G26KT 1/8SM R06/2000V2800FT +SN FZFG VV007 M05/M07 A2942 RMK AO2 PK WND 36028/1452 SLP961 P0006 T10501067 $'
20180104,1600,OXC,OXFORD_(AWOS),41.48,-73.13,23,23,35,,35,21,'KOXC 041551Z 36020G30KT 1/8SM +SN FG VV001 M05/M06 A2933 RMK AO2 SLP954 P0001 T10501061'
20180104,1600,LGA,NEW_YORK/LA_GUARDIA_(ASOS),40.77,-73.90,24,26,37,51,51,21,'KLGA 041551Z 34023G32KT 1/4SM R04/1800V2800FT SN BLSN FZFG VV010 M04/M06 A2936 RMK AO2 PK WND 34044/1458 SFC VIS 1/2 SLP943 P0003 T10441061'
20180104,1600,ISP,ISLIP/MACARTHUR_(ASOS),40.80,-73.10,26,29,,,,26,'KISP 041556Z 36025KT 1/8SM R06/1000V1200FT +SN FZFG VV003 M03/M03 A2922 RMK AO2 SLP896 SNINCR 2/9 T10331033 PNO $'
20180104,1600,POU,POUGHKEEPSIE,41.63,-73.88,20,20,30,35,35,16,'KPOU 041553Z 35017G26KT 1/4SM FZFG VV010 M07/M09 A2950 RMK AO2 PK WND 01030/1519 SLP988 T10671089 $'
20180104,1600,HPN,WHITE_PLAINS,41.07,-73.70,20,29,38,44,44,18,'KHPN 041556Z 34028G37KT 1/4SM R16/1600V2200FT +SN FZFG VV003 M07/M08 A2936 RMK AO2 PK WND 34038/1528 SLP953 P0000 T10671078 $'
20180104,1600,SWF,NEWBURGH/STEWART,41.50,-74.10,19,9,21,,21,19,'KSWF 041545Z 36008G18KT 1/2SM R09/2000FT SN OVC003 M07/M07 A2949 RMK PRESFR'
20180104,1600,BDR,BRIDGEPORT/SIKORSKI_(ASOS),41.17,-73.13,25,18,33,33,33,23,'KBDR 041552Z 34016G29KT 1/4SM FZFG VV004 M04/M05 A2931 RMK AO2 PK WND 34029/1517 SLP926 T10391050 $'
20180104,1600,HVN,NEW_HAVEN/TWEED,41.27,-72.88,25,21,37,41,41,22,'KHVN 041553Z 35018G32KT 1/4SM R02/2000V2400FT FZFG VV006 M04/M06 A2928 RMK AO2 PK WND 01036/1511 SNB03SNEMM PRESFR SLP916 P0004 T10391056 $'
20180104,1600,GON,GROTON/NEW_LONDON,41.33,-72.05,28,28,47,47,47,25,'KGON 041556Z 36024G41KT 1/4SM R05/1400V1800FT SN FZFG VV007 M02/M04 A2914 RMK AO2 PK WND 36041/1551 PRESFR SLP866 P0000 T10221039 $'
20180104,1600,SFZ,PAWTUCKET_(AWOS),41.92,-71.50,23,26,37,41,41,22,'KSFZ 041556Z AUTO 01023G32KT M1/4SM +SN FZFG OVC003 M05/M06 A2922 RMK AO2 PK WND 01036/1539 LTG DSNT NE SLP848 P0000 T10501056 FZRANO'
20180104,1600,BID,BLOCK_ISLAND_(AWOS),41.17,-71.58,29,33,44,51,51,29,'KBID 041556Z AUTO 01029G38KT M1/4SM +SN FZFG OVC003 M02/M02 A2905 RMK AO2 PK WND 02044/1518 PRESFR SLP842 P0004 T10171017 FZRANO'
20180104,1600,ACK,NANTUCKET_MEMORIAL_(ASOS),41.25,-70.07,42,33,46,56,56,42,'KACK 041553Z 03029G40KT 1 1/4SM R24/5000VP6000FT +RA BR OVC007 06/06 A2898 RMK AO2 PK WND 04049/1502 PRESFR SLP814 P0037 T00560056'
20180104,1600,PYM,PLYMOUTH_MUNICIPAL_(ASOS),41.92,-70.73,36,32,53,53,53,34,'KPYM 041552Z AUTO 03028G46KT 1 1/4SM -SN BR BKN007 OVC011 02/01 A2917 RMK AO2 PK WND 02046/1550 RAE34SNB34 SLP880 P0032 T00220011'
20180104,1600,EWB,NEW_BEDFORD_MUNI_(ASOS),41.68,-70.97,34,21,38,41,41,-9999,'KEWB 041553Z 03018G33KT 3/4SM R05/2800V4500FT -SN OVC007 01/ A2913 RMK AO2 PK WND 02036/1532 RAE15SNB15 PRESFR SLP865 P0043 T0011 $'
20180104,1600,MVY,MARTHAS_VINEYARD_(ASOS),41.40,-70.62,37,29,40,49,49,37,'KMVY 041553Z 02025G35KT 1 1/4SM R24/4500VP6000FT -SN BR OVC009 03/03 A2904 RMK AO2 PK WND 02043/1512 RAE13SNB13 PRESFR SLPNO P0035 T00280028 $'
20180104,1600,HYA,HYANNIS/POLANDO_FLD_(ASOS),41.67,-70.28,37,24,39,48,48,37,'KHYA 041556Z 02020G34KT 3/4SM +RA BR BKN006 OVC013 03/03 A2905 RMK AO2 PK WND 04042/1538 PRESFR SLP840 P0027 T00330028'
20180104,1600,CQX,CHATHAM_MUNI_ARPT_(ASOS),41.68,-70.00,41,22,43,53,53,39,'KCQX 041552Z AUTO 03025G46KT 2SM RA BR BKN014 OVC021 05/04 A2907 RMK AO2 PK WND04046/1552 PRESFR SLP846 P0022 T00500044 TSNO'
20180104,1600,PVD,PROVIDENCE/GREEN_(ASOS),41.73,-71.43,27,28,39,45,45,26,'KPVD 041551Z COR 01024G34KT 1/4SM R05/0700V1200FT +SN FZFG VV003 M03/M03 A2921 RMK AO2 PK WND 02039/1509 PRESFR SLP891 SNINCR 2/5 P0006 T10281033 $'
20180104,1600,PVC,PROVINCETOWN_(AWOS),42.07,-70.22,39,32,46,46,46,37,'KPVC 041556Z AUTO 04028G40KT 2 1/2SM RA BR 04/03 A2919 RMK AO2 PK WND 03040/1548 RAB42 SLPNO T00390028'
20180104,1600,BDL,HARTFORD/BRADLEY_(ASOS),41.93,-72.68,21,23,33,37,37,19,'KBDL 041551Z 36020G29KT 1/4SM R06/2200V2600FT +SN BLSN FZFG VV006 M06/M07 A2938 RMK AO2 PK WND 36032/1540 PRESFR SLP950 SNINCR 2/7 P0007 T10611072'
20180104,1600,IJD,WILLIMANTIC_(ASOS),41.73,-72.18,26,15,25,30,30,23,'KIJD 041552Z AUTO 36013G22KT 1/4SM SN FZFG VV006 M03/M05 A2928 RMK AO2 PK WND 36026/1456 SLP920 P0003 T10331050'
20180104,1600,DXR,DANBURY_MUNICIPAL_(ASOS),41.37,-73.48,21,16,25,35,35,18,'KDXR 041553Z 34014G22KT 1/4SM FZFG VV003 M06/M08 A2940 RMK AO2 PK WND 35030/1536 SLP960 P0001 T10611078 $'
20180104,1600,HFD,HARTFORD/BRAINARD_(ASOS),41.73,-72.65,22,17,33,39,39,19,'KHFD 041553Z 36015G29KT 1/4SM SN FZFG VV009 M06/M07 A2936 RMK AO2 PK WND 36034/1530 SLP942 P0003 T10561072 $'
20180104,1600,BVY,BEVERLY_MUNICIPAL_(ASOS),42.58,-70.92,26,18,29,,29,24,'KBVY 041553Z 36016G25KT 1/4SM SN FZFG VV007 M03/M04 A2936 RMK AO2 PRESFR SLP941 P0000 T10331044'
20180104,1600,BOS,BOSTON/LOGAN_INTL_(ASOS),42.37,-71.03,26,29,41,41,41,25,'KBOS 041554Z 36025G36KT 1/4SM R04R/1600V2400FT +SN BLSN FZFG VV006 M03/M04 A2930 RMK AO2 PK WND 36036/1553 LTG DSNT W PRESFR SLP922 P0003 T10331039 $'
20180104,1600,ORH,WORCESTER_(ASOS),42.27,-71.88,23,24,41,41,41,19,'KORH 041554Z 01021G36KT 1/4SM R11/1400V2200FT FZFG VV006 M05/M07 A2928 RMK AO2 PK WND 01036/1548 LTG DSNT E PRESFR SLP931 T10501072'
20180104,1600,RDG,READING/SPAATZ_FLD_(ASOS),40.38,-75.97,22,25,33,36,36,17,'KRDG 041554Z 34022G29KT 2 1/2SM -SN BLSN OVC028 M06/M08 A2958 RMK AO2 PK WND 35031/1506 SLP026 P0000 T10561083'
20180104,1600,MDT,MIDDLETOWN/OLMSTED,40.20,-76.77,23,21,31,32,32,13,'KMDT 041556Z 33018G27KT 8SM OVC041 M05/M11 A2966 RMK AO2 PK WND 33028/1543 SNE37 SLP048 P0000 T10501106'
20180104,1600,LNS,LANCASTER_(ASOS),40.12,-76.30,23,21,29,33,33,14,'KLNS 041553Z 32018G25KT 5SM HZ BKN047 OVC055 M05/M10 A2960 RMK AO2 PK WND 33029/1535 UPB31E45SNE31B36E38B45E46 SLP028 P0000 T10501100'
20180104,1600,AFJ,WASHINGTON_(AWOS),40.13,-80.28,15,17,23,,23,5,'KAFJ 041556Z AUTO 32015G20KT 10SM OVC024 M09/M15 A2994 RMK AO2 SLP160 T10941150 FZRANO'
20180104,1600,CXY,HARRISBURG/CAPITAL_(ASOS),40.22,-76.85,24,13,25,33,33,11,'KCXY 041556Z 33011G22KT 8SM FEW033 OVC045 M04/M12 A2967 RMK AO2 PK WND 33029/1502 SLP053 T10441117'
20180104,1600,BTP,BUTLER_CO._(AWOS),40.78,-79.95,14,10,,,,5,'KBTP 041556Z AUTO 31009KT 270V340 10SM OVC027 M10/M15 A2989 RMK AO2 SNE01 SLP149 P0000 T11001150 FZRANO'
20180104,1600,DUJ,DU_BOIS_(ASOS),41.18,-78.90,14,14,24,,24,5,'KDUJ 041553Z AUTO 33012G21KT 5SM -SN BKN024 OVC032 M10/M15 A2976 RMK AO2 SNB52 SLP109 P0000 T11001150'
20180104,1600,AOO,ALTOONA/BLAIR_CO_(ASOS),40.30,-78.32,18,16,24,30,30,9,'KAOO 041553Z AUTO 34014G21KT 4SM -SN OVC023 M08/M13 A2974 RMK AO2 PK WND 33026/1540 SLP096 P0000 T10781128'
20180104,1600,JST,JOHNSTOWN/CAMBRIA_(ASOS),40.32,-78.83,12,21,32,33,33,8,'KJST 041554Z AUTO 31018G28KT 3/4SM -SN BR OVC013 M11/M13 A2971 RMK AO2 PK WND 31029/1524 SLP099 P0000 T11111133'
20180104,1600,UNV,STATE_COLLEGE,40.85,-77.85,18,12,24,,24,9,'KUNV 041553Z 30010G21KT 10SM SCT021 BKN030 BKN110 M08/M13 A2974'
20180104,1600,AVP,WILKES-BARRE/SCRANT_(ASOS),41.33,-75.73,19,9,,,,14,'KAVP 041554Z 02008KT 1/2SM R04/3500V4000FT SN VV015 M07/M10 A2962 RMK AO2 SLP040 P0001 T10721100'
20180104,1600,IPT,WILLIAMSPORT_(ASOS),41.25,-76.92,22,13,,,,12,'KIPT 041554Z 30011KT 8SM OVC034 M06/M11 A2972 RMK AO2 SNB06E47 SLP074 P0000 T10561111'
20180104,1600,MSV,MONTICELLO(AWOS),41.70,-74.80,16,15,26,,26,12,'KMSV 041556Z AUTO 33012G23KT 3/4SM -SN BR OVC014 M09/M11 A2951 RMK AO2 SLP017 P0000 T10891111 FZRANO RVRNO'
20180104,1600,BGM,BINGHAMTON/BROOME_(ASOS),42.22,-75.98,16,14,20,,20,10,'KBGM 041553Z 34011KT 1/2SM SN VV017 M09/M12 A2962 RMK AO2 TWR VIS 2 SLP058 P0001 T10941122'
20180104,1600,ITH,ITHACA/TOMPKINS_CO.,42.48,-76.45,18,10,,,,14,'KITH 041556Z 32009KT 1 1/2SM R32/5000VP6000FT -SN BR BKN012 BKN025 OVC032 M08/M10 A2971 RMK AO2 SLP079 P0000 T10781100'
20180104,1600,ELM,ELMIRA/CORNING_RGNL_(ASOS),42.17,-76.90,20,3,,,,15,'KELM 041553Z 32003KT 1 1/2SM -SN BKN022 OVC032 M07/M09 A2973 RMK AO2 SLP083 P0000 T10671094'
20180104,1600,RUT,RUTLAND_STATE(AWOS),43.53,-72.95,14,5,,,,10,'KRUT 041556Z AUTO 34005KT 1/2SM SN FZFG OVC012 M10/M12 A2965 RMK AO2 PRESFR SLP061 P0000 T11001117 FZRANO $'
20180104,1600,ABE,ALLENTOWN-BETHLEHEM_(ASOS),40.65,-75.43,22,15,,,,15,'KABE 041551Z 34013KT 1 3/4SM -SN FEW022 BKN030 OVC034 M06/M09 A2954 RMK AO2 SLP009 P0001 T10561094 $'
20180104,1600,ALB,ALBANY_COUNTY_ARPT_(ASOS),42.75,-73.80,17,14,21,,21,12,'KALB 041551Z 32012G18KT 3/4SM R01/3500V4000FT -SN VV013 M08/M11 A2967 RMK AO2 PRESFR SLP053 P0003 T10831111'
20180104,1600,GFL,GLEN_FALLS/WARREN_(ASOS),43.33,-73.62,14,5,,,,8,'KGFL 041553Z AUTO 02004KT 1/2SM SN VV019 M09/M12 A2970 RMK AO2 SNB34 SLP070 P0000 T10941122'
20180104,1600,OGS,OGDENSBURG_INTL,44.68,-75.47,21,3,,,,13,'KOGS 041555Z AUTO 35003KT 10SM SCT009 SCT017 M06/M11 A2980 RMK AO2 T10631106'
20180104,1600,SYR,SYRACUSE/HANCOCK_(ASOS),43.12,-76.12,18,6,,,,16,'KSYR 041554Z 30005KT 3SM R28/5500VP6000FT -SN BR OVC027 M08/M09 A2976 RMK AO2 SLP081 P0000 T10781089'
20180104,1600,PIT,PITTSBURGH_INTL_(ASOS),40.50,-80.22,13,23,31,33,33,4,'KPIT 041551Z 32020G27KT 7SM -SN OVC028 M11/M16 A2990 RMK AO2 PK WND 33029/1521 SNB46 SLP154 BINOVC P0000 T11061156'
20180104,1600,BVI,BEAVER_FALLS_ARPT,40.77,-80.40,14,12,21,,21,3,'KBVI 041547Z 31010G18KT 10SM SCT027 OVC033 M10/M16 A2990'
20180104,1600,AGC,PITTSBURGH/ALLEGHENY_(ASOS),40.35,-79.93,13,18,32,32,32,2,'KAGC 041553Z 33016G28KT 10SM OVC024 M11/M17 A2988 RMK AO2 PK WND 32028/1549 SLP145 T11061167'
20180104,1600,CAK,AKRON-CANTON_RGNL_(ASOS),40.92,-81.43,12,17,26,,26,3,'KCAK 041551Z 31015G23KT 2SM R23/5000VP6000FT -SN BLSN BKN025 BKN040 M11/M16 A2997 RMK AO2 SFC VIS 3 SLP173 P0000 T11111161'
20180104,1600,CLE,CLEVELAND/HOPKINS_(ASOS),41.42,-81.87,12,15,24,,24,4,'KCLE 041551Z 33013G21KT 6SM -SN BLSN BKN030 OVC034 M11/M16 A3007 RMK AO2 SNB15 SLP196 P0000 T11111156 $'
20180104,1600,BKL,CLEVELAND/BURKELAKE_(ASOS),41.52,-81.68,13,23,,35,35,5,'KBKL 041553Z 31020KT 10SM BKN024 BKN029 OVC040 M11/M15 A3004 RMK AO2 PK WND 32030/1529 SNB03E45 SLP182 P0000 T11061150'
20180104,1600,MFD,MANSFIELD/LAHM_MUNI_(ASOS),40.82,-82.52,9,15,24,,24,1,'KMFD 041552Z 31013G21KT 10SM BKN023 M13/M17 A3002 RMK AO2 SLP191 T11281172'
20180104,1600,CGF,CLEVELAND/CUYAHOGA,41.57,-81.48,12,17,,,,5,'KCGF 041545Z 30015KT SM OVC022 M11/M15 A3002'
20180104,1600,YNG,YOUNGSTOWN_MUNI_(ASOS),41.27,-80.67,13,16,25,,25,5,'KYNG 041551Z 31014G22KT 7SM -SN BKN016 OVC039 M11/M15 A2992 RMK AO2 SLP154 BINOVC P0000 T11061150'
20180104,1600,ERI,ERIE_INTL_AIRPORT_(ASOS),42.08,-80.18,16,16,24,,24,6,'KERI 041551Z 32014G21KT 10SM SCT021 BKN025 OVC033 M09/M14 A2993 RMK AO2 SLP150 T10891144'
20180104,1600,BFD,BRADFORD_REGIONAL_(ASOS),41.80,-78.63,13,12,,,,8,'KBFD 041553Z AUTO 32014KT 1 1/4SM -SN BKN014 OVC021 M11/M14 A2973 RMK AO2 SLP103 P0000 T11061139'
20180104,1600,FKL,FRANKLIN(AWOS),41.38,-79.87,16,9,18,,18,9,'KFKL 041556Z AUTO 31006G14KT 1 1/4SM -SN BKN011 OVC015 M10/M13 A2984 RMK AO2 CIG 007V012 SLP132 P0000 T11001128 FZRANO'
20180104,1600,BUF,BUFFALO_INTL_ARPT_(ASOS),42.93,-78.73,16,13,,,,9,'KBUF 041554Z 32011KT 1 3/4SM R23/6000VP6000FT -SN BKN023 BKN230 M09/M13 A2987 RMK AO2 SNB20 SLP128 VIS SE-SW 5 P0000 T10891128'
20180104,1600,IAG,NIAGARA_FALLS_INTL,43.10,-78.95,17,14,22,,22,9,'KIAG 041553Z 33012G19KT 3SM -SN BKN019 OVC026 M08/M13 A2988 RMK AO2 SLP139 P0000 T10831128'
20180104,1600,ROC,ROCHESTER/MONROE_CO_(ASOS),43.12,-77.67,21,17,22,,22,12,'KROC 041554Z 32015G19KT 4SM -SN FEW017 OVC024 M06/M11 A2983 RMK AO2 SLP115 VIS N-E 1 P0000 T10611111'
20180104,1600,ORD,CHICAGO/O'HARE_ARPT_(ASOS),41.98,-87.90,5,16,,,,-7,'KORD 041551Z 35014KT 10SM FEW025 M15/M22 A3030 RMK AO2 SLP278 T11501217'
20180104,1600,DPA,W._CHICAGO/DU_PAGE_(ASOS),41.92,-88.25,3,14,,,,-6,'KDPA 041552Z 35012KT 10SM CLR M16/M21 A3031 RMK AO2 SLP283 T11611211'
20180104,1600,CPS,CAHOKIA/ST._LOUIS_(ASOS),38.56,-90.15,9,8,,,,-2,'KCPS 041553Z 30007KT 10SM CLR M13/M19 A3044 RMK AO2 SLP315 T11281189'
20180104,1600,CMI,CHAMPAIGN/URBANA_(ASOS),40.03,-88.28,-1,9,,,,-8,'KCMI 041553Z 32008KT 10SM CLR M18/M22 A3033 RMK AO2 SLP291 T11831222'
20180104,1600,DEC,DECATUR_AIRPORT,39.83,-88.87,2,10,,,,-6,'KDEC 041554Z 33009KT 8SM CLR M17/M21 A3037 RMK AO2 SLP300 T11671211'
20180104,1600,PIA,PEORIA_REGIONAL_(ASOS),40.67,-89.68,1,8,,,,-8,'KPIA 041554Z 01007KT 10SM CLR M17/M22 A3040 RMK AO2 SLP311 T11721222 $'
20180104,1600,SQI,STERLING_ROCKFALLS,41.75,-89.67,5,9,,,,-7,'KSQI 041556Z AUTO 33008KT 10SM CLR M15/M22 A3038 RMK AO2 SLP314 T11501217 FZRANO TSNO'
20180104,1600,FWA,FORT_WAYNE/BAER_FLD_(ASOS),41.00,-85.20,14,10,,,,4,'KFWA 041554Z 32009KT 10SM BKN046 M10/M16 A3018 RMK AO2 SLP234 BKN V OVC T11001156'
20180104,1600,GUS,GRISSOM_AFB/PERU,40.65,-86.15,2,6,,,,-2,'KGUS 041556Z 28005KT 10SM CLR M17/M19 A3021 RMK AO2A SLP252 T11691190 $'
20180104,1600,MIE,MUNCIE/JOHNSON_FLD_(ASOS),40.25,-85.40,9,7,,,,2,'KMIE 041553Z 30006KT 9SM OVC041 M13/M17 A3019 RMK AO2 SLP239 T11281167'
20180104,1600,GYY,GARY_REGIONAL,41.62,-87.42,9,12,,,,1,'KGYY 041545Z 29010KT 7SM -SN SCT023 M13/M17 A3029 RMK SNB02'
20180104,1600,MDW,CHICAGO/MIDWAY_(ASOS),41.78,-87.76,7,13,,,,-3,'KMDW 041553Z 32011KT 10SM FEW025 M14/M19 A3030 RMK AO2 SLP286 T11391194'
20180104,1600,UGN,CHICAGO/WAUKEGAN_(ASOS),42.42,-87.87,5,9,17,,17,-6,'KUGN 041555Z 34008G15KT 10SM CLR M15/M21 A3029 RMK AO2 SLP288 T11501211'
20180104,1600,SBN,SOUTH_BEND/ST._JOE_(ASOS),41.70,-86.32,13,0,,,,10,'KSBN 041554Z 00000KT 2 1/2SM -SN BR FEW017 OVC036 M11/M12 A3020 RMK AO2 SNB11 SLP241 P0000 T11061122'
20180104,1600,TOL,TOLEDO_EXPRESS_(ASOS),41.60,-83.80,9,12,,,,2,'KTOL 041552Z 31010KT 10SM OVC034 M13/M17 A3013 RMK AO2 SLP216 T11281167 $'
20180104,1600,FDY,FINDLAY_(ASOS),41.02,-83.67,10,13,,,,-1,'KFDY 041553Z AUTO 31011KT 10SM CLR M12/M18 A3012 RMK AO2 SLP212 T11221183'
20180104,1600,DTW,DETROIT_METRO_(ASOS),42.23,-83.33,11,13,,,,1,'KDTW 041553Z 34011KT 10SM OVC030 M12/M17 A3010 RMK AO2 SLP205 T11171172'
20180104,1600,ARB,ANN_ARBOR_MUNICIPAL_(ASOS),42.22,-83.75,11,18,25,30,30,-1,'KARB 041553Z 30016G22KT 9SM BKN030 M12/M18 A3010 RMK AO2 PK WND 32026/1541 SNB1458E09 SLP209 P0000 T11171183'
20180104,1600,DET,DETROIT_CITY_ARPT_(ASOS),42.42,-83.02,9,17,23,,23,-2,'KDET 041553Z 33015G20KT 10SM OVC028 M13/M19 A3010 RMK AO2 SLP206 T11281189'
20180104,1600,YIP,DETROIT/WILLOW_RUN_(ASOS),42.23,-83.53,12,17,24,,24,1,'KYIP 041553Z 34015G21KT 10SM OVC033 M11/M17 A3010 RMK AO2 SLP204 T11111172'
20180104,1600,MTC,SELFRIDGE_ANGB,42.62,-82.83,7,20,26,32,32,-3,'KMTC 041556Z 33017G23KT 9SM DRSN SCT027 M14/M19 A3008 RMK AO2A PK WND 32028/19 SLP204 T11381194'
20180104,1600,P59,COPPER_HARBOR_RAMOS_(ASOS),47.45,-87.90,4,14,,,,-5,'KP59 041551Z AUTO 01012KT M16/M21 A3032 RMK AO1 SLP295 T11561206'
20180104,1600,LAN,LANSING/CAPITAL_(ASOS),42.77,-84.60,9,12,,,,2,'KLAN 041553Z 34010KT 10SM BKN026 M13/M17 A3015 RMK AO2 SLP226 T11281167'
20180104,1600,JXN,JACKSON/REYNOLDS_(ASOS),42.27,-84.47,11,10,21,,21,2,'KJXN 041556Z 31009G18KT BKN020 BKN026 M12/M17 A3011 RMK AO2 SLP216 T11171167 $'
20180104,1600,BTL,BATTLE_CREEK_(ASOS),42.30,-85.25,13,13,22,,22,2,'KBTL 041553Z 35011G19KT 10SM FEW044 M11/M17 A3013 RMK AO2 SLP223 T11061167 $'
20180104,1600,RFD,ROCKFORD_(ASOS),42.20,-89.10,1,8,,,,-8,'KRFD 041554Z 35007KT 10SM CLR M17/M22 A3037 RMK AO2 SLP304 T11721222'
20180104,1600,MLI,MOLINE/QUAD_CITY_(ASOS),41.45,-90.52,3,7,,,,-7,'KMLI 041552Z 35006KT 10SM CLR M16/M22 A3040 RMK AO2 SLP309 T11611217'
20180104,1600,CID,CEDAR_RAPIDS_MUNI_(ASOS),41.88,-91.70,-2,9,,,,-8,'KCID 041552Z 33008KT 10SM BKN120 M19/M22 A3040 RMK AO2 SLP319 T11891222'
20180104,1600,AWG,WASHINGTON,41.28,-91.67,1,7,,,,-4,'KAWG 041555Z AUTO 31006KT 10SM CLR M17/M20 A3043 RMK AO2'
20180104,1600,BRL,BURLINGTON_MUNI_(ASOS),40.78,-91.13,1,6,,,,-6,'KBRL 041553Z AUTO 32005KT 7SM BKN120 M17/M21 A3040 RMK AO2 SLP314 T11721211'
20180104,1600,EOK,KEOKUK_MUNI,40.47,-91.43,1,5,,,,-6,'KEOK 041555Z AUTO 35004KT 10SM OVC110 M17/M21 A3041 RMK AO2'
20180104,1600,CCY,CHARLES_CITY,43.07,-92.62,1,6,,,,-9,'KCCY 041555Z AUTO 33005KT 10SM FEW060 BKN080 M17/M23 A3038 RMK AO2'
20180104,1600,TNU,NEWTON_MUNI,41.68,-93.02,1,5,,,,-6,'KTNU 041555Z AUTO 02004KT 10SM FEW047 BKN060 OVC110 M17/M21 A3040 RMK AO2 PWINO'
20180104,1600,OTM,OTTUMWA_INDUSTRIAL_(ASOS),41.10,-92.45,2,5,,,,-6,'KOTM 041553Z AUTO 32004KT 10SM FEW080 OVC110 M17/M21 A3041 RMK AO2 SLP320 T11671211 $'
20180104,1600,CNC,CHARITON,41.03,-93.37,1,0,,,,-6,'KCNC 041555Z AUTO 00000KT 10SM SCT100 M17/M21 A3040 RMK AO2'
20180104,1600,DBQ,DUBUQUE_MUNICIPAL_(ASOS),42.40,-90.70,0,10,,,,-8,'KDBQ 041553Z 02009KT 10SM CLR M18/M22 A3035 RMK AO2 SLP307 T11781222'
20180104,1600,CWI,CLINTON_MUNI_(AWOS),41.83,-90.33,-1,10,,,,-6,'KCWI 041556Z AUTO 35009KT 10SM CLR M18/M21 A3039 RMK AO2 SLP324 T11831211 FZRANO'
20180104,1600,MXO,MONTICELLO_MUNI,42.23,-91.17,-2,5,,,,-8,'KMXO 041555Z AUTO 32004KT 10SM CLR M19/M22 A3039 RMK AO2'
20180104,1600,DEH,DECORAH,43.28,-91.73,-2,5,,,,-8,'KDEH 041555Z AUTO 02004KT 10SM OVC100 M19/M22 A3035 RMK AO2'
20180104,1600,ALO,WATERLOO_MUNICIPAL_(ASOS),42.55,-92.40,1,3,,,,-7,'KALO 041554Z 33003KT 10SM OVC120 M17/M22 A3040 RMK AO2 SLP320 T11721217'
20180104,1600,MUT,MUSCATINE,41.37,-91.15,0,3,,,,-8,'KMUT 041555Z AUTO 31003KT 10SM OVC120 M18/M22 A3044 RMK AO2'
20180104,1600,OLZ,OELWEIN,42.68,-91.97,0,5,,,,-6,'KOLZ 041555Z AUTO 34004KT 10SM FEW110 M18/M21 A3037 RMK AO2'
20180104,1600,OXV,KNOXVILLE,41.30,-93.12,1,0,,,,-8,'KOXV 041555Z AUTO 00000KT 10SM FEW080 BKN110 M17/M22 A3041 RMK AO2'
20180104,1600,CON,CONCORD_MUNICIPAL_(ASOS),43.20,-71.50,20,14,,,,17,'KCON 041551Z AUTO 35012KT 1/4SM FZFG VV006 M07/M08 A2954 RMK AO2 SNEMM SLP011 P0008 T10671083 PWINO FZRANO $'
20180104,1600,PWM,PORTLAND_INTL_JET_(ASOS),43.65,-70.32,21,14,22,,22,19,'KPWM 041551Z 36014KT 1/2SM SN VV011 M06/M07 A2954 RMK AO2 PRESFR SLP003 P0006 T10611072'
20180104,1600,SFM,SANFORD_MUNI_(AWOS),43.40,-70.72,21,20,28,,28,18,'KSFM 041556Z AUTO 01017G24KT 1/2SM SN FZFG OVC008 M06/M08 A2951 RMK AO2 SLP002 P0000 T10611078 FZRANO RVRNO'
20180104,1600,WVL,WATERVILLE_(AWOS),44.53,-69.68,18,13,,,,16,'KWVL 041556Z AUTO 02011KT 1/2SM SN FZFG OVC010 M08/M09 A2959 RMK AO2 SLP053 P0000 T10781089 FZRANO'
20180104,1600,BHB,BAR_HARBOR_(AWOS),44.45,-68.37,33,20,26,31,31,28,'KBHB 041556Z AUTO 02017G23KT 8SM -RA FEW019 BKN047 OVC055 01/M02 A2955 RMK AO2 PK WND 03027/1536 UPE07RAB07 PRESFR SLP010 T00061022 FZRANO PNO $'
20180104,1600,RKD,ROCKLAND/KNOX(AWOS),44.07,-69.10,30,15,28,,28,28,'KRKD 041551Z AUTO 02014G24KT 2SM -SN BR SCT006 BKN022 OVC030 M01/M02 A2951 RMK AO2 PRESFR SLP996 P0000 T10111017 FZRANO'
20180104,1600,FVE,FRENCHVILLE_(ASOS),47.28,-68.32,14,3,,,,10,'KFVE 041553Z AUTO 03003KT 10SM BKN008 OVC022 M10/M12 A2984 RMK AO2 CIG 006V011 SLP124 T11001122'
20180104,1600,BGR,BANGOR_INTL_ARPT__(ASOS),44.80,-68.83,17,14,,,,14,'KBGR 041553Z 01012KT 3/4SM R15/3500VP6000FT -SN BR VV018 M08/M10 A2965 RMK AO2 PRESFR SLP047 P0000 T10831100'
20180104,1600,VSF,SPRINGFIELD/HARTNES_(ASOS),43.35,-72.52,17,5,,,,14,'KVSF 041554Z AUTO VRB04KT 1/4SM SN FZFG VV008 M08/M10 A2960 RMK AO2 PRESFR SLP037 P0005 T10831100'
20180104,1600,LEB,LEBANON_MUNICIPAL_(ASOS),43.63,-72.30,12,7,,,,9,'KLEB 041553Z 36006KT 1/2SM -SN FZFG VV005 M11/M13 A2965 RMK AO2 SLP058 P0000 T11061128'
20180104,1600,MWN,MOUNT_WASHINGTON,44.27,-71.30,10,51,58,,58,10,'KMWN 041550Z 08044G50KT 0SM SN FZFG BLSN VV000 M12/M12 RMK VRY LGT ICG'
20180104,1600,HIE,WHITEFIELD_(ASOS),44.35,-71.55,14,5,,,,11,'KHIE 041552Z AUTO 02004KT 3/4SM -SN BR VV015 M10/M12 A2966 RMK AO2 SLP069 P0004 T11001117'
20180104,1600,MPV,BARRE-MONTPELIER_(ASOS),44.20,-72.57,10,5,,,,7,'KMPV 041551Z AUTO 33005KT 2 1/2SM -SN BR OVC029 M12/M14 A2970 RMK AO2 SNB35 SLP085 P0000 T11171139'
20180104,1600,LCI,LACONIA_MUNI_(AWOS),43.57,-71.42,17,0,,,,14,'KLCI 041556Z AUTO 00000KT 1/4SM +SN FZFG OVC007 M08/M10 A2955 RMK AO2 SLP028 P0007 T10831100 FZRANO'
20180104,1600,EEN,KEENE/DILLANT(AWOS),42.90,-72.27,16,14,,,,14,'KEEN 041556Z AUTO 34012KT 1/4SM +SN FZFG OVC007 M09/M10 A2951 RMK AO2 PRESFR SLP014 P0000 T10891100 FZRANO'
20180104,1600,BTV,BURLINGTON_INTL_(ASOS),44.47,-73.15,18,12,,,,10,'KBTV 041554Z 33010KT 2SM R15/6000VP6000FT -SN OVC025 M08/M12 A2975 RMK AO2 SNB31 SLP079 P0000 T10781122'
20180104,1600,LEW,AUBURN-LEWISTON,44.05,-70.28,19,14,,,,17,'KLEW 041556Z AUTO 36012KT 1/2SM SN FZFG OVC009 M07/M08 A2960 RMK AO2 CIG 007V011 SLP041 P0000 T10721083 FZRANO'
20180104,1600,AUG,AUGUSTA_STATE_ARPT_(ASOS),44.32,-69.80,19,16,,,,16,'KAUG 041553Z AUTO 01014KT 1/4SM +SN FZFG VV008 M07/M09 A2962 RMK AO2 SLP036 P0001 T10721089'
20180104,1600,MLT,MILLINOCKET_MUNI_(ASOS),45.65,-68.68,16,5,,,,14,'KMLT 041553Z AUTO 04004KT 6SM BR OVC006 M09/M10 A2978 RMK AO2 SNB41E51 SLP101 P0000 T10891100 TSNO'
20180104,1600,MSS,MASSENA/RICHARDS_(ASOS),44.93,-74.85,18,10,,,,16,'KMSS 041553Z AUTO 04009KT 2 1/2SM -SN BR FEW011 BKN022 OVC038 M08/M09 A2983 RMKAO2 SNB27 SLP109 P0000 T10781094'
20180104,1600,ART,WATERTOWN_INTL_ARPT,44.00,-76.02,18,3,,,,14,'KART 041556Z AUTO 30003KT 6SM BR SCT060 OVC075 M08/M10 A2978 RMK AO2 SLP092 T10781100'
20180104,1600,SLK,SARANAC_LAKE/ADIRON_(ASOS),44.38,-74.20,14,,,,,9,'KSLK 041551Z AUTO 10SM BKN050 OVC055 M10/M13 A2965 RMK AO2 SLP074 T11001133 $'
20180104,1600,GRR,GRAND_RAPIDS_INTL_(ASOS),42.88,-85.52,12,16,,,,2,'KGRR 041553Z 36014KT 9SM -SN FEW026 SCT033 BKN044 M11/M17 A3017 RMK AO2 SLP233 P0000 T11111167'
20180104,1600,BEH,BENTON_HARBOR/ROSS_(ASOS),42.13,-86.43,14,3,,,,9,'KBEH 041553Z AUTO 17003KT 2SM -SN SCT018 BKN027 OVC036 M10/M13 A3020 RMK AO2 SLP237 P0001 T11001128'
20180104,1600,AZO,KALAMAZOO_INTL_ARPT_(ASOS),42.23,-85.55,14,13,,,,3,'KAZO 041553Z 35011KT 10SM BKN050 M10/M16 A3015 RMK AO2 SLP228 T11001161'
20180104,1600,MKG,MUSKEGON_(ASOS),43.17,-86.25,14,12,,,,4,'KMKG 041555Z 04010KT 9SM BKN022 BKN030 OVC050 M10/M16 A3021 RMK AO2 SNB24E52 SLP242 P0000 T11001156'
20180104,1600,FNT,FLINT/BISHOP_INTL_(ASOS),42.97,-83.75,6,14,,,,-3,'KFNT 041553Z 01012KT 10SM OVC029 M14/M19 A3013 RMK AO2 SLP221 T11441194'
20180104,1600,PTK,PONTIAC-OAKLAND_(ASOS),42.67,-83.42,6,21,26,,26,-2,'KPTK 041553Z 33018G23KT 4SM BLSN BKN028 M14/M19 A3007 RMK AO2 SNE46 SLP204 P0000 T11441189'
20180104,1600,MBS,SAGINAW/TRI_CITY_(ASOS),43.53,-84.08,6,14,,,,-3,'KMBS 041553Z 01011KT 10SM SCT030 M14/M19 A3016 RMK AO2 SLP228 T11441194'
20180104,1600,HTL,HOUGHTON_LAKE_ARPT_(ASOS),44.37,-84.68,1,17,25,,25,-9,'KHTL 041553Z AUTO 34015G22KT 10SM CLR M17/M23 A3014 RMK AO2 SLP234 T11721228'
20180104,1600,CAD,CADILLAC/WEXFORD_CO,44.28,-85.42,3,9,17,,17,-2,'KCAD 041555Z AUTO 02008G15KT 1 1/2SM -SN BKN005 BKN017 OVC028 M16/M18 A3011 RMK AO2 T11601190'
20180104,1600,MBL,MANISTEE_(AWOS),44.27,-86.25,14,13,,,,5,'KMBL 041556Z AUTO 02011KT 4SM -SN FEW009 SCT045 M10/M15 A3021 RMK AO2 SNE15B56 SLP252 T11001150 FZRANO PNO $'
20180104,1600,TVC,TRAVERSE_CITY/CHERR_(ASOS),44.73,-85.58,8,12,22,,22,-1,'KTVC 041553Z 36010G19KT 3SM -SN BKN030 OVC035 M13/M18 A3021 RMK AO2 SLP243 P0000 T11331183'
20180104,1600,APN,ALPENA_CO._REGIONAL_(ASOS),45.07,-83.57,1,13,,,,-3,'KAPN 041554Z AUTO 32011KT 3/4SM -SN BR BKN016 OVC025 M17/M19 A3016 RMK AO2 SLP230 P0001 T11721194'
20180104,1600,OSC,WURTSMITH_AFB,44.45,-83.40,1,15,26,,26,-10,'KOSC 041555Z AUTO 32013G23KT 5SM HZ CLR M17/M23 A3013 RMK AO2 T11751234'
20180104,1600,MKE,MILWAUKEE/MITCHELL_(ASOS),42.95,-87.90,7,12,24,,24,-5,'KMKE 041552Z 33010G21KT 10SM FEW023 M14/M21 A3030 RMK AO2 SLP280 T11391206'
20180104,1600,ARV,MINOCQUA/WOODRUFF,45.93,-89.73,3,9,,,,-4,'KARV 041555Z AUTO 02008KT 7SM OVC020 M16/M20 A3025 RMK AO2 T11621201'
20180104,1600,MWC,MILWAUKEE/TIMMERMAN,43.12,-88.03,5,10,18,,18,-8,'KMWC 041545Z 33009G16KT 10SM SKC M15/M22 A3032'
20180104,1600,MSN,MADISON/DANE_RGNL_(ASOS),43.13,-89.33,0,6,,,,-7,'KMSN 041553Z 32005KT 10SM CLR M18/M22 A3034 RMK AO2 SLP298 T11781217'
20180104,1600,JVL,JANESVILLE/ROCK_CO.,42.62,-89.03,1,7,,,,-4,'KJVL 041545Z 34006KT 10SM SKC M17/M20 A3033'
20180104,1600,LNR,LONE_ROCK_REGIONAL_(ASOS),43.22,-90.18,-2,6,,,,-7,'KLNR 041556Z AUTO 25005KT 10SM CLR M19/M22 A3039 RMK AO2 SLP305 T11891217'
20180104,1600,LSE,LA_CROSSE_MUNICIPAL,43.87,-91.25,-1,6,,,,-9,'KLSE 041553Z 32005KT 10SM CLR M18/M23 A3042 RMK AO2 SLP333 T11831228'
20180104,1600,EAU,EAU_CLAIRE_CO._ARPT_(ASOS),44.87,-91.48,-9,0,,,,-12,'KEAU 041556Z 00000KT 10SM CLR M23/M24 A3039 RMK AO2 SLP322 T12281244'
20180104,1600,VOK,VOLK/CAMP_DOUGLAS,43.93,-90.27,0,8,,,,-8,'MSSS 041550Z 36011KT CAVOK 24/13 Q1018 A3009'
20180104,1600,RST,ROCHESTER_MUNICIPAL_(ASOS),43.92,-92.50,-3,6,,,,-7,'KRST 041554Z 34005KT 10SM OVC100 M19/M22 A3035 RMK AO2 SLP317 T11941217'
20180104,1600,GRB,GREEN_BAY/STRAUBEL_(ASOS),44.48,-88.13,3,13,,,,-8,'KGRB 041553Z 33011KT 10SM CLR M16/M22 A3032 RMK AO2 SLP286 T11611222'
20180104,1600,MTW,MANITOWAC_MUNI_AWOS,44.13,-87.68,4,16,,,,-6,'KMTW 041556Z AUTO 33014KT 10SM CLR M16/M21 A3030 RMK AO2 SLP286 T11561211 FZRANO'
20180104,1600,OSH,OSHKOSH/WITTMAN_FLD_(ASOS),43.98,-88.55,-1,7,,,,-8,'KOSH 041553Z 29006KT 10SM CLR M18/M22 A3032 RMK AO2 SLP305 T11831222'
20180104,1600,ATW,APPLETON/OUTAGAMIE,44.25,-88.52,1,7,,,,-9,'KATW 041545Z 31006KT 10SM SKC M17/M23 A3029'
20180104,1600,SUE,STURGEON_BAY,44.85,-87.42,4,15,,,,-6,'KSUE 041556Z AUTO 33013KT 10SM CLR M16/M21 A3029 RMK AO2 SLP284 T11561211 FZRANO'
20180104,1600,AUW,WAUSAU_MUNICIPAL_(ASOS),44.93,-89.63,-2,6,,,,-7,'KAUW 041554Z AUTO 30005KT 10SM OVC021 M19/M22 A3028 RMK AO2 SLP295 T11891217'
20180104,1600,RYV,WATERTOWN,43.17,-88.72,-1,5,,,,-7,'KRYV 041555Z AUTO 31004KT 10SM CLR M18/M21 A3033 RMK AO2 T11821215'
20180104,1600,CWA,MOSINEE/CENTRAL_WI,44.78,-89.67,-4,3,,,,-8,'KCWA 041545Z 31003KT 10SM OVC020 M20/M22 A3030'
20180104,1600,PBH,PHILLIPS/PRICE_CO.,45.70,-90.40,-7,0,,,,-10,'KPBH 041555Z AUTO 00000KT 10SM OVC020 M21/M24 A3028 RMK AO2 T12141236'
20180104,1600,ESC,ESCANABA_(AWOS),45.75,-87.03,5,8,,,,-4,'KESC 041556Z AUTO 31007KT 290V350 9SM BKN030 OVC048 M15/M20 A3028 RMK AO2 SNB02E54 SLP279 P0000 T11501200 FZRANO'
20180104,1600,MNM,MENOMINEE_(AWOS),45.13,-87.63,6,15,21,,21,-6,'KMNM 041556Z AUTO 34013G18KT 10SM CLR M14/M21 A3031 RMK AO2 SLP286 T11441211 FZRANO $'
20180104,1600,FFL,FAIRFIELD,41.05,-91.98,0,6,,,,-9,'KFFL 041555Z AUTO 31005KT 10SM SCT110 M18/M23 A3041 RMK AO2 PWINO'
20180104,1600,ORB,ORR,48.02,-92.87,-22,0,,,,-29,'KORB 041553Z AUTO 00000KT 10SM CLR M30/M34 A3034 RMK AO2'
20180104,1600,COQ,CLOQUET_(AWOS),46.70,-92.50,-11,7,,,,-18,'KCOQ 041555Z AUTO 01006KT 10SM CLR M24/M28 A3035 RMK AO2'
20180104,1600,FBL,FARIBAULT_MUNI_AWOS,44.33,-93.32,1,0,,,,-8,'KFBL 041555Z AUTO 00000KT 10SM OVC085 M17/M22 A3039 RMK AO2'
20180104,1600,OWA,OWATONNA_(AWOS),44.12,-93.25,0,0,,,,-8,'KOWA 041554Z AUTO 00000KT 10SM SCT075 SCT085 M18/M22 A3038 RMK AO2'
20180104,1600,RGK,RED_WING,44.58,-92.48,-4,0,,,,-15,'KRGK 041555Z AUTO 00000KT 10SM SCT100 M20/M26 A3043 RMK AO2'
20180104,1600,MIC,MINNEAPOLIS/CRYSTAL_(ASOS),45.07,-93.35,-3,0,,,,-12,'KMIC 041553Z 00000KT 10SM OVC085 M19/M24 A3042 RMK AO2 SLP327 T11941244'
20180104,1600,FCM,MINNEAPOLIS/FLY_CLD_(ASOS),44.83,-93.45,0,3,,,,-9,'KFCM 041553Z VRB03KT 10SM FEW080 OVC100 M18/M23 A3040 RMK AO2 SLP321 T11781228'
20180104,1600,MSP,MINNEAPOLIS-ST_PAUL_(ASOS),44.88,-93.22,-2,3,,,,-8,'KMSP 041553Z 05003KT 10SM BKN090 M19/M22 A3043 RMK AO2 SLP328 T11891222'
20180104,1600,STP,SAINT_PAUL_DOWNTOWN_(ASOS),44.95,-93.07,-3,3,,,,-11,'KSTP 041553Z 36003KT 10SM OVC095 M19/M24 A3045 RMK AO2 SLP331 T11941239'
20180104,1600,ONA,WINONA_MUNI_(AWOS),44.08,-91.70,-4,0,,,,-9,'KONA 041555Z AUTO 00000KT 10SM M20/M23 A3042 RMK AO2'
20180104,1600,SGS,SOUTH_ST_PAUL_MUNI,44.85,-93.15,-2,0,,,,-10,'KSGS 041555Z AUTO 00000KT 10SM OVC090 M19/M23 A3043 RMK AO2 T11901235'
20180104,1600,HUL,HOULTON_INTL_ARPT_(ASOS),46.12,-67.80,10,8,,,,8,'KHUL 041553Z AUTO 02007KT 10SM FEW006 OVC090 M12/M13 A2979 RMK AO2 PRESFR SLP099 T11221133'
20180104,1600,CAR,CARIBOU_MUNICIPAL_(ASOS),46.87,-68.02,15,6,,,,9,'KCAR 041554Z AUTO 02005KT 10SM BKN010 OVC027 M09/M13 A2985 RMK AO2 SLP126 T10941128'
20180104,1600,PQI,PRESQUE_ISLE_(AWOS),46.68,-68.05,9,0,,,,4,'KPQI 041556Z AUTO 00000KT 10SM BKN011 OVC033 M13/M16 A2985 RMK AO2 PRESFR SLP157 T11281156 FZRANO'
20180104,1600,ANJ,SAULT_STE_MARIE___(ASOS),46.47,-84.37,-10,8,,,,-21,'KANJ 041555Z AUTO 35007KT 10SM CLR M23/M29 A3025 RMK AO2 SLP265 T12331294'
20180104,1600,CIU,CHIPPEWA_INTL(AWOS),46.25,-84.47,-11,9,,,,-21,'KCIU 041556Z AUTO 35008KT 10SM CLR M24/M29 A3024 RMK AO2 SLP273 T12391294 FZRANO PNO $'
20180104,1600,PLN,PELLSTON/EMMET_CO_(ASOS),45.57,-84.80,-4,10,,,,-16,'KPLN 041554Z AUTO 36009KT 10SM CLR M20/M27 A3025 RMK AO2 SLP265 T12001267'
20180104,1600,RHI,RHINELANDER/ONEIDA_(ASOS),45.63,-89.47,2,8,,,,-7,'KRHI 041553Z AUTO 36007KT 10SM OVC022 M17/M22 A3024 RMK AO2 SLP287 T11671217'
20180104,1600,IMT,IRON_MOUNTAIN/FORD_(ASOS),45.82,-88.12,2,12,,,,-7,'KIMT 041554Z AUTO 33010KT 9SM OVC025 M17/M22 A3025 RMK AO2 SLP279 T11671217'
20180104,1600,CMX,HOUGHTON_CO_MEM_(ASOS),47.17,-88.50,3,10,,,,-7,'KCMX 041553Z AUTO 35009KT 6SM -SN OVC025 M16/M22 A3029 RMK AO2 SLP288 P0000 T11611217'
20180104,1600,TWM,TWO_HARBORS,47.05,-91.75,0,0,,,,-11,'KTWM 041555Z AUTO 00000KT 10SM CLR M18/M24 A3035 RMK AO2'
20180104,1600,IWD,IRONWOOD_(AWOS),46.53,-90.13,3,6,,,,0,'KIWD 041556Z AUTO 35007KT 2SM -SN OVC020 M16/M18 A3031 RMK AO2 SLP299 T11561183FZRANO PNO $'
20180104,1600,DLH,DULUTH_INTL_AIRPORT_(ASOS),46.83,-92.18,-12,10,,,,-18,'KDLH 041555Z 36009KT 10SM CLR M24/M28 A3033 RMK AO2 SLP323 T12441278'
20180104,1600,HIB,HIBBING-CHISHOLM_(ASOS),47.38,-92.83,-18,0,,,,-20,'KHIB 041553Z AUTO 00000KT 10SM CLR M28/M29 A3036 RMK AO2 SLP336 T12781289'
20180104,1600,GPZ,GRAND_RAPIDS(AWOS),47.22,-93.52,-10,0,,,,-15,'KGPZ 041556Z AUTO 00000KT 3SM HZ CLR M23/M26 A3039 RMK AO2 SLP343 T12331261 FZRANO'
20180104,1600,ELO,ELY_MUNI_(AWOS),47.82,-91.83,-24,0,,,,-29,'KELO 041555Z AUTO 00000KT 10SM CLR M31/M34 A3035 RMK AO2'
20180104,1600,INL,INTERNATIONAL_FALLS_(ASOS),48.57,-93.38,-24,0,,,,-28,'KINL 041555Z AUTO 00000KT 10SM CLR M31/M33 A3041 RMK AO2 SLP351 T13111333'
20180104,1600,CBG,CAMBRIDGE_MUNI,45.57,-93.27,-8,5,,,,-15,'KCBG 041555Z AUTO 04004KT 10SM CLR M22/M26 A3043 RMK AO2'
20180104,1600,BFW,SILVER_BAY,47.20,-91.40,-8,5,,,,-18,'KBFW 041552Z AUTO 04004KT 10SM CLR M22/M28 A3035 RMK AO2'
20180104,1600,GTB,FORT_DRUM/WHEELER,44.05,-75.73,16,0,,,,12,'KGTB 041556Z AUTO 00000KT 10SM OVC041 M09/M11 A2974 RMK AO2 SNE12 SLP083 P0000 T10911113'
20180104,1600,MHT,MANCHESTER_AIRPARK_(ASOS),42.93,-71.43,20,18,,,,17,'KMHT 041557Z 35015KT 1/4SM R35/1800V2000FT +SN FZFG VV005 M07/M08 A2946 RMK AO2TWR VIS 1/2 P0000 T10671083 $'
20180104,1600,ASH,NASHUA/BOIRE_FIELD,42.78,-71.52,21,14,22,,22,19,'KASH 041556Z 34012G19KT 1/4SM +SN FZFG OVC004 M06/M07 A2944 RMK AO2 PRESFR SLP981 P0000 T10611072'
20180104,1600,ARR,AURORA_MUNICIPAL_(ASOS),41.77,-88.47,-1,10,,,,-8,'KARR 041552Z 33009KT 10SM CLR M18/M22 A3033 RMK AO2 SLP292 T11831222'
20180104,1600,PWK,CHICAGO/PALWAUKEE_(ASOS),42.12,-87.92,5,13,,,,-6,'KPWK 041552Z 33011KT 10SM CLR M15/M21 A3032 RMK AO2 SLP284 T11501211'
20180104,1600,JFK,NEW_YORK/JF_KENNEDY_(ASOS),40.65,-73.78,22,35,45,47,47,21,'KJFK 041551Z 34030G39KT 1/8SM R04R/0800V1400FT SN BLSN FZFG VV004 M06/M06 A2933 RMK AO2 PK WND 34041/1504 SLP933 SNINCR 1/5 P0001 T10561061 $'
20180104,1600,FRG,FARMINGDALE/REPUBLC_(ASOS),40.73,-73.42,24,26,39,40,40,22,'KFRG 041553Z AUTO 35023G34KT 1/4SM FZFG VV003 M04/M06 A2927 RMK AO2 PK WND 35035/1543 SLP913 T10441056 PWINO FZRANO $'
20180104,1600,FOK,WESTHAMPTON_BEACH_(ASOS),40.85,-72.63,26,31,45,47,47,24,'KFOK 041553Z 35027G39KT 1/4SM FZFG VV005 M03/M04 A2915 RMK AO2 PK WND 36041/1529 PRESFR SLP870 T10331044 PWINO FZRANO $'
20180104,1600,BED,HANSCOM_FLD/BEDFORD_(ASOS),42.47,-71.28,23,16,28,,28,21,'KBED 041556Z 35014G24KT 1/4SM R11/1600V2600FT SN FZFG VV008 M05/M06 A2934 RMK AO2 LTG DSNT S PRESFR SLP954 P0000 T10501061'
20180104,1600,LWM,LAWRENCE_MUNICIPAL_(ASOS),42.72,-71.12,27,22,31,32,32,21,'KLWM 041554Z 01021G28KT 1/4SM +SN FZFG BKN009 OVC013 M03/M06 A2941 RMK AO2 PK WND 02028/1553 LTG DSNT S PRESFR SLP963 P0000 T10331056'
20180104,1600,CEF,CHICOPEE/WESTOVER,42.20,-72.53,18,22,32,39,39,14,'KCEF 041556Z 36019G28KT 1/4SM R23/3500V4000FT +SN FZFG VV003 M08/M10 A2937 RMK AO2A PK WND 02034/54 SLP956 SNINCR 1/6 T10801102'
20180104,1600,BAF,WESTFIELD/BARNES_(ASOS),42.15,-72.72,19,22,32,36,36,19,'KBAF 041553Z 01017KT 1/4SM R20/1800V2400FT FZFG VV005 M07/M07 A2940 RMK AO2 PK WND 36031/1508 PRESFR SLP965 P0002 T10671072 $'
20180104,1600,SCH,SCHENECTADY_AIRPORT,42.85,-73.93,16,5,,,,12,'KSCH 041545Z 29004KT 1SM -SN OVC016 M09/M11 A2969'
20180104,1600,FFO,WRIGHT-PATERSON_AFB,39.83,-84.05,12,13,,,,3,'KFFO 041556Z 33011KT 10SM SCT031 BKN043 BKN200 M11/M17 A3015 RMK AO2A SLP229 T11061169'
20180104,1600,ADW,ANDREWS_AFB,38.82,-76.87,23,20,31,39,39,13,'KADW 041556Z AUTO 31017G27KT 10SM FEW012 FEW170 SCT200 M05/M10 A2963 RMK AO2 PK WND 32034/17 SLP044 P0000 T10491103 $'
20180104,1600,LFI,LANGLEY_AFB/HAMPTON,37.08,-76.37,24,20,26,39,39,19,'KLFI 041555Z 30017G23KT 3/4SM R08/4500VP6000FT -SN VV010 M05/M07 A2964 RMK PK WND 29034/49 VIS 1/4 RWY26 SLP044 P0000 T10471072 $'
20180104,1600,MTV,MARTINSVILLE,36.63,-80.02,25,20,28,,28,-1,'KMTV 041555Z AUTO 33017G24KT 10SM SCT055 M04/M18 A2986 RMK AO2 T10371183'
20180104,1600,HOP,FORT_CAMPBELL_(AAF),36.67,-87.50,12,6,,,,1,'KHOP 041556Z AUTO 35005KT 10SM CLR M11/M17 A3035 RMK AO2 SLP289 T11121171'
20180104,1600,BWG,BOWLING_GREEN_(ASOS),36.97,-86.42,15,6,,,,3,'KBWG 041553Z AUTO 36005KT 10SM CLR M09/M16 A3032 RMK AO2 SLP277 T10941161'
20180104,1600,FBG,FORT_BRAGG/SIMMONS,35.13,-78.93,31,13,23,,23,13,'KFBG 041556Z AUTO 30011G20KT 10SM CLR M01/M11 A2983 RMK AO2 SLP107 T10081107 $'
20180104,1600,ECG,ELIZABETH_CITY(CGS)_(ASOS),36.27,-76.18,25,22,37,40,40,24,'KECG 041554Z 30019G32KT 3/4SM BLSN FEW011 OVC016 M04/M04 A2968 RMK AO2 PK WND 30035/1458 SLP050 T10391044'
20180104,1600,AEX,ENGLAND_AFB/ALEXAND_(ASOS),31.33,-92.55,34,5,,,,18,'KAEX 041553Z VRB04KT 10SM CLR 01/M08 A3040 RMK AO2 SLP299 T00111078'
20180104,1600,GPT,GULFPORT-BILOXI_(ASOS),30.40,-89.07,37,12,,,,16,'KGPT 041553Z 35010KT 10SM CLR 03/M09 A3034 RMK AO2 SLP272 T00281089'
20180104,1600,BIX,KEESLER_AFB/BILOXI,30.42,-88.92,37,9,,,,15,'KBIX 041556Z AUTO 01008KT 10SM CLR 03/M09 A3033 RMK AO2 SLP274 T00281095'
20180104,1600,PAM,TYNDALL_AFB,30.07,-85.58,37,8,,,,15,'KPAM 041556Z AUTO 33007KT 10SM M 03/M10 A3024 RMK AO2 SLP244 T00271096 TSNO $'
20180104,1600,HRT,HURLBURT_FIELD_(AF),30.43,-86.68,37,15,,,,13,'KHRT 041556Z AUTO 35013KT 10SM CLR 03/M10 A3025 RMK AO2 SLP246 T00281105 $'
20180104,1600,SVN,HUNTER_(AAF),32.02,-81.15,31,14,,,,21,'KSVN 041556Z AUTO 28012KT 10SM CLR 00/M06 A2998 RMK AO2 SNB13E19 SLP156 P0000 T10051059 $'
20180104,1600,VAD,MOODY_AFB/VALDOSTA,30.97,-83.20,37,12,,,,13,'KVAD 041556Z AUTO 28010KT 10SM CLR 03/M11 A3011 RMK AO2 SLP201 T00251107 $'
20180104,1600,SSC,SHAW_AFB/SUMTER,33.97,-80.47,32,8,,,,13,'KSSC 041556Z AUTO 30007KT 10SM CLR 00/M11 A2990 RMK AO2 SLP129 T00021106 $'
20180104,1600,MYR,MYRTLE_BEACH(CIV),33.68,-78.93,33,10,,,,17,'KMYR 041556Z 31009KT 10SM CLR 01/M08 A2991 RMK AO2 SLP130 T00061083 FZRANO'
20180104,1600,CRE,NORTH_MYRTLE_BEACH_(ASOS),33.82,-78.72,33,10,17,,17,13,'KCRE 041553Z 31009G15KT 280V350 10SM CLR 01/M11 A2988 RMK AO1 SLP120 T00061106'
20180104,1600,TTS,NASA_SHUTTLE_FCLTY,28.62,-80.72,44,12,18,,18,23,'KTTS 041558Z AUTO 29010G16KT 10SM CLR 07/M05 A3012 RMK AO2 SLP204 T00651049 $'
20180104,1600,COF,PATRICK_AFB/COCOA_B,28.23,-80.60,46,14,,,,20,'KCOF 041556Z AUTO 28012KT 10SM CLR 08/M07 A3013 RMK AO2 SLP207 T00781067'
20180104,1600,MMCP,CAMPECHE/IGNACIO__&,19.85,-90.55,70,14,,,,61,'MMCP 041549Z 36012KT 6SM BKN030 BKN120 21/16 A3020 RMK 8/410'
20180104,1600,MMCE,CIUDAD_DEL_CARMEN_&,18.65,-91.80,86,7,,,,-9999,'MMCE 041545Z 09006KT 2SM -RA BKN008 OVC070 30/// A3025 RMK 6//// 8/77/ LWR SC'
20180104,1600,TXKF,BERMUDA_NAS/KINDLEY,32.37,-64.68,73,26,40,,40,63,'TXKF 041555Z 23023G35KT 9999 FEW021 SCT072 BKN300 23/17 Q1004'
20180104,1600,MYGF,FREEPORT_INTL_ARPT,26.55,-78.70,59,21,,,,43,'MYGF 041600Z 35018KT 9999 BKN025 15/06 A3011'
20180104,1600,MUGM,GUANTANAMO_BAY_NAS,19.90,-75.13,76,23,,,,70,'MUGM 041556Z 34020KT 9999 SCT045 BKN060 BKN150 24/21 A3003 RMK RAB00E10 SLP168 P0000 T02440211'
20180104,1600,MWCR,OWEN_ROBERTS_INTL,19.28,-81.35,79,15,,,,66,'MWCR 041600Z 01013KT 9999 FEW018 26/19 Q1018'
20180104,1600,MDPP,PUERTO_PLATA_INTL,19.75,-70.55,82,6,,,,73,'MDPP 041600Z 27005KT 9999 SCT020 SCT300 28/23 Q1015'
20180104,1600,MDST,SANTIAGO_INTL_ARPT,19.47,-70.70,77,0,,,,73,'MDST 041600Z 00000KT 5000 BR BKN017 BKN070 25/23 Q1015 BR/ALL QDS'
20180104,1600,MDPC,PUNTA_CANA,18.57,-68.37,82,14,,,,73,'MDPC 041600Z 15012KT 9999 SCT022 28/23 Q1016'
20180104,1600,MDSD,CAUCEDO/DE_LAS_AMER,18.43,-69.67,86,12,,,,73,'MDSD 041600Z 16010KT 9999 BKN020 30/23 Q1015'
20180104,1600,TJBQ,AQUADILLA/BORINQUEN,18.50,-67.13,84,7,,,,70,'TJBQ 041550Z 31006KT 10SM SKC 29/21 A3003'
20180104,1600,TJSJ,SAN_JUAN_INTL_ARPT,18.43,-66.00,86,10,17,,17,70,'TJSJ 041556Z 16009G15KT 10SM FEW036 FEW110 30/21 A3000 RMK AO2 SLP159 T03000211'
20180104,1600,TIST,C._AMALIE/CYRIL_E._(ASOS),18.33,-64.97,81,7,,,,77,'TIST 041553Z AUTO 13006KT 8SM -RA FEW027 SCT055 BKN070 27/25 A3002 RMK AO2 RAB45 SLP167 P0002 T02720250'
20180104,1600,TISX,CHRISTIANSTED/ALEXA_(ASOS),17.70,-64.80,84,12,,,,75,'TISX 041553Z 13010KT 10SM SCT022 SCT030 29/24 A3004 RMK AO2 SLP169 T02890239 $'
20180104,1600,MGHT,HUEHUETENANGO,15.32,-91.47,63,0,,,,50,'MGHT 041600Z 00000KT 9999 BKN018 17/10 QFE823.6'
20180104,1600,MGPB,PUERTO_BARRIOS(MIL),15.72,-88.60,70,0,,,,68,'MGPB 041600Z 00000KT 8000 RA SCT018 BKN080 21/20 Q1022 A3018'
20180104,1600,MGGT,GUATEMALA/LA_AURORA,14.58,-90.52,64,16,,,,52,'MGGT 041600Z 35014KT 9999 FEW018 SCT200 18/11 Q1029 A3039 FEW200'
20180104,1600,MGSJ,SAN_JOSE_(CIV/MIL),13.92,-90.82,88,0,,,,64,'MGSJ 041600Z 00000KT CAVOK 31/18 Q1014 A2994 SCT200'
20180104,1600,MSLP,EL_SALVADOR_INTL,13.43,-89.05,86,12,23,,23,59,'MSLP 041550Z 36010G20KT 320V030 CAVOK 30/15 Q1014 A2994 NOSIG'
20180104,1600,MHRO,ROATAN,16.32,-86.53,77,12,,,,68,'MHRO 041600Z 30010KT 9999 BKN020TCU 25/20 Q1020 A3012 NOSIG'
20180104,1600,MHLC,LA_CEIBA/GOLOSON__&,15.73,-86.87,70,2,,,,68,'MHLC 041600Z 20002KT 7000 -RA SCT024 BKN070 21/20 Q1020 A3012 NOSIG'
20180104,1600,MHLM,LA_MESA/PEDRO_SULA,15.45,-87.93,70,2,,,,70,'MHLM 041600Z 24002KT 8000 VCSH FEW008 SCT022 OVC070 21/21 Q1021 A3015 NOSIG'
20180104,1600,MHTG,TEGUCIGALPA/TONCONT,14.05,-87.22,66,12,,,,55,'MHTG 041600Z 03010KT 9999 SCT028 SCT080 19/13 Q1023 A3021 NOSIG'
20180104,1600,TNCM,PRINSES_JULIANA,18.05,-63.12,82,16,,,,73,'TNCM 041600Z 12014KT 080V150 9999 FEW020 28/23 Q1017 A3004 NOSIG'
20180104,1600,FMH,OTIS_ANGB,41.65,-70.52,36,33,49,,49,34,'KFMH 041555Z AUTO 03029G43KT 1 3/4SM +UP OVC007 02/01 A2911 RMK AO2'
20180104,1600,TVR,VICKSBURG/TALLULAH_ARPT_(ASOS),32.35,-91.03,33,12,,,,19,'KTVR 041553Z AUTO 02010KT 10SM CLR 01/M07 A3040 RMK AO2 UPB30E38 SLP301 P0000 T00061072'
20180104,1600,FZY,FULTON/OSWEGO_CTY_AIRPORT,43.35,-76.38,20,8,,,,16,'KFZY 041554Z AUTO 36007KT 2SM -SN BR FEW019 FEW033 OVC070 M07/M09 A2977 RMK AO2 SNE22B30 SLP088 P0000 T10671089'
20180104,1600,IZG,FRYEBERG_(ASOS),43.99,-70.95,17,0,,,,17,'KIZG 041554Z AUTO 00000KT 1/4SM SN FZFG VV006 M08/M08 A2962 RMK AO2 SLP041 P0000 T10831083'
20180104,1600,AQW,NORTH_ADAMS_(ASOS),42.70,-73.17,17,13,18,,18,13,'KAQW 041552Z AUTO 27011G16KT 1/4SM SN FZFG VV008 M08/M11 A2957 RMK AO2 PRESFR SLP024 P0009 T10831106'
20180104,1600,EYE,EAGLE_CREEK_AIRPARK_(ASOS),39.83,-86.29,5,8,,,,-3,'KEYE 041553Z AUTO 33007KT 10SM CLR M15/M19 A3024 RMK AO2 SLP258 T11501194'
20180104,1600,HYR,HAYWARD_MUNI_AIRPORT_(ASOS),46.02,-91.45,-8,0,,,,-12,'KHYR 041553Z AUTO 00000KT 10SM OVC014 M22/M24 A3035 RMK AO2 SLP322 T12221244'
20180104,1600,LHQ,LANCASTER_(ASOS),39.76,-82.66,14,16,,,,6,'KLHQ 041553Z AUTO 32014KT 8SM FEW025 OVC034 M10/M14 A3008 RMK AO2 SNE09 SLP202 P0000 T11001144'
20180104,1600,MVL,MORRISVILLE-STOWE_ARPT_(ASOS),44.53,-72.62,11,0,,,,8,'KMVL 041554Z AUTO 00000KT 8SM -SN M12/M13 A2972 RMK AO2 SNB53 SLPNO P0000 T11171133 $'
20180104,1600,UUU,NEWPORT_(ASOS),41.53,-71.28,28,31,51,51,51,27,'KUUU 041553Z AUTO 01027G44KT 1/2SM FZFG VV002 M02/M03 A2912 RMK AO2 PK WND 01044/1547 PRESFR SLP861 P0013 T10221028 PWINO FZRANO $'
20180104,1600,IWI,WISCASSET_(ASOS),43.96,-69.71,21,3,,,,19,'KIWI 041553Z AUTO VRB03KT 1/2SM SN FZFG SCT009 OVC015 M06/M07 A2957 RMK AO2 SLP015 P0004 T10611072'
20180104,1600,FFC,PEACHTREE_CITY_(ASOS),33.34,-84.57,29,16,22,,22,9,'KFFC 041553Z AUTO 31014G19KT 10SM CLR M02/M13 A3011 RMK AO2 SLP205 T10171128'
20180104,1600,ISW,WISCONSN_RAPIDS_(ASOS),44.44,-89.83,-2,0,,,,-6,'KISW 041554Z AUTO 00000KT 10SM BKN023 M19/M21 A3035 RMK AO2 SLP307 T11891211'
20180104,1600,AFN,JAFFREY_MUNICIPAL_(ASOS),42.80,-72.00,20,12,18,,18,17,'KAFN 041552Z AUTO 36010G16KT 330V040 1/4SM +SN FZFG VV004 M07/M08 A2942 RMK AO2 PRESFR SLP989 P0013 T10671083'
20180104,1600,AIG,ANTIGO,45.03,-89.14,1,16,,,,-7,'KAIG 041555Z AUTO 36014KT 10SM OVC022 M17/M22 A3025 RMK AO2 T11731219'
20180104,1600,BIV,TULIP_CITY_ARPT/HOLLAND_(ASOS),42.75,-86.10,15,10,,,,5,'KBIV 041553Z AUTO 03009KT 10SM SCT036 BKN050 M09/M15 A3019 RMK AO2 SLP238 T10941150'
20180104,1600,DLL,BARABOO/WISCONSIN_DELLS,43.31,-89.46,1,0,,,,-8,'KDLL 041555Z AUTO 00000KT 10SM CLR M17/M22 A3034 RMK AO2 T11751223'
20180104,1600,DMO,SEDALIA_(ASOS),38.72,-93.17,10,3,,,,1,'KDMO 041553Z AUTO 02003KT 10SM CLR M12/M17 A3043 RMK AO2 SLP322 T11221172'
20180104,1600,DVN,QUAD_CITIES/QUAD_CITIES_(ASOS),41.61,-90.57,-5,5,,,,-11,'KDVN 041552Z AUTO 30004KT 10SM CLR M21/M24 A3041 RMK AO2 SLP316 T12061239'
20180104,1600,FFT,CAPITAL_CITY_ARPT_(ASOS),38.19,-84.90,14,7,,,,4,'KFFT 041553Z AUTO VRB06KT 10SM BKN047 M10/M16 A3021 RMK AO2 SLP241 T11001156'
20180104,1600,FSW,FORT_MADISON,40.67,-91.33,0,0,,,,-6,'KFSW 041555Z AUTO 00000KT 10SM BKN080 M18/M21 A3041 RMK AO2'
20180104,1600,GVL,GAINSVILLE_(ASOS),34.32,-83.83,28,20,28,30,30,5,'KGVL 041553Z AUTO 33017G24KT 10SM CLR M02/M15 A2999 RMK AO2 PK WND 31026/1538 SLP164 T10221150'
20180104,1600,IOW,IOWA_CITY_(ASOS),41.63,-91.55,2,5,,,,-6,'KIOW 041552Z AUTO 30004KT 10SM BKN120 M17/M21 A3044 RMK AO2 SLP324 T11671211'
20180104,1600,RPD,RICE_LAKE,45.48,-91.72,-10,0,,,,-15,'KRPD 041555Z AUTO 00000KT 10SM BKN011 M23/M26 A3038 RMK AO2 T12341262'
20180104,1600,SUW,SUPERIOR,46.69,-92.09,-13,5,,,,-19,'KSUW 041555Z AUTO 23004KT 10SM CLR M25/M28 A3045 RMK AO2 T12481281'
20180104,1600,DNL,AUGUSTA_(ASOS),33.47,-82.03,35,9,20,,20,11,'KDNL 041553Z AUTO 28008G17KT 250V310 10SM CLR 02/M12 A2998 RMK AO2 SLP155 T00171117'
20180104,1600,EHR,HENDERSON_CITY,37.82,-87.68,13,8,,,,4,'KEHR 041556Z AUTO 29007KT 10SM CLR M11/M16 A3038 RMK AO2 SLP299 T11061156 FZRANO'
20180104,1600,ENW,KENOSHA_(ASOS),42.59,-87.94,5,12,,,,-7,'KENW 041553Z 33010KT 10SM CLR M15/M22 A3030 RMK AO2 SLP279 T11501217'
20180104,1600,MFI,MARSHFIELD_(ASOS),44.63,-90.18,-4,7,,,,-9,'KMFI 041554Z AUTO 33006KT 10SM BKN019 M20/M23 A3030 RMK AO2 SLP300 T12001228 TSNO'
20180104,1600,SGJ,ST_AUGUSTINE_AIRPT,29.97,-81.33,39,15,21,,21,16,'KSGJ 041556Z 27013G18KT 10SM CLR 04/M09 A3012 RMK AO2 SLP197 T00391089'
20180104,1600,UES,WAUKESHA_CNTY_ARPT,43.02,-88.14,0,9,,,,-8,'KUES 041545Z 31008KT 10SM SKC M18/M22 A3031'
20180104,1600,UNO,WEST_PLAINS_(ASOS),36.73,-91.85,17,6,,,,3,'KUNO 041553Z AUTO 32005KT 10SM CLR M08/M16 A3036 RMK AO2 SLP300 T10831161'
20180104,1600,FLD,FOND_DU_LAC_(ASOS),43.77,-88.49,1,7,,,,-8,'KFLD 041553Z AUTO 35006KT 10SM CLR M17/M22 A3033 RMK AO2 SLP293 T11721222 TSNO'
20180104,1600,LEE,LEESBURG_MUNICIPAL_ARPT_(ASOS),28.82,-81.81,42,12,21,,21,17,'KLEE 041553Z 29010G18KT 10SM CLR 06/M08 A3018 RMK AO2 SLP219 T00561083'
20180104,1600,MIW,MARSHALLTOWN_(ASOS),42.11,-92.91,2,0,,,,-3,'KMIW 041553Z AUTO 00000KT 10SM BKN085 OVC120 M17/M19 A3038 RMK AO2 SLP316 T11671194'
20180104,1600,SBM,SHEBOYGAN_(ASOS),43.78,-87.85,4,14,,,,-6,'KSBM 041553Z AUTO 34012KT 9SM -SN CLR M16/M21 A3029 RMK AO2 SNB1454 SLP279 P0000 T11561211 TSNO'
20180104,1600,LWV,LAWRENCEVILLE-VINCENNES_(ASOS),38.76,-87.60,10,9,,,,0,'KLWV 041553Z AUTO 31008KT 10SM CLR M12/M18 A3035 RMK AO2 SLP286 T11221178'
20180104,1600,PGD,PUNTA_GORDA_(ASOS),26.92,-82.00,50,6,,,,28,'KPGD 041553Z 08005KT 10SM CLR 10/M02 A3020 RMK AO2 SLP226 T01001022'
20180104,1600,HTO,EASTHAMPTON,40.96,-72.25,31,25,43,,43,29,'KHTO 041555Z AUTO 01022G37KT OVC004 M01/M01 A2911 RMK AO2 P0001 T10061015 PWINO'
20180104,1600,DCU,DECATUR-PRYOR_FIELD_(ASOS),34.65,-86.94,22,14,,,,7,'KDCU 041553Z AUTO 35012KT 10SM CLR M06/M14 A3029 RMK AO2 SLP262 T10561139'
20180104,1600,CDD,CRANE_LAKE_(AWOS),46.27,-92.57,-26,0,,,,-31,'KCDD 041549Z AUTO 00000KT 10SM CLR M32/M35 A3043 RMK AO2'
20180104,1600,JMR,MORA,45.89,-93.27,-8,0,,,,-15,'KJMR 041555Z AUTO 00000KT 10SM CLR M22/M26 A3042 RMK AO2'
20180104,1600,LVN,MINNEAPOLIS_(AIRLAKE_APT),44.63,-93.23,-2,0,,,,-8,'KLVN 041555Z AUTO 00000KT 10SM SCT080 BKN100 M19/M22 A3041 RMK AO2'
20180104,1600,MCD,MACKINAC_ISLAND,45.86,-84.64,-7,10,16,,16,-15,'KMCD 041555Z AUTO 36009G14KT 10SM CLR M21/M26 A3024 RMK AO2 T12141263'
20180104,1600,OZW,HOWELL,42.63,-83.98,9,17,23,,23,-1,'KOZW 041555Z AUTO 33015G20KT 10SM OVC027 M13/M18 A3010 RMK AO2 T11301181'
20180104,1600,ANE,MINNEAPOLIS/BLAINE,45.15,-93.22,-4,0,,,,-11,'KANE 041545Z 00000KT 10SM BKN100 M20/M24 A3041'
20180104,1600,CKC,GRAND_MARAIS/COOK_COUNTY_AIRPORT,47.84,-90.38,-15,13,,,,-24,'KCKC 041555Z AUTO 33011KT 10SM CLR M26/M31 A3025 RMK AO2'
20180104,1600,GSH,GOSHEN_MUNICIPAL_AIRPORT_(ASOS),41.53,-85.79,,12,,,,-9999,'KGSH 041553Z AUTO 29010KT 10SM FEW030 BKN034 OVC044 A3018 RMK AO2 SLPNO $'
20180104,1600,TZR,COLUMBUS_(BOLTON_FLD),39.90,-83.13,12,16,,,,3,'KTZR 041555Z 33014KT 10SM BKN038 M11/M16 A3011'
20180104,1600,DTS,DESTIN_AIRPORT_(ASOS),30.39,-86.47,40,13,,,,13,'KDTS 041553Z 34011KT 10SM CLR 04/M11 A3026 RMK AO2 SLP246 T00441106'
20180104,1600,DKK,DUNKIRK_AIRPORT_(ASOS),42.49,-79.28,15,17,,,,5,'KDKK 041553Z AUTO 31015KT 10SM SCT027 M09/M15 A2991 RMK AO2 SLP140 T10941150'
20180104,1600,BJJ,WOOSTER/WAYNE_CTY_ARPT_(ASOS),40.87,-81.89,12,10,,,,6,'KBJJ 041556Z AUTO 35009KT 1 1/4SM -SN BKN016 OVC024 M11/M14 A3002 RMK AO2 SLP186 P0000 T11111144'
20180104,1600,SET,ST_CHARLES_(ASOS),38.93,-90.43,8,5,,,,-2,'KSET 041554Z AUTO 32004KT 10SM CLR M13/M19 A3043 RMK AO2 SLP314 T11331189'
20180104,1600,AVC,SOUTH_HILL/MECKLENBURG-BRUNSWICK,36.69,-78.05,28,7,,,,10,'KAVC 041555Z AUTO 30006KT 10SM CLR M02/M12 A2981 RMK AO2 T10241125'
20180104,1600,CLI,CLINTONVILLE_MUNI_ARPT,44.61,-88.73,3,6,,,,-8,'KCLI 041555Z AUTO 34005KT 10SM CLR M16/M22 A3033 RMK AO2'
20180104,1600,DYT,DULUTH-SKY_HARBOR_ARPT,46.72,-92.04,-9,6,,,,-17,'KDYT 041555Z AUTO 23005KT 10SM SCT055 M23/M27 A3046 RMK AO2'
20180104,1600,EGV,EAGLE_RIVER-UNION_ARPT,45.93,-89.27,1,10,,,,-8,'KEGV 041555Z AUTO 33009KT 7SM OVC023 M17/M22 A3023 RMK AO2 T11701221'
20180104,1600,UNU,JUNEAU-DODGE_CTY_ARPT,43.43,-88.70,-2,5,,,,-8,'KUNU 041555Z AUTO 33004KT 10SM CLR M19/M22 A3033 RMK AO2 T11871223'
20180104,1600,TTF,MONROE-CUSTER_ARPT,41.94,-83.43,10,9,,,,2,'KTTF 041555Z AUTO 29008KT 7SM OVC030 M12/M17 A3010 RMK AO2 T11201168'
20180104,1600,ACB,BELLAIRE-ANTRIM_CTY_ARPT,44.99,-85.20,1,8,,,,-5,'KACB 041555Z AUTO 01007KT 7SM OVC026 M17/M21 A3025 RMK AO2 T11751207'
20180104,1600,AMN,ALMA-GRATIOT_COMM_ARPT,43.32,-84.69,10,15,21,,21,-1,'KAMN 041558Z AUTO 33013G18KT 10SM BKN029 M12/M18 A3015 RMK AO2 T11241184'
20180104,1600,IDI,INDIANA-INDIANA_CTY_ARPT,40.63,-79.10,16,12,21,,21,10,'KIDI 041555Z AUTO 33010G18KT 10SM OVC023 M09/M12 A2986 RMK A01'
20180104,1600,IRS,STURGIS-KIRSCH_MUNI_ARPT,41.81,-85.44,15,7,,,,5,'KIRS 041555Z AUTO 32006KT 10SM SCT034 SCT043 OVC050 M10/M15 A3014 RMK AO2 T10971150'
20180104,1600,MRJ,MINERAL_POINT-IOWA_CTY_ARPT,42.89,-90.23,1,7,,,,-4,'KMRJ 041555Z AUTO 32006KT 10SM CLR M17/M20 A3032 RMK AO2'
20180104,1600,GKJ,MEADVILLE-PORT_MEADVILLE_ARPT,41.63,-80.21,14,16,24,,24,9,'KGKJ 041550Z AUTO 32014G21KT 1 3/4SM -SN BKN019 BKN026 OVC037 M10/M13 A2985 RMKAO2 SLP134 P0000 T11001128 $'
20180104,1600,TEW,MASON-JEWETT_FIELD,42.57,-84.42,11,16,21,,21,0,'KTEW 041555Z AUTO 35014G18KT 10SM OVC024 M12/M18 A3012 RMK AO2 T11161179'
20180104,1600,OGB,ORANGEBURG/MUNI_ARPT_(ASOS),33.46,-80.85,33,12,22,,22,14,'KOGB 041553Z AUTO 29010G19KT 10SM CLR 01/M10 A2995 RMK AO2 SLP141 T00061100'
20180104,1600,GZH,EVERGREEN_(ASOS),31.42,-87.04,33,9,18,,18,12,'KGZH 041553Z AUTO 36008G16KT 10SM CLR 01/M11 A3028 RMK AO2 SLP254 T00061111'
20180104,1600,MAI,MARIANA_(ASOS),30.80,-85.21,36,10,,,,12,'KMAI 041553Z AUTO 31009KT 10SM CLR 02/M11 A3020 RMK AO2 SLP227 T00221111'
20180104,1600,LPR,LORAIN/ELYRIA_(ASOS),41.34,-82.18,12,14,,,,-1,'KLPR 041553Z AUTO 36012KT 8SM -SN OVC034 M11/M18 A3005 RMK AO2 SLP191 P0000 T11111183'
20180104,1600,P92,SALT_POINT__(ASOS),29.60,-91.30,41,3,,,,18,'KP92 041553Z AUTO VRB03KT 05/M08 A3038 RMK AO1 SLP287 T00501078 $'
20180104,1600,HAO,HAMILTON_AIRPORT_(ASOS),39.36,-84.52,13,10,,,,6,'KHAO 041553Z AUTO 30009KT 10SM OVC047 M11/M14 A3021 RMK AO2 SLP242 T11061144'
20180104,1600,HLX,HILLSVILLE,36.77,-80.82,13,22,43,,43,-1,'KHLX 041555Z AUTO 32019G37KT 10SM OVC032 M10/M19 A2974 RMK AO2 T11041186'
20180104,1600,BAX,BAD_AXE,43.78,-82.99,3,14,22,,22,-2,'KBAX 041555Z AUTO 32012G19KT 3/4SM -SN SCT014 OVC025 M16/M19 A3010 RMK AO2 T11611190'
20180104,1600,EFT,MONROE,42.62,-89.59,1,7,,,,-6,'KEFT 041555Z AUTO 34006KT 10SM CLR M17/M21 A3031 RMK AO2'
20180104,1600,ERY,NEWBERRY,46.31,-85.46,-2,10,17,,17,-8,'KERY 041556Z AUTO 03009G15KT 7SM SCT018 OVC034 M19/M22 A3023 RMK AO2 T11901222'
20180104,1600,OEB,COLDWATER,41.94,-85.05,13,10,,,,1,'KOEB 041555Z AUTO 33009KT 10SM BKN046 M10/M17 A3013 RMK AO2 T11041170'
20180104,1600,RMY,MARSHALL,42.25,-84.96,13,8,,,,2,'KRMY 041555Z AUTO 31007KT 280V340 10SM SCT041 M11/M17 A3013 RMK AO2 T11061167'
20180104,1600,MDZ,MEDFORD,45.10,-90.30,-5,6,,,,-9,'KMDZ 041555Z AUTO 35005KT 10SM OVC019 M20/M23 A3028 RMK AO2 T12051227'
20180104,1600,SEG,SELINSGROVE_(ASOS),40.83,-76.87,21,16,29,,29,13,'KSEG 041553Z AUTO 34014G25KT 4SM HZ BKN035 OVC043 M06/M11 A2972 RMK AO2 SLP071 T10611106'
20180104,1600,THV,YORK_AIRPORT_(ASOS),39.93,-76.88,21,18,28,30,30,14,'KTHV 041553Z AUTO 31016G24KT 4SM HZ OVC032 M06/M10 A2966 RMK AO2 PK WND 31026/1519 SNE16 SLP053 P0000 T10611100'
20180104,1600,PQL,PASCAGOULA_(ASOS),30.47,-88.53,36,13,,,,14,'KPQL 041553Z 36011KT 10SM CLR 02/M10 A3033 RMK AO2 SLP270 T00221100'
20180104,1600,AKQ,WAKEFIELD_(ASOS),36.98,-77.00,24,9,20,,20,20,'KAKQ 041554Z AUTO 31008G17KT 260V330 1SM -SN BR BKN021 OVC027 M04/M07 A2972 RMK AO2 SLP068 P0000 T10441067'
20180104,1600,GED,GEORGETOWN/SUSSEX_(ASOS),38.68,-75.37,23,14,26,33,33,19,'KGED 041554Z AUTO 31016G26KT 1/4SM FZFG VV009 M05/M07 A2946 RMK AO2 PK WND 34029/1511 SLP975 T10501072 $'
20180104,1600,VAY,MOUNT_HOLLY_(ASOS),39.93,-74.83,23,16,26,37,37,22,'KVAY 041554Z AUTO 32014G23KT 1/4SM FZFG VV008 M05/M06 A2943 RMK AO2 PK WND 33032/1543 SNEMM SLP967 P0000 T10501056 $'
20180104,1600,FIT,FITCHBURG_(ASOS),42.55,-71.76,24,18,31,31,31,21,'KFIT 041552Z AUTO 36016G27KT 1/4SM +SN FZFG VV004 M04/M06 A2940 RMK AO2 PK WND 35027/1543 PRESFR SLP962 P0003 T10441061'
20180104,1600,MGY,DAYTON_(ASOS),39.59,-84.22,13,14,,,,5,'KMGY 041553Z AUTO 32012KT 10SM OVC042 M11/M15 A3014 RMK AO2 SLP225 T11061150'
20180104,1600,TAN,TAUNTON_(ASOS),41.87,-71.02,28,14,26,31,31,-9999,'KTAN 041552Z AUTO 01012G23KT 340V050 M1/4SM FZFG VV002 M02/ A2919 RMK AO2 PK WND 03027/1506 SNEMM PRESFR SLP885 P0000 T1017 PWINO FZRANO $'
20180104,1600,TOB,DODGE_CENTER,44.02,-92.83,-2,5,,,,-9,'KTOB 041555Z AUTO 36004KT 10SM BKN080 M19/M23 A3035 RMK AO2'
20180104,1600,MTO,MATTOON/CHARLESTON_(ASOS),39.48,-88.28,3,12,,,,-4,'KMTO 041553Z AUTO 33010KT 10SM CLR M16/M20 A3033 RMK AO2 SLP288 T11611200'
20180104,1600,POF,POPLAR_BLUFF_(ASOS),36.77,-90.32,16,10,,,,1,'KPOF 041553Z AUTO 33009KT 10SM CLR M09/M17 A3043 RMK AO2 SLP313 T10891172'
20180104,1600,VPZ,VALPARAISO_(ASOS),41.45,-87.00,11,15,,,,5,'KVPZ 041556Z AUTO 30013KT 1/2SM SN BKN010 OVC037 M12/M15 A3023 RMK AO2 SLP253 P0000 T11171150'
20180104,1600,TDZ,METCALF_FIELD/TOLEDO_(ASOS),41.56,-83.48,11,17,25,,25,1,'KTDZ 041553Z AUTO 32015G22KT 10SM OVC033 M12/M17 A3014 RMK AO2 SLP216 T11171172'
20180104,1600,PEO,PENN_YAN_AIRPORT_(ASOS),42.64,-77.05,20,15,24,,24,12,'KPEO 041553Z AUTO 30013G21KT 2 1/2SM -SN BKN038 OVC047 M07/M11 A2975 RMK AO2 UPB1459E04SNE1459B04 SLP092 P0000 T10671111'
20180104,1600,MGJ,ORANGE_COUNTY_AIRPORT_(ASOS),41.51,-74.26,22,7,,,,19,'KMGJ 041554Z AUTO 34006KT 1/4SM FZFG VV007 M06/M07 A2947 RMK AO2 SNEMM PRESFR SLP985 P0004 T10561072 PWINO FZRANO $'
20180104,1600,ADG,LENAWEE_COUNTY_AIRPORT_(ASOS),41.87,-84.07,11,12,,,,1,'KADG 041553Z AUTO 35010KT 10SM FEW030 OVC039 M12/M17 A3013 RMK AO2 SLP221 T11171172 TSNO'
20180104,1600,DFI,DEFIANCE_MEMORIAL_APRT_(ASOS),41.34,-84.43,11,6,,,,0,'KDFI 041553Z AUTO 30005KT 10SM SCT046 M12/M18 A3016 RMK AO2 SLP226 T11171178'
20180104,1600,40J,PERRY_FOLEY_ARPT_(ASOS),30.07,-83.57,38,10,,,,15,'K40J 041555Z AUTO 30009KT 10SM CLR 03/M09 A3019 RMK AO2 T00321093'
20180104,1600,AOH,LIMA_ALLEN_CNTY_APT_(ASOS),40.71,-84.03,,10,22,,22,-9999,'KAOH 041553Z AUTO 33009G19KT 10SM OVC040 A3012 RMK AO2 SLPNO $'
20180104,1600,CTY,CROSS_CITY_ARPT_(ASOS),29.62,-83.10,39,9,,,,13,'KCTY 041555Z AUTO 29008KT 10SM CLR 04/M10 A3024 RMK AO2 T00381105'
20180104,1600,FLP,FLIPPIN_(AWOS),36.20,-92.47,20,6,,,,8,'KFLP 041556Z AUTO 34005KT 10SM CLR M07/M13 A3042 RMK AO2 SLP311 T10671133 FZRANO'
20180104,1600,PHD,HARRY_CLEVER_FIELD_(ASOS),40.47,-81.42,13,15,24,,24,1,'KPHD 041553Z AUTO 31013G21KT 10SM SCT038 M11/M17 A3003 RMK AO2 SNE24 SLP184 P0000 T11061172'
20180104,1600,RQB,ROBIN_HOOD_AIRPORT,43.72,-85.50,9,12,23,,23,-3,'KRQB 041555Z AUTO 36010G20KT 10SM SCT029 M13/M19 A3014 RMK AO2 T11301195'
20180104,1600,EDE,EDENTON_NORTHEA,36.03,-76.57,28,14,20,,20,23,'KEDE 041545Z AUTO 32012G17KT 7SM UP BKN017 BKN026 M02/M05 A2974 RMK AO2 T10201050'
20180104,1600,ILN,AIRBORNE_AIRPARK_ARPT_(ASOS),39.42,-83.77,14,15,,,,6,'KILN 041554Z AUTO 32013KT 10SM FEW024 SCT029 OVC041 M10/M14 A3012 RMK AO2 SLP242 T11001144'
20180104,1600,RAC,RACINE_JOHN_H_B_(ASOS),42.76,-87.81,7,12,23,,23,-6,'KRAC 041553Z AUTO 33010G20KT 10SM CLR M14/M21 A3031 RMK AO2 SLP281 T11391211'
20180104,1600,GLR,OTSEGO_COUNTY_ARPT_(ASOS),45.01,-84.70,-5,6,22,,22,-14,'KGLR 041553Z AUTO VRB05G19KT 10SM CLR M21/M26 A3013 RMK AO2 SLP239 T12061256'
20180104,1600,FAY,FAYETTEVILLE_RGNL_(ASOS),34.98,-78.88,32,20,25,30,30,12,'KFAY 041553Z 29017G22KT 10SM CLR 00/M11 A2984 RMK AO2 PK WND 29026/1519 SLP101 T00001111'
20180104,1600,DMH,BALTIMORE_SCIENCE_CNTR_(ASOS),39.28,-76.61,26,,,,,13,'KDMH 041554Z AUTO M03/M11 A2962 RMK AO1 SLP031 T10331106'
20180104,1600,CCO,NEWNAN_COWETA_ARPT,33.31,-84.77,29,12,18,,18,6,'KCCO 041555Z AUTO 32010G16KT 10SM CLR M01/M14 A3010 RMK AO2 T10151144'
20180104,1600,FQD,RUTHERFORDTON,35.43,-81.94,30,5,,,,4,'KFQD 041545Z AUTO 36004KT 10SM CLR M01/M15 A2991 RMK AO2 T10101153'
20180104,1600,JYM,HILLSDALE,41.92,-84.59,12,14,21,,21,1,'KJYM 041555Z AUTO 32012G18KT 10SM OVC033 M11/M17 A3009 RMK AO2'
20180104,1600,MNN,MARION_(ASOS),40.62,-83.06,10,16,,,,1,'KMNN 041553Z AUTO 33014KT 10SM BKN033 OVC040 M12/M17 A3009 RMK AO2 SLP211 T11221172'
20180104,1600,SFQ,SUFFOLK,36.68,-76.60,26,18,25,,25,21,'KSFQ 041555Z AUTO 31016G22KT 1 1/4SM -SN BKN018 OVC027 M03/M06 A2970 RMK AO2 T10351060'
20180104,1600,OEO,OSCEOLA,45.31,-92.69,-12,0,,,,-18,'KOEO 041555Z AUTO 00000KT 10SM OVC007 M25/M28 A3047 RMK AO2 T12471278'
20180104,1600,ETB,WEST_BEND,43.42,-88.13,3,15,,,,-6,'KETB 041555Z AUTO 35013KT 10SM CLR M16/M21 A3030 RMK AO2'
20180104,1600,DNN,DALTON_MUNI_AIRPORT,34.72,-84.87,27,18,22,,22,14,'KDNN 041555Z AUTO 33016G19KT 10SM SCT034 M03/M10 A3016 RMK AO2'
20180104,1600,CPK,CHESAPEAKE,36.66,-76.32,24,21,30,,30,21,'KCPK 041555Z AUTO 30018G26KT OVC011 M05/M06 A2968 RMK AO2 T10461062 PWINO'
20180104,1600,CJR,CULPEPER,38.53,-77.86,26,22,31,,31,6,'KCJR 041555Z AUTO 33019G27KT 10SM SCT044 SCT050 OVC070 M03/M15 A2976 RMK AO2 T10351146'
20180104,1600,EET,SHELBY_COUNTY_ARPT_(ASOS),33.17,-86.77,29,12,20,,20,11,'KEET 041553Z AUTO 34010G17KT 10SM CLR M02/M12 A3023 RMK AO2 SLP240 T10171117'
20180104,1600,ISQ,MANISTIQUE,45.97,-86.17,3,12,,,,-5,'KISQ 041555Z AUTO 36010KT 7SM SCT019 SCT024 OVC041 M16/M21 A3025 RMK AO2 T11601208'
20180104,1600,OWD,NORWOOD_MEMORIAL_ARPT_(ASOS),42.18,-71.17,27,18,28,30,30,25,'KOWD 041553Z 36016G26KT M1/4SM +SN FZFG VV004 M03/M04 A2928 RMK AO2 PK WND 35026/1550 PRESFR SLP914 P0006 T10281044 $'
20180104,1600,GEZ,SHELBYVILLE_MUNI_ARPT_(ASOS),39.65,-85.80,8,8,,,,1,'KGEZ 041553Z AUTO 30007KT 10SM OVC046 M13/M17 A3023 RMK AO2 SLP252 T11331172'
20180104,1600,BUY,BURLINGTON-ALAMANCE_REG_(ASOS),36.03,-79.47,33,12,24,,24,9,'KBUY 041554Z AUTO 32010G21KT 290V010 10SM CLR 01/M13 RMK AO2 SLPNO T00061128'
20180104,1600,MEB,LAURINBURG-MAXTON_ARPT_(ASOS),34.78,-79.37,30,14,,,,13,'KMEB 041552Z AUTO 30012KT 10SM CLR M01/M11 A2987 RMK AO2 SLP117 T10111106'
20180104,1600,BYH,EAKER_AFB,35.97,-89.95,18,12,20,,20,7,'KBYH 041550Z 02010G17KT 10SM SKC M08/M14 A3043'
20180104,1600,CWF,CHENAULT_AIRPARK,30.22,-93.15,,7,,,,-9999,'KCWF 041555Z 07006KT 10SM SKC 4/M05 A3041'
20180104,1600,PMP,POMPANO_BEACH_(ASOS),26.25,-80.11,51,20,25,,25,30,'KPMP 041553Z 32017G22KT 9SM CLR 11/M01 A3016 RMK AO2 SLP212 T01061011'
20180104,1600,AAF,APALACHICOLA_MUNI_(ASOS),29.73,-85.03,39,10,,,,14,'KAAF 041553Z AUTO 30009KT 10SM CLR 04/M10 A3022 RMK AO2 SLP234 T00391100'
20180104,1600,GNA,GRAND_MARAIS_(ASOS),47.75,-90.35,-5,0,,,,-17,'KGNA 041556Z AUTO 00000KT M21/M27 A3043 RMK AO1 SLP338 T12061272'
20180104,1600,OQT,OAK_RIDGE_(ASOS),36.02,-84.23,21,7,,,,6,'KOQT 041553Z AUTO VRB06KT 10SM BKN034 M06/M14 A3017 RMK AO2 SLP236 T10611144'
20180104,1600,MTP,MONTAUK_AIRPORT_(ASOS),41.07,-71.92,34,23,41,45,45,33,'KMTP 041554Z AUTO 01020G36KT 01/01 A2911 RMK AO1 PK WND 02039/1501 PRESFR SLP856 P0020 T00110006'
20180104,1600,LBT,LUMBERTON_MUNI_AIRPORT_(ASOS),34.61,-79.06,29,12,,,,13,'KLBT 041554Z AUTO 29010KT 10SM CLR M02/M11 A2987 RMK AO2 SLP115 T10171106'
20180104,1600,ASX,KENNEDY_MEMORIAL_AIRPORT_(ASOS),46.54,-90.92,2,8,,,,-5,'KASX 041553Z AUTO 34007KT 10SM OVC018 M17/M21 A3040 RMK AO2 SLP317 T11671206'
20180104,1600,CUB,COLUMBIA_OWENS_AIRPORT_(ASOS),33.97,-80.99,35,9,16,,16,8,'KCUB 041553Z AUTO 31008G14KT 10SM CLR 02/M13 A2994 RMK AO2 SLP140 T00171133'
20180104,1600,MQE,MILTON_(ASOS),42.22,-71.12,26,,,,,24,'KMQE 041556Z AUTO M03/M04 A2921 RMK AO1 PRESFR SLP908 P0019 T10331044'
20180104,1600,1V4,ST._JOHNSBURY_(ASOS),44.42,-72.02,9,,,,,7,'K1V4 041554Z AUTO M13/M14 A2968 RMK AO1 SLP075 P0003 T11281139'
20180104,1600,SVH,STATESVILLE,35.76,-80.96,27,22,29,,29,-6,'KSVH 041545Z AUTO 32019G25KT 10SM CLR M03/M21 A2988 RMK AO2 T10271209'
20180104,1600,WWD,WILDWOOD(AWOS),39.02,-74.92,25,20,35,35,35,23,'KWWD 041555Z AUTO 32017G30KT 1/4SM +SN FZFG OVC007 M04/M05 A2939 RMK AO2 PK WND31030/1547 CIG 003V009 SLP955 P0001 T10441050 FZRANO'
20180104,1600,DDH,MORSE_STATE_AIRPORT_(ASOS),42.89,-73.24,17,6,,,,13,'KDDH 041554Z AUTO 30005KT 1/4SM SN FZFG VV007 M08/M11 A2957 RMK AO2 PRESFR SLP028 P0007 T10831106'
20180104,1600,HZY,ASHTABULA_COUNTY_AIRPORT_(ASOS),41.77,-80.69,14,13,28,,28,8,'KHZY 041553Z AUTO 34011G24KT 2SM -SN SCT018 BKN025 OVC030 M10/M13 A2996 RMK AO2 SLP161 P0000 T11001133'
20180104,1600,UZA,ROCK_HILL-YORK_CNTY_ARPT_(ASOS),34.98,-81.05,33,10,,,,7,'KUZA 041554Z AUTO 33009KT 10SM UP CLR 01/M14 A2990 RMK AO2 UPB1455 SLP137 P0000 T00061139'
20180104,1600,VTA,NEWARK-HEATH_AIRPORT_(ASOS),40.02,-82.46,13,14,22,,22,6,'KVTA 041554Z AUTO 30012G19KT 10SM FEW019 OVC037 M11/M14 A3006 RMK AO2 SNE40 SLP195 P0000 T11061144'
20180104,1600,ASD,SLIDELL_(ASOS),30.35,-89.82,37,8,,,,17,'KASD 041553Z AUTO 36007KT 10SM CLR 03/M08 A3036 RMK AO2 SLP280 T00281083'
20180104,1600,ROS,RUSH_CITY,45.70,-92.95,-10,5,,,,-15,'KROS 041555Z AUTO 01004KT 10SM SCT004 SCT070 SCT090 M24/M26 A3043 RMK AO2 T12361261'
20180104,1600,BPK,BAXTER_COUNTY_ARPT_(ASOS),36.37,-92.47,18,5,,,,6,'KBPK 041553Z AUTO VRB04KT 10SM CLR M08/M14 A3039 RMK AO2 SLP304 T10781144'
20180104,1600,LLQ,MONTICELLO_ARPT_(ASOS),33.64,-91.75,31,7,,,,13,'KLLQ 041553Z AUTO 04006KT 10SM CLR M01/M11 A3040 RMK AO2 SLP299 T10061106'
20180104,1600,HKA,BLYTHEVILLE_ARPT_(ASOS),35.94,-89.83,19,16,,,,7,'KHKA 041553Z AUTO 01014KT 10SM CLR M07/M14 A3044 RMK AO2 SLP311 T10721139 $'
20180104,1600,CHO,CHARLOTTESVILLE_APRT_(ASOS),38.14,-78.45,26,14,25,30,30,4,'KCHO 041553Z 33012G22KT 290V360 10SM BKN050 M03/M16 A2977 RMK AO2 PK WND 33026/1531 SLP086 T10331156'
20180104,1600,DPL,KENANSVILLE/DUPLIN_COUNTY,35.00,-77.98,30,15,23,,23,12,'KDPL 041545Z AUTO 30013G20KT 10SM CLR M01/M11 A2982 RMK AO2'
20180104,1600,HFF,MACKALL_AAF,35.03,-79.50,28,14,23,,23,12,'KHFF 041556Z AUTO 31012G18KT 10SM -SHRA CLR M01/M11 A2985 RMK AO2 RAB46E48RAB48E49SHRAB49 SLP128 P0006 T10151108 $'
20180104,1600,RUE,RUSSELLVILLE_MCPL_(ASOS),35.25,-93.09,28,8,,,,10,'KRUE 041553Z AUTO 01007KT 10SM CLR M02/M12 A3041 RMK AO2 SLP300 T10221122'
20180104,1600,AKH,GASTONIA_MCPL_(ASOS),35.19,-81.15,32,8,17,,17,5,'KAKH 041554Z AUTO 31007G15KT 280V340 10SM CLR 00/M15 A2990 RMK AO2 SNB1458E11B28E46 SLP133 P0000 T00001150'
20180104,1600,PSF,PITTSFIELD_MCPL_APRT_(ASOS),42.42,-73.29,19,12,,,,15,'KPSF 041554Z AUTO 33010KT 1/4SM SN FZFG VV006 M07/M09 A2946 RMK AO2 PRESFR SLP000 P0007 T10721094'
20180104,1600,EQY,MONROE_AIRPORT_(ASOS),35.02,-80.62,32,20,31,31,31,8,'KEQY 041553Z AUTO 33017G27KT 10SM CLR 00/M13 A2987 RMK AO2 PK WND 33027/1553 SLP140 T00001133'
20180104,1600,OVS,BOSCOBEL_(ASOS),43.16,-90.68,0,0,,,,-4,'KOVS 041553Z AUTO 00000KT 10SM CLR M18/M20 A3041 RMK AO2 SLP319 T11781200'
20180104,1600,PTW,POTTSTOWN_LIMERICK_(ASOS),40.24,-75.55,20,15,26,33,33,16,'KPTW 041554Z AUTO 32013G23KT 1SM -SN BR FEW017 OVC021 M07/M09 A2953 RMK AO2 PK WND 32029/1456 SLP003 P0000 T10671089'
20180104,1600,HWO,NORTH_PERRY_ARPT_(ASOS),25.99,-80.24,52,18,25,,25,28,'KHWO 041553Z 34016G22KT 10SM CLR 11/M02 A3017 RMK AO2 SLP218 T01111022'
20180104,1600,AKR,AKRON_FULTON_INTL_ARPT_(ASOS),41.04,-81.46,13,16,25,,25,5,'KAKR 041554Z AUTO 31014G22KT 1 3/4SM -SN BKN023 OVC033 M11/M15 A2999 RMK AO2 SLP174 P0000 T11061150 $'
20180104,1600,CDW,CALDWELL/ESSEX_CO_(ASOS),40.88,-74.28,22,12,22,,22,20,'KCDW 041553Z 34010G19KT 320V030 1/4SM SN FZFG VV008 M06/M07 A2944 RMK AO2 SLP975 P0003 T10561067'
20180104,1600,SAW,K._I._SAWYER_AFB,46.35,-87.40,3,12,,,,-2,'KSAW 041547Z 32010KT 1SM SN SCT006 BKN016 OVC031 M16/M19 A3022'
20180104,1600,SMQ,SOMERSET_AIRPORT_(ASOS),40.62,-74.67,22,23,31,32,32,19,'KSMQ 041553Z AUTO 34020G27KT 1/4SM SN FZFG VV018 M06/M07 A2944 RMK AO2 PK WND 34028/1525 SLP972 P0001 T10561072'
20180104,1600,MRN,MORGANTON-LENOIR_AIRPORT,35.82,-81.61,26,21,29,,29,3,'KMRN 041545Z AUTO 30018G25KT 10SM CLR M03/M16 A2995 RMK AO2 T10341162'
20180104,1600,MWK,MOUNT_AIRY/SURRY_COUNTY_APRT,36.46,-80.55,25,13,31,,31,-3,'KMWK 041545Z AUTO 31011G27KT 10SM CLR M04/M19 A2987 RMK AO2 T10391193'
20180104,1600,OCW,WASHINGTON/WARREN_FIELD_APRT,35.57,-77.05,30,14,21,,21,15,'KOCW 041545Z AUTO 30012G18KT 10SM CLR M01/M10 A2976 RMK AO2 T10101096'
20180104,1600,P58,PORT_HOPE_(ASOS),44.02,-82.79,9,21,32,33,33,3,'KP58 041551Z AUTO 31018G28KT M13/M16 A3007 RMK AO1 PK WND 30029/1534 SLP202 T11281161'
20180104,1600,PDC,PRAIRIE_DU_CHIEN_MUNI_APRT,43.02,-91.12,-1,5,,,,-10,'KPDC 041555Z AUTO 30004KT 10SM CLR M18/M23 A3042 RMK AO2 T11851231'
20180104,1600,VDI,VIDALIA_MUNI_APRT,32.19,-82.37,37,13,17,,17,14,'KVDI 041555Z AUTO 28011G15KT 10SM CLR 03/M10 A3004 RMK AO2'
20180104,1600,GEV,ASHE_COUNTY_ARPT,36.43,-81.42,10,29,36,,36,-2,'KGEV 041550Z AUTO 33025G31KT 10SM OVC021 M12/M19 A2972 RMK AO2 T11231189'
20180104,1600,HBI,ASHEBORO_MUNI_ARPT,35.65,-79.90,28,10,23,,23,7,'KHBI 041600Z AUTO 30009G20KT 270V330 10SM CLR M02/M14 A2987 RMK AO2 T10231138'
20180104,1600,HRJ,ERWIN/HARNETT_COUNTY_ARPT,35.38,-78.73,30,9,18,,18,8,'KHRJ 041545Z AUTO 30008G16KT 270V340 10SM CLR M01/M14 A2983 RMK AO2 T10101136'
20180104,1600,MMK,MERIDEN/MARKHAM_MUNI_(ASOS),41.51,-72.83,24,16,32,33,33,21,'KMMK 041553Z AUTO 36014G28KT 1/4SM SN FZFG VV007 M04/M06 A2934 RMK AO2 PK WND 36029/1506 SLP937 P0004 T10441061'
20180104,1600,SRC,SEARCY_MUNI_AIRPORT,35.21,-91.74,26,12,,,,9,'KSRC 041556Z AUTO 36010KT 10SM CLR M03/M13 A3043 RMK AO2 SLP315 T10331128 FZRANO'
20180104,1600,IGX,WILLIAMS_AIRPORT_(ASOS),35.77,-79.06,28,14,24,30,30,6,'KIGX 041556Z AUTO 31012G21KT 10SM CLR M02/M14 A2982 RMK AO2 PK WND 29026/1501 SLP102 T10221144'
20180104,1600,DYL,DOYLESTOWN_AIRPORT_(ASOS),40.33,-75.12,21,16,31,33,33,18,'KDYL 041554Z AUTO 33014G27KT 1/2SM SN FZFG VV015 M06/M08 A2945 RMK AO2 PK WND 32029/1519 SLP984 P0000 T10611078'
20180104,1600,OXB,OCEAN_CITY_MUNI_(ASOS),38.31,-75.12,23,24,43,43,43,21,'KOXB 041553Z AUTO 32021G37KT 1/4SM FZFG VV009 M05/M06 A2941 RMK AO2 PK WND 33037/1545 SLP957 T10501061 PWINO FZRANO'
20180104,1600,HWV,BROOKHAVEN_AIRPORT_(ASOS),40.82,-72.87,26,35,49,52,52,25,'KHWV 041556Z AUTO 35026G45KT 1/2SM SN FZFG VV007 M03/M04 A2920 RMK AO2 PK WND 36045/1551 SNB19 PRESFR SLP888 P0002 T10331039 $'
20180104,1600,MPO,POCONO_MNTS_MUNIL_ARPT_(ASOS),41.14,-75.38,14,29,39,43,43,10,'KMPO 041553Z AUTO 33023G37KT 1SM -SN BR BKN038 OVC047 M10/M12 A2945 RMK AO2 PK WND 33037/1548 SLP005 P0000 T11001122'
20180104,1600,LDM,LUDINGTON/MASON_APRT,43.96,-86.41,10,5,,,,7,'KLDM 041555Z AUTO 04004KT 3/4SM -SN OVC011 M12/M14 A3021 RMK AO2 T11201140'
20180104,1600,LKU,LOUISA_COUNTY,38.01,-77.97,25,14,28,,28,7,'KLKU 041555Z AUTO 33012G24KT 10SM SCT040 BKN046 OVC095 M04/M14 A2979 RMK AO2'
20180104,1600,MOP,MOUNT_PLEASANT_MUNI_APRT,43.62,-84.74,10,13,20,,20,-3,'KMOP 041555Z AUTO 34011G17KT 10SM OVC030 M12/M19 A3014 RMK AO2 T11221195'
20180104,1600,MZH,MOOSE_LAKE,46.42,-92.80,-13,0,,,,-18,'KMZH 041555Z AUTO 00000KT 10SM CLR M25/M28 A3038 RMK AO2'
20180104,1600,NSE,WHITING_FLD_NAS-N.,30.72,-87.02,34,10,20,,20,13,'KNSE 041556Z 33009G17KT 10SM FEW250 01/M11 A3028 RMK AO2 SLP245 FU DSNT NE T00111106 $'
20180104,1600,PGV,PITT-GREENVILLE_APRT,35.63,-77.40,32,7,10,,10,14,'KPGV 041550Z AUTO 31006G09KT 10SM CLR 00/M10 A2980 RMK AO2'
20180104,1600,RRL,MERRILL_MUNI_AIRPORT,45.18,-89.70,2,5,,,,-5,'KRRL 041555Z AUTO 36004KT 10SM OVC022 M17/M20 A3029 RMK AO2 T11671205'
20180104,1600,TOI,TROY_MUNICIPAL_(ASOS),31.87,-86.02,32,13,,,,12,'KTOI 041553Z AUTO 30011KT 10SM CLR 00/M11 A3022 RMK AO2 SLP234 T00001111'
20180104,1600,DAW,SKYHAVEN_AIRPORT_(ASOS),43.27,-70.92,21,12,23,,23,19,'KDAW 041551Z AUTO 36010G20KT 1/2SM FZFG VV009 M06/M07 A2949 RMK AO2 SNEMM SLP989 P0000 T10611072 PWINO FZRANO $'
20180104,1600,ELZ,WELLSVILLE_MUNI_AIRPORT_(ASOS),42.11,-77.98,15,14,,,,7,'KELZ 041556Z AUTO 33012KT 1 1/4SM -SN BKN015 BKN020 OVC024 M09/M14 A2972 RMK AO2 SLP100 P0000 T10941139'
20180104,1600,FIG,CLEARFIELD-LAWRENCE_ARPT_(ASOS),41.04,-78.41,17,10,,,,10,'KFIG 041554Z AUTO 30009KT 1SM -SN VV020 M08/M12 A2976 RMK AO2 SLP106 P0000 T10831122'
20180104,1600,NYC,NEW_YORK_CITY,40.77,-73.98,23,17,32,33,33,21,'KNYC 041551Z AUTO 34015G28KT 300V020 1/4SM SN FZFG VV008 M05/M06 A2943 RMK AO2 PK WND 34029/1456 SLP958 P0004 T10501061 $'
20180104,1600,RUQ,ROWAN_COUNTY_AIRPORT,35.65,-80.52,28,16,22,,22,5,'KRUQ 041545Z AUTO 34014G19KT 290V350 10SM CLR M02/M15 A2987 RMK AO2 T10201150'
20180104,1600,DSV,DANSVILLE_MUNI_AIRPORT_(ASOS),42.57,-77.71,19,13,,,,11,'KDSV 041554Z AUTO 33011KT 10SM OVC022 M07/M12 A2982 RMK AO2 SLP116 T10721117'
20180104,1600,CEU,OCONEE_COUNTY_REGL_ARPT_(ASOS),34.67,-82.88,32,15,23,,23,5,'KCEU 041554Z AUTO 31013G20KT 10SM CLR 00/M15 A2994 RMK AO2 SLP144 T00001150'
20180104,1600,BVE,BOOTHVILLE_(ASOS),29.33,-89.40,41,7,,,,23,'KBVE 041551Z AUTO VRB06KT 10SM CLR 05/M05 A3036 RMK AO2 SLP282 T00501050'
20180104,1600,VPC,CARTERSVILLE_AIRPORT_(ASOS),34.13,-84.85,27,8,,,,11,'KVPC 041553Z AUTO 32007KT 280V350 10SM CLR M03/M12 A3013 RMK AO2 SLP205 T10281117'
20180104,1600,HBG,CHAIN_MUNICIPAL_AIRPORT_(ASOS),31.27,-89.26,34,9,,,,17,'KHBG 041553Z AUTO 35008KT 10SM CLR 01/M08 A3035 RMK AO2 SLP279 T00111083'
20180104,1600,EXX,LEXINGTON_DAVIDSON_COUNTY_AIRP,35.78,-80.30,29,15,25,,25,5,'KEXX 041545Z AUTO 32013G22KT 280V350 10SM CLR M02/M15 A2986 RMK AO2 T10171150'
20180104,1600,GRD,GREENWOOD_COUNTY_AIRPORT_(ASOS),34.25,-82.16,32,13,17,,17,11,'KGRD 041556Z AUTO 27011G15KT 10SM UP CLR 00/M12 A2996 RMK AO2 UPE03B33 SLP151 P0000 T00001117'
20180104,1600,HKS,HAWKINS_FIELD_(ASOS),32.34,-90.22,32,6,,,,15,'KHKS 041553Z VRB05KT 10SM CLR 00/M09 A3036 RMK AO2 SLP279 T00001094 $'
20180104,1600,IER,NATTCHITOCHES_REGIONAL_AIRPORT,31.74,-93.10,36,7,,,,20,'KIER 041555Z AUTO 08006KT 10SM CLR 02/M07 A3041 RMK AO2 T00221067'
20180104,1600,LGC,LA_GRANGE,33.00,-85.00,32,14,20,,20,10,'KLGC 041555Z AUTO 31012G17KT 10SM CLR 00/M12 A3014 RMK AO2 T00001122'
20180104,1600,OMH,ORANGE_COUNTY_AIRPORT,38.25,-78.05,27,16,31,,31,7,'KOMH 041555Z AUTO 33014G27KT 280V350 10SM SCT044 SCT060 OVC090 M03/M14 A2976 RMK AO2'
20180104,1600,TNB,WATAUGA_CNTY_HOSP_HELIP,36.20,-81.65,11,17,44,,44,0,'KTNB 041555Z AUTO 32015G38KT 4SM -SN CLR M12/M18 A2976 RMK AO2 T11181179'
20180104,1600,UDG,DARLINGTON,34.45,-79.88,33,6,,,,14,'KUDG 041556Z AUTO 29005KT 10SM 01/M10 A2990 RMK AO2 SLP132 T00061100 FZRANO'
20180104,1600,AYS,WAYCROSS/WARE_CO.,31.25,-82.40,36,14,,,,14,'KAYS 041555Z AUTO 29012KT 10SM CLR 02/M10 A3008 RMK AO2 T00201102'
20180104,1600,FWN,SUSSEX_AIRPORT_(ASOS),41.18,-74.62,21,8,21,,21,17,'KFWN 041553Z AUTO 36007G18KT 320V030 1/2SM SN FZFG VV011 M06/M08 A2948 RMK AO2 PRESFR SLP990 P0003 T10611083'
20180104,1600,IPJ,LINCOLNTON,35.48,-81.16,30,15,23,,23,3,'KIPJ 041550Z AUTO 32013G20KT 300V360 10SM CLR M01/M16 A2989 RMK AO2 T10131160'
20180104,1600,JNX,SMITHFIELD,35.54,-78.38,32,8,18,,18,10,'KJNX 041600Z AUTO 34007G16KT 210V030 10SM CLR 00/M12 A2982 RMK AO2'
20180104,1600,LZU,LAWRENCEVILLE,33.98,-83.96,28,10,17,,17,10,'KLZU 041556Z 29009G15KT 260V340 10SM CLR M02/M12 A3003 RMK AO2 SLP178 T10221122 $'
20180104,1600,MSSS,ILOPANGO/S.SALVADOR,13.70,-89.12,75,13,,,,55,'MSSS 041550Z 36011KT CAVOK 24/13 Q1018 A3009'
20180104,1600,RNH,NEW_RICHMOND,45.15,-92.54,-10,0,,,,-16,'KRNH 041555Z AUTO 00000KT 10SM SCT004 M23/M26 A3041 RMK AO2 T12321265'
20180104,1600,RYY,MARIETTA,34.01,-84.60,26,15,21,,21,11,'KRYY 041548Z 31013G18KT 10SM CLR M03/M12 A3008 RMK AO2 SLP911 T10331117'
20180104,1600,TDF,ROXBORO,36.28,-78.98,27,17,23,,23,3,'KTDF 041545Z AUTO 30015G20KT 270V330 10SM CLR M03/M16 A2982 RMK AO2'
20180104,1600,VUJ,ALBEMARLE,35.42,-80.15,31,18,26,,26,6,'KVUJ 041545Z AUTO 33016G23KT 10SM CLR M01/M15 A2991 RMK AO2 T10081147'
20180104,1600,WDR,WINDER,33.98,-83.67,32,13,22,,22,9,'KWDR 041555Z AUTO 32011G19KT 10SM CLR 00/M13 A3004 RMK AO1'
20180104,1600,WST,WESTERLY_STATE_ARPT_(ASOS),41.35,-71.80,31,22,33,38,38,30,'KWST 041553Z AUTO 36019G29KT 1/4SM SN FZFG VV005 M01/M01 A2914 RMK AO2 PK WND 36033/1520 SNB12SNEMMB21SNEMMB42 PRESFR SLP869 P0009 T10061011 $'
20180104,1600,BUU,BURLINGTON_MUNI_ARPT,42.68,-88.30,2,9,,,,-9,'KBUU 041555Z AUTO 34008KT 10SM CLR M17/M22 A3031 RMK AO2 T11671225'
20180104,1600,CKV,CLARKSVILLE/OUTLAW_FIELD,36.62,-87.42,13,9,,,,1,'KCKV 041552Z AUTO 30008KT 10SM CLR M11/M17 A3035 RMK AO2 SLP285 T11061172'
20180104,1600,CMY,MCCOY_(USA-AF),43.97,-90.73,-4,0,,,,-9,'KCMY 041555Z AUTO 00000KT 10SM CLR M20/M23 A3039 RMK AO2 T12001230'
20180104,1600,CVX,CHARLEVOIX_MUNI_AIRPORT,45.30,-85.27,0,12,21,,21,-5,'KCVX 041555Z AUTO 02010G18KT 360V060 2SM HZ OVC016 M18/M21 A3027 RMK AO2 T11771206'
20180104,1600,HYX,SAGINAW_CNTY_HW_BROWNE_AIRPORT,43.43,-83.86,5,14,17,,17,-4,'KHYX 041555Z AUTO 35012G15KT 10SM SCT027 M15/M20 A3016 RMK AO2'
20180104,1600,ISM,KISSIMMEE_MUNI_AIRPORT,28.29,-81.44,46,12,,,,21,'KISM 041556Z 30010KT 10SM CLR 08/M06 A3017 RMK AO2 SLP219 T00781061'
20180104,1600,JQF,CONCORD,35.38,-80.71,32,13,22,,22,7,'KJQF 041550Z 31011G19KT 10SM CLR 00/M14 A2990'
20180104,1600,MDLR,LA_ROMANA_INTL_ARPT,18.42,-68.95,86,12,,,,77,'MDLR 041600Z 18010KT 9999 SCT022 30/25 Q1016'
20180104,1600,SUA,STUART/WITHAM_FIELD_AIRPORT,27.18,-80.22,48,12,18,,18,25,'KSUA 041555Z 31010G16KT 7SM SKC 09/M04 A3017'
20180104,1600,TTA,SANFORD-LEE_COUNTY_RGNL_AIRPORT,35.58,-79.10,28,9,20,,20,11,'KTTA 041550Z AUTO 31008G17KT 10SM CLR M02/M12 A2983 RMK AO2 T10231118'
20180104,1600,VDF,TAMPA/VANDENBURG_AIRPORT,28.02,-82.35,46,8,,,,30,'KVDF 041555Z AUTO 30007KT 10SM CLR 08/M01 A3019 RMK AO2'
20180104,1600,VQQ,CECIL_FIELD_NAS,30.22,-81.88,39,10,,,,16,'KVQQ 041550Z 30009KT 10SM CLR 04/M09 A3011'
20180104,1600,CTZ,CLINTON,34.98,-78.37,31,12,22,,22,12,'KCTZ 041545Z AUTO 29010G19KT 260V320 10SM CLR 00/M11 A2984 RMK AO2 P0001 T10031113'
20180104,1600,IKK,KANKAKEE,41.06,-87.85,1,12,,,,-8,'KIKK 041555Z AUTO 31010KT 10SM CLR M17/M22 A3032 RMK AO2 T11721220'
20180104,1600,TBR,STATESBORO,32.48,-81.73,36,12,22,,22,10,'KTBR 041555Z AUTO 30010G19KT 10SM CLR 02/M12 A3001 RMK AO2 T00211120'
20180104,1600,1H2,EFFINGHAM,39.07,-88.53,7,8,,,,-1,'K1H2 041555Z AUTO 29007KT 10SM CLR M14/M18 A3039 RMK AO2 T11371181'
20180104,1600,AAA,LINCOLN/LOGAN_CO,40.16,-89.33,0,6,,,,-6,'KAAA 041555Z AUTO 32005KT 10SM CLR M18/M21 A3039 RMK AO2 T11771212'
20180104,1600,C09,MORRIS,41.43,-88.42,0,6,,,,-8,'KC09 041555Z AUTO 33005KT 10SM CLR M18/M22 A3034 RMK AO2 T11771222'
20180104,1600,C75,LACON/MARSHALL_CO,41.02,-89.39,-2,3,,,,-9,'KC75 041555Z AUTO 31003KT 10SM CLR M19/M23 A3039 RMK AO2'
20180104,1600,DKB,DE_KALB,41.93,-88.72,-2,8,,,,-9,'KDKB 041555Z AUTO 32007KT 10SM CLR M19/M22 A3032 RMK AO2 T11901225'
20180104,1600,DNV,DANVILLE/VERMILION,40.20,-87.60,-1,16,,,,-8,'KDNV 041555Z AUTO 31014KT 10SM CLR M18/M22 A3028 RMK AO2 T11831222'
20180104,1600,FDK,FREDERICK_MUNI_APT,39.41,-77.37,25,17,23,,23,12,'KFDK 041547Z 33015G20KT 4SM OVC041 M04/M11 A2976'
20180104,1600,FEP,FREEPORT,42.25,-89.58,-1,7,,,,-9,'KFEP 041555Z AUTO 34006KT 10SM CLR M19/M22 A3037 RMK AO2 T11861225'
20180104,1600,FOA,FLORA,38.67,-88.45,10,9,,,,0,'KFOA 041555Z AUTO 32008KT 10SM CLR M12/M18 A3038 RMK AO2 T11251176'
20180104,1600,FWC,FAIRFIELD,38.38,-88.42,9,0,,,,0,'KFWC 041555Z AUTO 00000KT 10SM CLR M13/M18 A3038 RMK AO1 T11271179'
20180104,1600,GBG,GALESBURG,40.94,-90.43,-3,0,,,,-7,'KGBG 041555Z AUTO 00000KT 10SM SCT110 M19/M22 A3040 RMK AO2 T11921216'
20180104,1600,HSB,HARRISBURG,37.82,-88.55,11,5,,,,2,'KHSB 041555Z AUTO 33004KT 10SM CLR M12/M17 A3040 RMK AO2 T11181168'
20180104,1600,IGQ,CHICAGO_(LANSING),41.54,-87.53,7,12,,,,1,'KIGQ 041555Z AUTO 32010KT 10SM -SN SCT016 M14/M17 A3029 RMK AO2 T11401175'
20180104,1600,IJX,JACKSONVILLE,39.78,-90.23,2,6,,,,-6,'KIJX 041555Z AUTO 32005KT 10SM CLR M17/M21 A3041 RMK AO2 T11681210'
20180104,1600,JOT,JOLIET_PARK_DISTRICT,41.52,-88.18,4,7,,,,-6,'KJOT 041555Z AUTO 33006KT 10SM CLR M16/M21 A3034 RMK AO2 T11581211'
20180104,1600,LOT,CHICAGO/ROMEOVILLE,41.61,-88.09,4,12,,,,-5,'KLOT 041555Z AUTO 34010KT 10SM CLR M15/M21 A3032 RMK AO2 T11541208'
20180104,1600,MQB,MACOMB,40.52,-90.65,-1,8,,,,-6,'KMQB 041555Z AUTO 34007KT 10SM SCT120 M18/M21 A3043 RMK AO2 T11841213'
20180104,1600,NAK,ANNAPOLIS,38.98,-76.48,26,22,36,41,41,17,'KNAK 041554Z AUTO 31019G31KT 5SM -SN BKN037 OVC047 M03/M08 A2960 RMK AO2 PK WND 33036/1509 UPB09E11SNE09B11 SLP026 P0000 T10331083 $'
20180104,1600,OLY,OLNEY-NOBLE,38.73,-88.18,8,8,,,,-2,'KOLY 041555Z AUTO 32007KT 10SM CLR M13/M19 A3037 RMK AO2 T11331191'
20180104,1600,PNT,PONTIAC,40.92,-88.63,-3,10,,,,-9,'KPNT 041555Z AUTO 31009KT 10SM CLR M20/M23 A3036 RMK AO2 T11971227'
20180104,1600,PPQ,PITTSFIELD,39.63,-90.78,5,3,,,,-3,'KPPQ 041555Z AUTO 31003KT 10SM SCT110 M15/M19 A3042 RMK AO2 T11501195'
20180104,1600,PRG,PARIS,39.70,-87.67,-1,10,17,,17,-7,'KPRG 041555Z AUTO 31009G15KT 7SM CLR M18/M21 A3033 RMK AO2 T11831215'
20180104,1600,SAR,SPARTA,38.15,-89.70,9,5,,,,1,'KSAR 041555Z AUTO 33004KT 10SM CLR M13/M17 A3041 RMK AO2 T11301173'
20180104,1600,SJX,BEAVER_ISLAND,45.69,-85.57,2,13,24,,24,-7,'KSJX 041555Z AUTO 03011G21KT 10SM BKN020 M17/M22 A3025 RMK AO2 T11681218'
20180104,1600,SLO,SALEM-LECKRONE,38.65,-88.97,9,9,,,,0,'KSLO 041555Z AUTO 30008KT 10SM CLR M13/M18 A3039 RMK AO2 T11261176'
20180104,1600,SUT,SOUTHPORT/BRUNSWICK,33.93,-78.07,31,7,,,,19,'KSUT 041545Z AUTO 31006KT 10SM CLR 00/M07 A2987 RMK AO2 T10031071'
20180104,1600,TAZ,TAYLORVILLE,39.53,-89.33,4,10,,,,-4,'KTAZ 041555Z AUTO 34009KT 10SM CLR M15/M20 A3040 RMK AO2 T11541202'
20180104,1600,TIP,RANTOUL/FRANK_ELLIOT_FLD,40.29,-88.14,-1,8,,,,-8,'KTIP 041555Z AUTO 32007KT 10SM CLR M18/M22 A3033 RMK AO2 T11851220'
20180104,1600,KACQ,WASECA_MUNI_AIRPORT,44.07,-93.55,3,0,,,,-6,'KACQ 041555Z AUTO 00000KT 10SM SCT050 BKN055 OVC065 M16/M21 A3040 RMK AO2'
20180104,1600,DUH,TOLEDO_SUBURBAN_ARPT,41.74,-83.66,10,10,,,,1,'KDUH 041555Z AUTO 33009KT 300V360 10SM BKN032 M12/M17 A3012 RMK AO2 T11211175'
20180104,1600,FPK,FITCH_BEACH_AIRPORT,42.57,-84.81,12,8,,,,4,'KFPK 041555Z AUTO 33007KT 10SM OVC019 M11/M16 A3012 RMK AO2 T11131157'
20180104,1600,GOV,GRAYLING_AAF_AIRPORT,44.68,-84.73,-1,16,26,,26,-11,'KGOV 041555Z AUTO 35014G23KT 5SM HZ SCT025 M18/M24 A3015 RMK AO2 T11811239'
20180104,1600,HDC,HAMMOND_MUNI_ARPT,30.52,-90.42,36,6,,,,18,'KHDC 041555Z AUTO 01005KT 10SM CLR 02/M08 A3038 RMK AO2'
20180104,1600,MGN,HARBOR_SPRINGS_AIRPORT,45.43,-84.91,-4,7,,,,-15,'KMGN 041555Z AUTO 36006KT 10SM CLR M20/M26 A3024 RMK AO2 T11991261'
20180104,1600,MTPP,PORT-AU-PRINCE_ARPT,18.57,-72.30,81,6,,,,73,'MTPP 041600Z 09005KT 9000 SCT018 OVC050 27/23 Q1014 A2996'
20180104,1600,RPJ,ROCHELLE_MUNI_ARPT/KORITZ_FIELD,41.89,-89.08,-2,10,,,,-9,'KRPJ 041555Z AUTO 34009KT 10SM CLR M19/M22 A3035 RMK AO2 T11871225'
20180104,1600,TUPJ,BEEF_ISL/ROADTOWN,18.45,-64.53,86,9,,,,73,'TUPJ 041600Z 17008KT 9999 BKN019 30/23 Q1017 RMK A3004'
20180104,1600,BGE,BAINBRIDGE/DECATUR_CO_INDUS,30.97,-84.64,37,12,,,,19,'KBGE 041555Z AUTO 31010KT 10SM CLR 03/M07 A3020 RMK AO2'
20180104,1600,CPC,COLUMBUS_CNTY_MUNI_ARPT,34.27,-78.71,33,9,,,,12,'KCPC 041545Z AUTO 29008KT 240V320 10SM CLR 00/M11 A2987 RMK AO2 T00041113'
20180104,1600,EMV,EMPORIA-GREENSVILLE_RGNL_ARPT,36.69,-77.48,30,14,23,,23,10,'KEMV 041555Z AUTO 28012G20KT 10SM SCT047 M01/M12 A2976 RMK AO2 P0001'
20180104,1600,FKA,PRESTON/FILLMORE_CO_ARPT,43.68,-92.18,-3,5,,,,-9,'KFKA 041555Z AUTO 35004KT 10SM OVC100 M19/M23 A3035 RMK AO2 T11941226'
20180104,1600,GWW,GOLDSBORO-WAYNE_MUNI_ARPT,35.46,-77.96,30,10,17,,17,12,'KGWW 041550Z AUTO 29009G15KT 10SM CLR M01/M11 A2980 RMK AO2 T10111111'
20180104,1600,HNZ,HENDERSON-OXFORD_ARPT,36.36,-78.53,26,18,26,,26,3,'KHNZ 041545Z AUTO 30016G23KT 10SM CLR M04/M16 A2979 RMK AO2 T10361162'
20180104,1600,MDQ,MADISON_CNTY_EXEC_ARPT,34.86,-86.56,21,13,,,,5,'KMDQ 041555Z AUTO 36011KT 10SM CLR M06/M15 A3025 RMK AO2'
20180104,1600,MPZ,MOUNT_PLEASANT_MUNI_AIRPORT,40.95,-91.51,1,5,,,,-6,'KMPZ 041555Z AUTO 33004KT 10SM SCT100 BKN120 M17/M21 A3042 RMK AO2'
20180104,1600,OKK,KOKOMO(AWOS),40.53,-86.07,8,10,,,,0,'KOKK 041556Z AUTO 28009KT 10SM CLR M13/M18 A3022 RMK AO2 SNB03E16 SLP255 P0000 T11331178 FZRANO'
20180104,1600,PEA,PELLA_MUNI_AIRPORT,41.40,-92.95,3,0,,,,-5,'KPEA 041555Z AUTO 00000KT 10SM CLR M16/M20 A3043 RMK AO2 T11611205'
20180104,1600,SLH,CHEBOYGAN_CNTY_ARPT,45.65,-84.52,-6,8,,,,-13,'KSLH 041555Z AUTO 34007KT 10SM CLR M21/M25 A3024 RMK AO2 T12131250'
20180104,1600,AWM,WEST_MEMPHIS_MUNI,35.13,-90.23,20,14,21,,21,9,'KAWM 041553Z AUTO 01012G18KT 10SM CLR M07/M13 A3042 RMK AO2 SLP306 T10671128'
20180104,1600,IIB,INDEPENDENCE_MUNICIPAL_AIRPORT,42.45,-91.95,1,3,,,,-7,'KIIB 041555Z AUTO 36003KT 10SM BKN120 M17/M21 A3038 RMK AO2 T11751215'
20180104,1600,LOM,PHILADELPHIA/WINGS_FIELD,40.14,-75.27,21,13,28,,28,18,'KLOM 041555Z AUTO 33011G24KT 290V360 3/4SM OVC008 M06/M08 A2950 RMK AO1'
20180104,1600,VTI,VINTON_VETERANS_MEMORIAL_AIRPARK,42.22,-92.03,2,0,,,,-5,'KVTI 041555Z AUTO 00000KT CLR M17/M21 A3040 RMK AO2 T11681207 PWINO'
20180104,1600,ALX,ALEXANDER_CITY,32.90,-85.95,29,13,17,,17,15,'KALX 041555Z AUTO 32011G15KT 10SM CLR M01/M09 A3018 RMK AO2 T10151094'
20180104,1600,JGG,WILLIAMSBURG,37.23,-76.72,25,20,31,,31,19,'KJGG 041555Z AUTO 31017G27KT 2SM BKN008 M04/M07 A2969 RMK AO1 VIS 1 1/4V3 P0001'
20180104,1600,LHZ,LOUISBURG/FRANKLIN_CNTY_ARPT,36.02,-78.33,28,13,21,,21,9,'KLHZ 041545Z AUTO 32011G18KT 290V360 10SM CLR M02/M13 A2982 RMK AO2'
20180104,1600,ONZ,DETROIT/GROSSE_ILE,42.10,-83.16,11,12,21,,21,0,'KONZ 041555Z AUTO 35010G18KT 10SM OVC031 M12/M18 A3010 RMK AO2 T11181180'
20180104,1600,W22,BUCKHANNON,39.00,-80.27,14,9,20,,20,7,'KW22 041555Z AUTO 31008G17KT 5SM -SN SCT019 OVC024 M10/M14 A2989 RMK AO2'
20180104,1600,MWCB,GERRARD_SMITH,19.68,-79.88,77,13,,,,64,'MWCB 041600Z 02011KT 9999 SCT018 25/18 Q1018'
20180104,1600,HQU,THOMSON,33.53,-82.52,32,17,24,,24,9,'KHQU 041555Z AUTO 36015G21KT 10SM CLR 00/M13 A3005 RMK AO2 T00021128'
20180104,1600,RHP,ANDREWS-MURPHY_AIRPORT,35.19,-83.86,24,5,,,,8,'KRHP 041545Z AUTO 04004KT 10SM SCT038 M04/M14 A3001 RMK AO2 T10451136'
20180104,1600,ASW,WARSAW_MUNI,41.27,-85.83,12,6,,,,7,'KASW 041555Z AUTO 29005KT 10SM SCT027 OVC046 M11/M14 A3018 RMK AO2'
20180104,1600,1A5,FRANKLIN,35.22,-83.42,23,13,23,,23,4,'K1A5 041545Z AUTO 29011G20KT 10SM CLR M05/M16 A2994 RMK AO2 T10511158'
20180104,1600,CUL,CARMI_MUNI_ARPT,38.09,-88.12,10,0,,,,1,'KCUL 041555Z AUTO 00000KT 10SM CLR M12/M17 A3038 RMK AO2 T11251173'
20180104,1600,DQH,DOUGLAS_MUNI_ARPT,31.48,-82.86,34,12,21,,21,12,'KDQH 041555Z AUTO 31010G18KT 10SM CLR 01/M11 A3010 RMK AO2'
20180104,1600,EHO,SHELBY_MUNI_ARPT,35.25,-81.60,29,14,21,,21,7,'KEHO 041545Z AUTO 33012G18KT 10SM CLR M02/M14 A2991 RMK AO2 T10161140'
20180104,1600,FYJ,WEST_POINT,37.52,-76.76,24,16,31,,31,16,'KFYJ 041555Z AUTO 30014G27KT 2SM BKN012 OVC019 M04/M09 A2970 RMK AO2 T10431087'
20180104,1600,HZX,MC_GREGOR,46.62,-93.31,-11,0,,,,-17,'KHZX 041555Z AUTO 00000KT 10SM CLR M24/M27 A3039 RMK AO2'
20180104,1600,LUM,MENOMONIE,44.89,-91.86,-7,3,,,,-12,'KLUM 041555Z AUTO 24003KT 10SM SCT003 M22/M24 A3041 RMK AO2 T12161244'
20180104,1600,MBPV,PROVIDENCIALES,21.77,-72.27,77,10,,,,-9999,'MBPV 041600Z 35009KT 9000 SCT012 BKN040 25/// Q1015'
20180104,1600,MDBH,BARAHONA,18.22,-71.10,77,7,,,,75,'MDBH 041600Z 13006KT 8000 VCSH BKN016 BKN300 25/24 Q1016'
20180104,1600,RMN,STAFFORD,38.40,-77.46,23,21,26,,26,18,'KRMN 041555Z AUTO 31018G23KT 1 3/4SM -SN OVC013 M05/M08 A2978 RMK AO2 T10501079'
20180104,1600,RSV,ROBINSON_MUNI_ARPT,39.02,-87.65,6,9,,,,-1,'KRSV 041555Z AUTO 31008KT 10SM CLR M14/M18 A3036 RMK AO2 T11421182'
20180104,1600,SFY,SAVANNA/TRI-TOWNSHIP_ARPT,42.05,-90.11,0,3,,,,-8,'KSFY 041555Z AUTO 30003KT 10SM CLR M18/M22 A3040 RMK AO2 T11781223'
20180104,1600,UKT,QUAKERTOWN_ARPT,40.44,-75.38,19,14,23,,23,18,'KUKT 041555Z AUTO 35012G20KT 320V030 1/2SM BKN001 OVC010 M07/M08 A2951 RMK AO1 P0001'
20180104,1600,4A9,FORT_PAYNE,34.47,-85.72,23,,,,,3,'K4A9 041555Z AUTO 10SM CLR M05/M16 A3017 RMK AO2'
20180104,1600,M30,METROPOLIS_MUNICIPAL_ARPT,37.19,-88.75,12,9,,,,1,'KDRM 041555Z AUTO 35004KT 10SM CLR M25/M30 A3022 RMK AO2 T12501300'
20180104,1600,AJG,MOUNT_CARMEL,38.61,-87.73,9,10,,,,0,'KAJG 041555Z AUTO 31009KT 10SM CLR M13/M18 A3035 RMK AO2 T11281178'
20180104,1600,1P1,PLYMOUTH,43.78,-71.75,10,0,,,,8,'K1P1 041555Z AUTO 00000KT 1/2SM SN OVC003 M12/M14 A2961 RMK AO2 P0008 T11231136'
20180104,1600,CIR,CAIRO,37.06,-89.22,12,9,,,,1,'KCIR 041555Z AUTO 02008KT 10SM CLR M11/M17 A3042 RMK AO2 T11101170'
20180104,1600,FKS,FRANKFORT,44.63,-86.20,12,9,,,,5,'KFKS 041555Z AUTO 36008KT 290V030 1 1/4SM -SN BKN006 BKN010 OVC013 M11/M15 A3022 RMK AO2 T11111148'
20180104,1600,HSA,BAY_ST._LOUIS,30.37,-89.45,36,10,,,,18,'KHSA 041550Z 01009KT 10SM CLR 02/M08 A3036'
20180104,1600,I16,PINEVILLE,37.60,-81.56,15,,,,,8,'KI16 041555Z AUTO 1 1/2SM -SN M09/M13 A3001 RMK AO2 T10951133'
20180104,1600,HXD,HILTON_HEAD_(AWOS),32.22,-80.70,30,0,,,,21,'KHXD 041550Z 00000KT 10SM SKC M01/M06 A3000 RMK HXD AIRPORT CLOSED. NOTAM 01/009.'
20180104,1600,LNL,LAND_O_LAKES,46.15,-89.21,1,7,,,,-5,'KLNL 041555Z AUTO 36006KT 4SM HZ OVC024 M17/M20 A3025 RMK AO2 T11701203'
20180104,1600,PCZ,WAUPACA,44.33,-89.01,5,7,,,,-6,'KPCZ 041555Z AUTO 31006KT 10SM CLR M15/M21 A3034 RMK AO2 T11481210'
20180104,1600,RCX,LADYSMITH,45.50,-91.00,-4,8,,,,-8,'KRCX 041555Z AUTO 34007KT 10SM SCT018 M20/M22 A3035 RMK AO2 T12001224'
20180104,1600,7N0,N.O_DOWNTOWN_HELIPORT,29.95,-90.08,38,9,,,,15,'K7N0 041556Z AUTO 02008KT 10SM CLR 03/M09 A3038 RMK AO2 SLP288 T00331094'
20180104,1600,RME,GRIFFISS_AFB/ROME,43.23,-75.40,14,5,,,,10,'KRME 041553Z 31004KT 1SM -SN BR BKN022 OVC033 M10/M12 A2976 RMK AO2 SLP086 P0000 T11001122 RVRNO'
20180104,1600,CGS,COLLEGE_PARK,39.00,-76.92,24,16,29,,29,12,'KCGS 041546Z AUTO 23014G25KT 10SM BKN025 OVC034 M04/M11 A2967 RMK AO1 T10451113'
20180104,1600,GAI,GAITHERSBURG,39.17,-77.17,21,15,29,31,31,15,'KGAI 041556Z AUTO 32013G25KT 2SM -SN OVC020 M06/M09 A2967 RMK AO2 PK WND 30027/1528 VIS 1 1/2V3 SLP079 P0000 T10611094 FZRANO'
20180104,1600,2W6,LEONARDTOWN,38.30,-76.55,25,15,31,,31,16,'K2W6 041546Z AUTO 29013G27KT 7SM BKN032 OVC039 M04/M09 A2964 RMK AO1'
20180104,1600,FME,ODENTON/TIPTON,39.06,-76.69,25,17,23,,23,14,'KFME 041545Z AUTO 31015G20KT 270V350 10SM SCT036 OVC041 M04/M10 A2967 RMK AO1'
20180104,1600,2G4,ACCIDENT/OAKLAND,39.63,-79.32,9,12,24,,24,5,'K2G4 041555Z AUTO 30010G21KT 272V332 1/2SM OVC003 M13/M15 A2963 RMK AO1'
20180104,1600,CGE,CAMBRIDGE,38.56,-76.07,23,24,33,,33,19,'KCGE 041545Z AUTO 31021G29KT 1SM BR BKN016 BKN022 M05/M07 A2956 RMK A01'
20180104,1600,ESN,EASTON,38.80,-76.07,25,29,39,,39,19,'KESN 041550Z 32025G34KT 1 1/2SM -SN OVC007 M04/M07 A2959'
20180104,1600,W29,STEVENSVILLE,38.97,-76.34,25,,,,,18,'KW29 041545Z AUTO 1SM -SN OVC024 M04/M08 A2960 RMK AO2'
20180104,1600,CBE,CUMBERLAND,39.62,-78.77,,15,23,,23,-9999,'KCBE 041546Z AUTO 32013G20KT 291V001 10SM SCT008 SCT015 SCT038 A2986 RMK AO1'
20180104,1600,3I2,POINT_PLEASANT,38.85,-82.12,18,8,,,,11,'K3I2 041555Z AUTO 26007KT 7SM SCT001 BKN022 BKN027 M08/M12 A3010 RMK AO2 T10761117'
20180104,1600,DBN,DUBLIN,32.54,-82.89,36,14,,,,9,'KDBN 041555Z AUTO 32012KT 10SM CLR 02/M13 A3009 RMK AO2'
20180104,1600,3J7,GREENSBORO,33.56,-83.08,32,9,17,,17,12,'K3J7 041555Z AUTO 27008G15KT 250V310 10SM CLR 00/M11 A2998 RMK AO2'
20180104,1600,MLJ,MILLEDGEVILLE,33.05,-83.23,34,14,23,,23,14,'KMLJ 041555Z AUTO 32012G20KT 10SM CLR 01/M10 A3006 RMK AO2'
20180104,1600,BQP,BASTROP,32.78,-91.90,33,6,,,,15,'KBQP 041555Z AUTO 06005KT 10SM CLR 01/M10 A3041 RMK AO2 T00071097'
20180104,1600,DRI,DE_RIDDER,30.83,-93.28,36,8,,,,17,'KDRI 041555Z AUTO 07007KT 10SM CLR 02/M08 A3042 RMK AO2 T00221085'
20180104,1600,GAO,GALLIANO,29.43,-90.29,39,6,,,,14,'KGAO 041555Z AUTO 04005KT 10SM CLR 04/M10 A3038 RMK AO2 T00391098'
20180104,1600,ACP,OAKDALE,30.82,-92.67,37,3,,,,18,'KACP 041555Z AUTO 03003KT 10SM CLR 03/M08 A3040 RMK AO2 T00271076'
20180104,1600,UTA,TUNICA,34.68,-90.35,23,15,,,,12,'KUTA 041555Z AUTO 01013KT 10SM M05/M11 A3042 RMK AO2 TSNO'
20180104,1600,8A0,ALBERTVILLE,34.26,-86.20,23,14,,,,12,'K8A0 041555Z AUTO 33012KT 10SM CLR M05/M11 A3018 RMK AO2'
20180104,1600,JKA,GULF_SHORES,30.29,-87.67,36,5,,,,15,'KJKA 041555Z AUTO 34004KT 10SM CLR 02/M09 A3030 RMK AO2 T00211095'
20180104,1600,1M4,HALEYVILLE,34.23,-87.63,22,13,,,,9,'K1M4 041556Z AUTO 35011KT 10SM CLR M06/M13 A3028 RMK AO2 SLP277 T10561128'
20180104,1600,M19,NEWPORT,35.60,-91.28,21,10,,,,9,'KVLL 041555Z AUTO 32015G21KT 3SM HZ OVC028 M12/M19 A3011 RMK AO2 T11251186'
20180104,1600,GYH,GREENVILLE,34.76,-82.38,32,0,,,,9,'KGYH 041547Z 00000KT 10SM SKC 00/M13 A2992'
20180104,1600,1A6,MIDDLESBORO,36.61,-83.71,19,13,16,,16,10,'K1A6 041555Z AUTO 32011G14KT 10SM -SN BKN029 BKN034 OVC048 M07/M12 A3014 RMK AO2 T10721125'
20180104,1600,EKQ,MONTICELLO,36.87,-84.83,17,8,,,,6,'KEKQ 041556Z AUTO 31007KT 10SM BKN022 M08/M14 A3023 RMK AO2 SLP267 T10831144'
20180104,1600,UNI,ALBANY,39.20,-82.22,17,9,20,,20,9,'KUNI 041555Z AUTO 31008G17KT 10SM OVC041 M08/M13 A3007 RMK AO2 T10831130'
20180104,1600,4I3,MOUNT_VERNON,40.33,-82.52,12,13,25,,25,7,'K4I3 041556Z AUTO 32011G22KT 10SM SCT016 BKN033 M11/M14 A3005 RMK AO2'
20180104,1600,SGH,SPRINGFIELD,39.94,-83.81,12,15,,,,3,'KSGH 041556Z AUTO 34013KT 10SM FEW025 OVC040 M11/M16 A3012 RMK AO2 SNE02 SLP221 P0000 T11111161'
20180104,1600,CFS,CARO,43.45,-83.40,2,15,22,,22,-7,'KCFS 041555Z AUTO 33013G19KT 5SM HZ SCT025 M16/M21 A3014 RMK AO2 T11651215'
20180104,1600,DRM,DRUMMOND_ISLAND,46.01,-83.74,-13,5,,,,-22,'KDRM 041555Z AUTO 35004KT 10SM CLR M25/M30 A3022 RMK AO2 T12501300'
20180104,1600,RNP,OWOSSO,42.93,-84.16,9,13,21,,21,-1,'KRNP 041555Z AUTO 32011G18KT 7SM BKN027 OVC032 M13/M19 A3014 RMK AO2 T11281186'
20180104,1600,PZQ,ROGERS/PRESQUE_ISLE,45.42,-83.80,0,14,18,,18,-5,'KPZQ 041555Z AUTO 34012G16KT 1 1/4SM -SN OVC012 M18/M20 A3020 RMK AO2 T11801205'
20180104,1600,LWA,SOUTH_HAVEN,42.35,-86.25,15,6,,,,10,'KLWA 041555Z AUTO 03005KT 1/4SM SN OVC003 M10/M12 A3019 RMK AO2 T10961120'
20180104,1600,HAI,THREE_RIVERS,41.94,-85.62,14,6,,,,5,'KHAI 041555Z AUTO 31005KT 10SM SCT044 SCT050 M10/M15 A3017 RMK AO2 T10991148'
20180104,1600,VLL,TROY/OAKLAND,42.58,-83.13,10,17,24,,24,-1,'KVLL 041555Z AUTO 32015G21KT 3SM HZ OVC028 M12/M19 A3011 RMK AO2 T11251186'
20180104,1600,MJX,TOMS_RIVER,39.93,-74.18,24,21,31,,31,22,'KMJX 041556Z AUTO 33018G27KT 1/4SM +SN FZFG OVC003 M04/M06 A2933 RMK AO2 SLP938 P0000 T10441056 FZRANO'
20180104,1600,KGBK,MAGNOLIA_(AWOS-3),27.20,-92.20,52,0,20,,20,36,'KGBK 041555Z AUTO 00000G17KT 10SM SCT040 11/02 A3037 RMK A01'
20180104,1600,KSPR,SHIP_SHOAL_(AWOS-3),28.60,-91.21,43,16,,,,21,'KSPR 041555Z AUTO 04014KT 10SM CLR 06/M06 A3037 RMK A01'
20180104,1600,KGUL,GUNNISON_(AWOS-3),27.30,-93.53,55,0,,,,37,'KGUL 041555Z AUTO 00000KT 10SM FEW041 13/03 A3037 RMK A01'
20180104,1600,KDLP,WEST_DELTA_(AWOS-3),29.12,-89.55,39,9,17,,17,21,'KDLP 041555Z AUTO 02008G15KT 350V060 10SM CLR 04/M06 A3035 RMK A01'
20180104,1600,KEHC,EAST_CAMERON_(AWOS-3),28.43,-92.88,57,5,,,,37,'KEHC 041555Z AUTO 34004KT 10SM CLR 14/03 A3036 RMK A01'
20180104,1600,KSCF,SOUTH_MARSH_(AWOS-3),29.12,-91.87,41,12,,,,27,'KSCF 041555Z AUTO 03010KT 10SM CLR 05/M03 A3041 RMK A01'
20180104,1600,KEIR,EUGENE_ISLAND_(AWOS-3),28.63,-91.49,43,13,,,,21,'KEIR 041555Z AUTO 06011KT 10SM 06/M06 A3040 RMK A01'
20180104,1600,KATP,GREEN_CANYON_787_(AWOS-3),27.20,-90.03,52,15,,,,39,'KATP 041555Z AUTO 31013KT 10SM OVC037 11/04 A3033 RMK A01'
