YMD,HHNN,STN,ID,LAT,LON,TMPF,SUSMPH,GUSTMPH,PKWNDMPH,MAXMPH,DWPF,'RAWOB'
20180104,1700,CAHR,HARRINGTON_CDA_CS,46.35,-63.17,32,17,25,30,30,30,'CAHR 041700Z AUTO 10015G22KT M00/M01 RMK AO1 PRESFR SOG 06 8081 PK WND 10026/1607 SLP108 T10011012 50002'
20180104,1700,CTCK,MOOSE_CREEK,45.25,-74.97,15,3,,,,12,'CTCK 041700Z AUTO 33003KT M10/M11 RMK AO1 SOG 28 8014 SLP092 T10961112'
20180104,1700,CWAF,ILE_ROUGE(MAPS),48.08,-69.55,19,18,24,24,24,16,'CWAF 041700Z AUTO 03016G21KT M07/M09 RMK AO1 PK WND 03021/1650 T10731088'
20180104,1700,CWAJ,ERIEAU_(MAPS),42.25,-81.90,,,,,,-9999,'CWAJ 041700Z AUTO RMK AO1'
20180104,1700,CWBA,BARRAGE_TEMISCAMINGUE,46.71,-79.10,-6,15,24,24,24,-12,'CWBA 041700Z AUTO 35013G21KT M21/M25 RMK AO1 SOG 25 PK WND 35021/1650 T12131246'
20180104,1700,CWBE,KILLARNEY_(MAPS),45.97,-81.48,-6,13,21,23,23,-18,'CWBE 041700Z AUTO 36011G18KT M21/M28 RMK AO1 PK WND 00020/1640 SLP221 T12111280 58009'
20180104,1700,CWBS,LAC_ST_PIERRE,46.18,-72.92,18,15,,,,14,'CWBS 041700Z AUTO 02013KT M08/M10 RMK AO1 T10781098'
20180104,1700,CWBT,LONGUE_PT_DE_MONGUE,50.27,-64.23,20,8,,,,19,'CWBT 041700Z AUTO 06007KT M07/M07 RMK AO1 PRESFR 8051 SLP189 T10671074 50024'
20180104,1700,CWBY,PORT_MENIER_(MARS),49.83,-64.30,24,8,,,,23,'CWBY 041700Z AUTO 08007KT M04/M05 RMK AO1 SOG 22 8047 SLP174 T10431052 50004'
20180104,1700,CWBZ,ST_ANICET,45.12,-74.28,17,5,,,,10,'CWBZ 041700Z AUTO 03004KT M09/M12 RMK AO1 SLP090 T10851122 58024'
20180104,1700,CWCJ,PUKASKWA_PARK,48.60,-86.30,-14,6,,,,-23,'CWCJ 041700Z AUTO 04005KT M25/M30 RMK AO1 2PAST HR SOG 22 8009 SLP299 P0001 T12541304 50002'
20180104,1700,CWCO,COLLINGWOOD_(AUT8),44.50,-80.22,9,22,30,31,31,6,'CWCO 041700Z AUTO 32019G26KT M13/M15 RMK AO1 6PAST HR 6011 PK WND 33027/1617 SLP150 P0002 T11281146 50009'
20180104,1700,CWDQ,LA_TUQUE,47.42,-72.80,15,5,,,,10,'CWDQ 041700Z AUTO 36004KT M10/M12 RMK AO1 SOG 35 8031 SLP115 T10951121 50010'
20180104,1700,CWDT,CHUTE_DES_PASSES,49.83,-71.16,6,2,,,,0,'CWDT 041700Z AUTO 07002KT M15/M18 RMK AO1 SLP160 T11471177 56020'
20180104,1700,CWDV,UPSALA_(MARS),49.03,-90.47,-15,3,,,,-22,'CWDV 041700Z AUTO 30003KT M26/M30 RMK AO1 SOG 21 0005 SLP329 T12611300 50007'
20180104,1700,CWEP,EAST_POINT_(MARS),46.45,-61.97,34,22,,33,33,31,'CWEP 041700Z AUTO 10019KT 01/M01 RMK AO1 PRESFR SOG 05 8071 PK WND 10029/1616 SLP139 T00111008'
20180104,1700,CWER,ILE_D'ORLEANS(AUT),47.00,-70.82,,25,32,32,32,-9999,'CWER 041700Z AUTO 06022G28KT RMK AO1 PK WND 06028/1655'
20180104,1700,CWEW,L'ASSOMPTION,45.82,-73.43,17,8,,,,11,'CWEW 041700Z AUTO 01007KT M08/M12 RMK AO1 SOG 21 8031 SLP096 T10841117'
20180104,1700,CWFQ,FRELIGHSBURG,45.05,-72.83,14,6,,,,11,'CWFQ 041700Z AUTO 32005KT M10/M12 RMK AO1 SOG 19 8040 SLP056 T10991115'
20180104,1700,CWGD,GODERICH_(AUTO8),43.77,-81.72,9,15,23,23,23,5,'CWGD 041700Z AUTO 36013G20KT M13/M15 RMK AO1 SOG 07 6002 PK WND 02020/1656 SLP164 T11261150 50002'
20180104,1700,CWGL,LAGOON_CITY,44.53,-79.22,2,13,,,,-6,'CWGL 041700Z AUTO 31011KT M17/M21 RMK AO1 SLP133 T11691209 56004'
20180104,1700,CWGR,ILES-DE-LA-MADELEINE,47.43,-61.76,32,25,32,33,33,28,'CWGR 041700Z AUTO 10022G28KT 00/M02 RMK AO1 PRESFR 6077 PK WND 11029/1600 SLP161 T00001021 50006'
20180104,1700,CWHP,HEATH_POINT_(MAPS),49.08,-61.70,30,25,31,31,31,26,'CWHP 041700Z AUTO 14022G27KT M01/M04 RMK AO1 PK WND 15027/1654 SLP202 T10121035 58049'
20180104,1700,CWHQ,DESCHAMBAULT,46.68,-71.96,18,3,,,,13,'CWHQ 041700Z AUTO 06003KT M08/M10 RMK AO1 T10771103'
20180104,1700,CWHV,BEAUCEVILLE,46.20,-70.78,10,1,,,,7,'CWHV 041700Z AUTO 13001KT M12/M14 RMK AO1 SLP077 T11201139 58044'
20180104,1700,CWIG,ILE_AUX_GRUES,47.07,-70.53,,18,24,25,25,-9999,'CWIG 041700Z AUTO 04016G21KT RMK AO1 PK WND 04022/1648'
20180104,1700,CWIP,POINTE_NOIRE,50.17,-66.43,18,6,,,,-9999,'CWIP 041700Z AUTO 04005KT M08/ RMK AO1 T1078'
20180104,1700,CWIS,CHARLEVOIX_(MRX),47.28,-70.63,9,10,32,48,48,7,'CWIS 041700Z AUTO 02009G28KT M13/M14 RMK AO1 SOG 56 8040 PK WND 03042/1606 SLP089 T11291137'
20180104,1700,CWIT,ST._CLOTHILDE_(AUT),45.17,-73.68,15,6,,,,10,'CWIT 041700Z AUTO 34005KT M09/M12 RMK AO1 SOG 22 8031 SLP074 T10921124 50008'
20180104,1700,CWIX,MISTOOK_(AUT),48.60,-71.71,3,7,,,,-2,'CWIX 041700Z AUTO 26006KT M16/M19 RMK AO1 SLP135 T11611190 58019'
20180104,1700,CWIZ,L'ACADIE,45.30,-73.35,14,5,,,,7,'CWIZ 041700Z AUTO 02004KT M10/M14 RMK AO1 SOG 25 T11001138'
20180104,1700,CWJB,STE_FOY_CS,46.78,-71.28,18,10,,23,23,-9999,'CWJB 041700Z AUTO 05009KT M08/ RMK AO1 SOG 11 PK WND 05020/1621 T1078'
20180104,1700,CWJO,JONQUIERE(AUTO),48.41,-71.15,14,6,,,,7,'CWJO 041700Z AUTO 12005KT M10/M14 RMK AO1 SLP137 T10991137 58030'
20180104,1700,CWJT,ST_JOVITE_(AUTO8),46.07,-74.53,18,1,,,,13,'CWJT 041700Z AUTO 02001KT M08/M10 RMK AO1 SLP098 T10801103 58021'
20180104,1700,CWKG,KEJIMKUJIK_1,44.43,-65.20,37,15,28,33,33,36,'CWKG 041700Z AUTO 10013G24KT 03/02 RMK AO1 9PAST HR PRESFR SOG 05 8149 PK WND 10029/1635 SLP959 P0019 T00290022 50083'
20180104,1700,CWLS,MOUNT_FOREST,43.98,-80.75,3,10,,20,20,-3,'CWLS 041700Z AUTO 33009KT M16/M20 RMK AO1 SOG 24 6011 PK WND 32017/1626 SLP148 T11631197'
20180104,1700,CWMJ,MANIWAKI,46.28,-76.00,15,5,,,,11,'CWMJ 041700Z AUTO 34004KT M10/M12 RMK AO1 SOG 24 6007 SLP109 T10971115'
20180104,1700,CWNC,COBOURG_(MARS),43.95,-78.17,13,7,,,,4,'CWNC 041700Z AUTO 34006KT M11/M16 RMK AO1 SOG 02 0003 SLP104 T11051157'
20180104,1700,CWNE,NORTH_CAPE,47.05,-64.00,,23,29,29,29,-9999,'CWNE 041700Z AUTO 10020G25KT RMK AO1 PRESFR PK WND 10025/1641 57073'
20180104,1700,CWNH,RIVIERE_DU_LOUP,47.80,-69.55,14,6,,,,9,'CWNH 041700Z AUTO 03005KT M10/M13 RMK AO1 SOG 29 8038 SLP126 T11021128'
20180104,1700,CWNQ,NICOLET_(AUTO8),46.22,-72.65,18,7,,,,14,'CWNQ 041700Z AUTO 04006KT M08/M10 RMK AO1 SLP084 T10771100 58036'
20180104,1700,CWNZ,NAGAGAMI_(MARS),49.75,-84.16,-20,3,,,,-27,'CWNZ 041700Z AUTO 32003KT M29/M33 RMK AO1 SOG 30 8003 SLP303 T12891329'
20180104,1700,CWOC,NEW_CARLISLE1,48.02,-65.33,26,6,,,,24,'CWOC 041700Z AUTO 06005KT M03/M04 RMK AO1 PRESFR 8055 SLP143 T10331043 50010'
20180104,1700,CWOD,NORMANDIN,48.83,-72.55,5,5,,,,1,'CWOD 041700Z AUTO 32004KT M15/M18 RMK AO1 SOG 18 8019 SLP130 T11481175'
20180104,1700,CWPD,L'ETAPE,47.56,-71.23,10,3,,,,5,'CWPD 041700Z AUTO 02003KT M12/M15 RMK AO1 SLP098 T11231150 58033'
20180104,1700,CWPE,POINT_LEPREAU,45.06,-66.45,33,16,31,,31,31,'CWPE 041700Z AUTO 05014G27KT 01/M00 RMK AO1 27 PRESFR SOG 05 8121 SLP996 T00061004'
20180104,1700,CWPK,PARENT_(MARS),47.92,-74.62,11,3,,,,8,'CWPK 041700Z AUTO 02003KT M11/M14 RMK AO1 SOG 38 7012 SLP116 T11141135 50008'
20180104,1700,CWQH,LENNOXVILLE,45.37,-71.82,14,3,,,,11,'CWQH 041700Z AUTO 35003KT M10/M12 RMK AO1 SOG 23 T10981117'
20180104,1700,CWQO,ILE_BICQUETTE,48.41,-68.90,18,8,,,,13,'CWQO 041700Z AUTO 06007KT M08/M10 RMK AO1 T10761104'
20180104,1700,CWQP,POINT_PETRE_(MARS),43.83,-77.15,18,9,,,,12,'CWQP 041700Z AUTO 34008KT M08/M11 RMK AO1 SOG 19 8015 SLP089 T10781110 50006'
20180104,1700,CWQR,ICE_AUX_PERROQUETS,50.22,-64.22,21,23,,30,30,-9999,'CWQR 041700Z AUTO 07020KT M06/ RMK AO1 PK WND 05026/1601 T1056'
20180104,1700,CWRK,BANCROFT_AUTO8,45.07,-77.87,8,7,,,,1,'CWRK 041700Z AUTO 35006KT M14/M18 RMK AO1 SOG 29 0002 SLP112 T11361175'
20180104,1700,CWRN,HART_ISLAND_(MAPS),45.35,-60.98,36,26,36,36,36,34,'CWRN 041700Z AUTO 09023G31KT 02/01 RMK AO1 PRESFR PK WND 08031/1626 SLP125 T00210011 58089'
20180104,1700,CWRZ,CAP_D'ESPOIR_(MAPS),48.42,-64.32,26,8,,,,25,'CWRZ 041700Z AUTO 04007KT M03/M04 RMK AO1 SLP160 T10331037 58046'
20180104,1700,CWSA,SABLE_ISLAND,43.93,-60.01,43,37,43,,43,39,'CWSA 041700Z AUTO 10030G43KT 2SM -RA BR SCT020 BKN024 OVC031 06/04 A2975 RMK PRESFR PCPN 0.5MM PAST HR TS/LTNG TEMPO UNAVBL SLP077'
20180104,1700,CWSD,SUMMERSIDE_(AUTO8),46.43,-63.83,33,18,24,24,24,31,'CWSD 041700Z AUTO 10016G21KT 01/M01 RMK AO1 PRESFR SOG 03 6080 PK WND 10021/1637 SLP103 T00081006'
20180104,1700,CWSF,CAP_MADELEINE(MAPS),49.25,-65.33,24,10,,,,20,'CWSF 041700Z AUTO 12009KT M05/M07 RMK AO1 PRESFR SOG 14 8056 SLP156 T10461069'
20180104,1700,CWSG,CAP_CHAT_(MAPS),49.11,-66.65,22,10,,,,19,'CWSG 041700Z AUTO 07009KT M06/M08 RMK AO1 0PAST HR 8050 SLP150 P0012 T10571075 50030'
20180104,1700,CWSS,ST._STEPHEN_(MARS),45.20,-67.25,27,13,23,23,23,25,'CWSS 041700Z AUTO 03011G20KT M03/M04 RMK AO1 6PAST HR PRESFR SOG 09 8112 PK WND 02020/1656 SLP003 P0006 T10281037 50018'
20180104,1700,CWST,LA_POCATIERE,47.35,-70.03,15,12,,,,10,'CWST 041700Z AUTO 04010KT M09/M12 RMK AO1 PRESFR SOG 05 8048 SLP108 T10921124'
20180104,1700,CWTA,MC_TAVISH_(AUT),45.50,-73.58,15,7,,,,10,'CWTA 041700Z AUTO 01006KT M09/M12 RMK AO1 SOG 40 8032 SLP085 T10941124'
20180104,1700,CWTG,POINTE_DES_MONTS,49.32,-67.38,17,9,,,,13,'CWTG 041700Z AUTO 03008KT M08/M11 RMK AO1 SLP157 T10841106 58046'
20180104,1700,CWTN,CAP_TOURMENTE,47.07,-70.80,20,8,,,,12,'CWTN 041700Z AUTO 13007KT M07/M11 RMK AO1 PRESFR SLP105 T10681111 58046'
20180104,1700,CWTY,TROIS_RIVIERES,46.35,-72.52,17,9,,,,16,'CWTY 041700Z AUTO 02008KT M08/M09 RMK AO1 SLP090 T10821091 58036'
20180104,1700,CWUX,LA_BAIE,48.30,-70.91,13,5,,,,7,'CWUX 041700Z AUTO 06004KT M11/M14 RMK AO1 SLP127 T11061141 57029'
20180104,1700,CWVU,BRIER_ISLAND,44.28,-66.34,38,29,37,38,38,36,'CWVU 041700Z AUTO 05025G32KT 03/02 RMK AO1 0PAST HR PRESFR 8151 PK WND 05033/1637 SLP943 P0004 T00310023 50017'
20180104,1700,CWWB,BURLINGTON_PIERS,43.30,-79.80,14,,,,,0,'CWWB 041700Z AUTO M10/M18 RMK AO1 18 6001 SLP141 T10991180'
20180104,1700,CWWE,WESTERN_HEAD_(MARS),43.98,-64.67,41,33,46,47,47,38,'CWWE 041700Z AUTO 07029G40KT 05/04 RMK AO1 4PAST HR PRESFR SOG 01 8162 PK WND 08041/1644 SLP938 P0013 T00480035 50058'
20180104,1700,CWWX,COVE_ISLAND_(MAPS),45.33,-81.73,1,23,,28,28,-2,'CWWX 041700Z AUTO 05020KT M17/M19 RMK AO1 PK WND 04024/1614 SLP190 T11731189 58008'
20180104,1700,CWWZ,PORT_WELLER_(MARS),43.25,-79.22,19,16,,25,25,10,'CWWZ 041700Z AUTO 32014KT M08/M12 RMK AO1 SOG 08 4000 PK WND 33022/1605 SLP133 T10751120'
20180104,1700,CWXC,ONATCHIWAY,48.88,-71.03,12,6,,,,8,'CWXC 041700Z AUTO 36005KT M11/M14 RMK AO1 8024 SLP120 T11131135 50002'
20180104,1700,CWZQ,GRAND_ETANG,46.55,-61.05,34,47,77,,77,29,'CWZQ 041720Z AUTO 11046G59KT 01/M02 RMK AO1 T00111019'
20180104,1700,CWZS,AMQUI,48.47,-67.43,10,3,,,,6,'CWZS 041700Z AUTO 15003KT M12/M15 RMK AO1 6044 SLP144 T11211147 50010'
20180104,1700,CXBO,BEAUPORT_CS,46.84,-71.20,,14,,29,29,-9999,'CXBO 041700Z AUTO 07012KT RMK AO1 PK WND 06025/1602 50011'
20180104,1700,CXCA,CAMERON_FALLS_(AUT),49.15,-88.35,-12,7,,,,-17,'CXCA 041700Z AUTO 02006KT M24/M27 RMK AO1 SOG 13 8004 SLP336 T12421272 50002'
20180104,1700,CXCH,CHETICAMP,46.65,-60.95,33,,,,,28,'CXCH 041700Z AUTO 01/M02 RMK AO1 8PAST HR SOG 24 M P0003 T00071022 50008'
20180104,1700,CXDI,DELHI_CS,42.87,-80.55,10,14,,21,21,1,'CXDI 041700Z AUTO 32012KT M12/M18 RMK AO1 6009 PK WND 32018/1634 SLP143 T11231175 50002'
20180104,1700,CXEA,EAR_FALLS_(AUT),50.63,-93.21,-19,0,,,,-22,'CXEA 041700Z AUTO 00000KT M28/M30 RMK AO1 SOG 36 1011 SLP359 T12811302 50002'
20180104,1700,CXET,EGBERT_CS,44.23,-79.78,7,14,24,31,31,2,'CXET 041700Z AUTO 33012G21KT M14/M16 RMK AO1 SOG 12 5004 PK WND 34027/1614 SLP134 T11381164'
20180104,1700,CXHA,HARROW_CDA_AUTO,42.03,-82.90,10,7,,,,-1,'CXHA 041700Z AUTO 35006KT M12/M18 RMK AO1 SOG 23 0003 SLP204 T11231181'
20180104,1700,CXIB,INGONISH_BEACH_CS,46.67,-60.40,34,8,21,24,24,29,'CXIB 041700Z AUTO 13007G18KT 01/M02 RMK AO1 PRESFR SOG 10 6066 PK WND 12021/1626 SLP196 T00091015'
20180104,1700,CXKA,KAPUKASING_CDA,49.41,-82.44,-19,6,,,,-26,'CXKA 041700Z AUTO 30005KT M28/M32 RMK AO1 SOG 18 8003 SLP287 T12811321 50004'
20180104,1700,CXKE,KEMPTVILLE_CS,45.00,-75.63,16,5,,,,13,'CXKE 041700Z AUTO 34004KT M09/M11 RMK AO1 2PAST HR SOG 22 8010 SLP087 P0001 T10871108 50002'
20180104,1700,CXKI,KIRKLAND_LAKE_CS,48.15,-80.00,-13,,,,,-19,'CXKI 041700Z AUTO M25/M29 RMK AO1 SOG 22 8014 SLP220 T12511286'
20180104,1700,CXKT,KENTVILLE,45.07,-64.48,32,9,18,,18,32,'CXKT 041700Z AUTO 05008G16KT 00/M00 RMK AO1 5PAST HR PRESFR SOG 11 8123 SLP019 P0006 T00001001 50021'
20180104,1700,CXLB,LUNENBERG,44.35,-64.30,39,38,54,54,54,39,'CXLB 041700Z AUTO 06033G47KT 04/04 RMK AO1 PRESFR PK WND 05047/1658 SLP969 T00380038 58149'
20180104,1700,CXMY,MALAY_FALLS,44.98,-62.48,38,,,,,37,'CXMY 041700Z AUTO 03/03 RMK AO1 3PAST HR M P0009 T00340028 50041'
20180104,1700,CXNM,NORTH_MOUNTAIN,46.82,-60.67,26,17,32,32,32,26,'CXNM 041700Z AUTO 12015G28KT M03/M03 RMK AO1 SOG 64 PK WND 13028/1659 T10341034 50014'
20180104,1700,CXNP,NAPPAN_AUTO,45.75,-64.23,32,10,,,,31,'CXNP 041700Z AUTO 06009KT M00/M00 RMK AO1 2PAST HR PRESFR SOG 09 8102 SLP066 P0009 T10011003 50022'
20180104,1700,CXPC,PARRY_SOUND_CCG,45.34,-80.04,-3,,,,,-11,'CXPC 041700Z AUTO M20/M24 RMK AO1 SOG 28 6009 SLP156 T11971239'
20180104,1700,CXSH,SHAWINIGAN_CS,46.56,-72.73,17,6,,,,11,'CXSH 041700Z AUTO 01005KT M08/M11 RMK AO1 SLP092 T10831114 58032'
20180104,1700,CXTD,TRACADIE,45.61,-61.68,33,16,26,30,30,32,'CXTD 041700Z AUTO 10014G23KT 01/00 RMK AO1 1PAST HR PRESFR SOG 01 8091 PK WND 10026/1609 SLP121 P0004 T00080000 50015'
20180104,1700,CXTO,TORONTO,43.67,-79.40,12,,,,,0,'CXTO 041700Z AUTO M11/M18 RMK AO1 SOG 10 5000 SLP130 T11121180'
20180104,1700,CXVN,VINELAND_STATION_RCS,43.18,-79.40,16,15,23,23,23,3,'CXVN 041700Z AUTO 33013G20KT M09/M16 RMK AO1 SOG 08 6001 PK WND 32020/1650 SLP130 T10911162'
20180104,1700,CXZV,SEPT-ILES,50.22,-66.25,13,7,,,,11,'CXZV 041700Z AUTO 03006KT M11/M12 RMK AO1 SOG 72 8043 SLP175 T11061118'
20180104,1700,CYAH,LA_GRANDE_IV_ARPT,53.76,-73.68,-20,0,,,,-26,'CYAH 041700Z AUTO 00000KT 9SM CLR M29/M32 A3006 RMK PRESFR SLP233'
20180104,1700,CYAM,SAULT_STE_MARIE,46.48,-84.51,-9,8,,,,-22,'CYAM 041700Z 36007KT 15SM FEW025 FEW130 M23/M30 A3024 RMK CU1AC1 CU TR AC TR SLP264'
20180104,1700,CYBC,BAIE-COMEAU_AIRPORT,49.13,-68.20,19,14,,,,14,'CYBC 041700Z AUTO 08014KT 9SM -SN BKN014 OVC019 M07/M10 A2997 RMK SLP153'
20180104,1700,CYBG,BAGOTVILLE(CAN-MIL),48.33,-71.00,14,9,,,,9,'CYBG 041700Z 09008KT 25SM OVC090 M10/M13 A2988 RMK AC8 SLP132'
20180104,1700,CYBN,BORDEN,44.27,-79.91,7,15,28,,28,3,'CYBN 041738Z AUTO 34012G21KT 3/4SM VV007 M14/M16 A2990'
20180104,1700,CYCX,GAGETOWN__(CAN-MIL),45.83,-66.43,27,12,18,,18,25,'CYCX 041718Z CCA 04013KT 010V070 1/2SM SN VV005 M03/M04 A2963 RMK SN8 DA-1630FTPRESFR SLP036'
20180104,1700,CYFC,FREDERICTON_AIRPORT,45.87,-66.53,27,13,20,,20,25,'CYFC 041725Z AUTO 03014KT 1SM R09/P6000FT/N -SN OVC010 M03/M04 A2962 RMK PRESFRSLP033'
20180104,1700,CYGK,KINGSTON_ARPT_(MAN),44.22,-76.60,19,10,,,,10,'CYGK 041700Z 36009KT 15SM FEW055 OVC078 M07/M12 A2976 RMK SC1AC7 SLP085'
20180104,1700,CYGL,LA_GRANDE_RIVIERE,53.63,-77.70,-18,5,,,,-24,'CYGL 041700Z 01004KT 15SM IC FEW200 M28/M31 A3019 RMK CI1 SLP255'
20180104,1700,CYGP,GASPE_AIRPORT,48.78,-64.48,14,2,,,,10,'CYGP 041720Z VRB02KT 8SM OVC005 M09/M12 A3000 RMK SC8 BLN ESTD PRESFR SLP165'
20180104,1700,CYGQ,GERALDTON_AIRPORT,49.78,-86.93,-18,7,,,,-24,'CYGQ 041700Z 34006KT 15SM FEW050 FEW250 M28/M31 A3031 RMK SC1CI1 SLP318'
20180104,1700,CYGR,ILES_DE_LA_MADELEINE,47.42,-61.78,32,26,36,,36,28,'CYGR 041700Z 11023G31KT 15SM -SN SCT012 OVC050 M00/M02 A3001 RMK SC4SC4 PRESFR SLP165'
20180104,1700,CYGV,HAVRE_ST_PIERRE,50.28,-63.60,18,16,,,,16,'CYGV 041733Z AUTO 06011KT 2SM -SN BKN014 OVC019 M07/M08 A3009 RMK VIS VRB 1-3 SLP194'
20180104,1700,CYHD,DRYDEN_AIRPORT,49.83,-92.75,-18,2,,,,-24,'CYHD 041700Z AUTO 00000KT 9SM SCT020 M28/M32 A3039 RMK SLP352'
20180104,1700,CYHM,HAMILTON_AIRPORT,43.17,-79.93,10,17,23,,23,0,'CYHM 041700Z 32015G20KT 15SM DRSN FEW028 FEW160 M12/M18 A2988 RMK CU1AC1 CU TR AC TR SLP138'
20180104,1700,CYHU,SAINT_HUBERT_ARPT,45.52,-73.42,16,12,,,,10,'CYHU 041700Z AUTO 01010KT 9SM OVC070 M09/M12 A2977 RMK SLP086'
20180104,1700,CYHZ,HALIFAX_INTL_ARPT,44.88,-63.52,36,30,44,,44,36,'CYHZ 041719Z 09027G42KT 3SM RA BR OVC010 03/02 A2954 RMK NS8 CIG RAG PRESFR SLP011'
20180104,1700,CYKF,WATERLOO_WELLINGTON_ARPT,43.46,-80.38,7,14,23,,23,0,'CYKF 041700Z AUTO 32012G20KT 9SM CLR M14/M18 A2987 RMK SLP139'
20180104,1700,CYKL,SCHEFFERVILLE_ARPT,54.80,-66.82,-15,6,,,,-20,'CYKL 041700Z AUTO 17005KT 160V260 9SM CLR M26/M29 A3003 RMK SLP239'
20180104,1700,CYKZ,TORONTO_BUTTONVILLE,43.87,-79.37,9,23,29,,29,0,'CYKZ 041700Z 34018G25KT 13SM IC DRSN FEW017 FEW080 FEW260 M13/M18 A2988 RMK CU1AC1CI1 CU TR AC TR OCNL-SHSN SLP133'
20180104,1700,CYLD,CHAPLEAU_ARPT(SAWR),47.82,-83.35,-18,9,,,,-26,'CYLD 041700Z 36008KT 15SM FEW035 M28/M32 A3013 RMK SC1 SLP270'
20180104,1700,CYMO,MOOSONEE_A,51.28,-80.60,-9,12,,,,-15,'CYMO 041700Z AUTO 34010KT 9SM CLR M23/M26 A3032 RMK SLP271'
20180104,1700,CYMT,CHIBOUGAMAU-CHAPAIS,49.77,-74.53,-2,7,,,,-9,'CYMT 041700Z AUTO 01006KT 340V050 9SM SCT240 M19/M23 A2989 RMK SLP165'
20180104,1700,CYMX,MONTREAL/MIRABEL,45.67,-74.03,16,6,,,,12,'CYMX 041700Z CCA 36005KT 340V070 3SM -SN OVC038 M09/M11 A2978 RMK SC8 VIS VRB 2-4 SLP093'
20180104,1700,CYNA,NATASHQUAN_AIRPORT,50.18,-61.82,19,13,,,,18,'CYNA 041700Z AUTO 07012KT 9SM -SN OVC025 M06/M08 A3016 RMK PRESFR SLP215'
20180104,1700,CYND,GATINEAU_AIRPORT,45.52,-75.57,18,2,,,,12,'CYND 041700Z VRB02KT 3SM -SN OVC028 M08/M11 A2980 RMK SC8 SLP098'
20180104,1700,CYNM,MATAGAMI_AIRPORT,49.77,-77.80,-13,14,,,,-18,'CYNM 041700Z AUTO 32012KT 9SM CLR M25/M28 A3004 RMK ICG SLP210'
20180104,1700,CYOW,OTTAWA_INTL_AIRPORT,45.32,-75.67,16,9,,,,10,'CYOW 041700Z 35008KT 7SM -SN BKN024 OVC038 M09/M12 A2979 RMK SC5SC3 SLP096'
20180104,1700,CYOY,VALCARTIER_AIRPORT,46.90,-71.50,16,3,,,,12,'CYOY 041700Z AUTO 07003KT 030V090 9SM FEW050 FEW063 FEW098 M09/M11 A2977 RMK PRESFR SLP095'
20180104,1700,CYPL,PICKLE_LAKE(MAN),51.45,-90.22,-24,3,,,,-29,'CYPL 041700Z 31003KT 12SM IC FEW025 FEW200 M31/M34 A3036 RMK SC1CI1 SLP344'
20180104,1700,CYPQ,PETERBOROUGH_ARPT,44.23,-78.37,9,14,,,,3,'CYPQ 041717Z AUTO 30013G18KT 3SM -SN BKN030 OVC034 M13/M16 A2982 RMK SLP114'
20180104,1700,CYQA,MUSKOKA_AIRPORT,44.97,-79.30,1,10,,,,-6,'CYQA 041733Z AUTO 33012KT 1 1/4SM -SN CLR M17/M22 A2986 RMK ICG INTMT SLP136'
20180104,1700,CYQB,QUEBEC_AIRPORT,46.80,-71.38,18,20,,,,10,'CYQB 041700Z 07017KT 30SM FEW015 OVC067 M08/M12 A2981 RMK SC1AC7 SLP102'
20180104,1700,CYQG,WINDSOR_AIRPORT,42.27,-82.97,9,16,28,,28,-2,'CYQG 041700Z 34014G24KT 15SM BKN030 M13/M19 A3009 RMK CU5 SLP203'
20180104,1700,CYQI,YARMOUTH_AIRPORT,43.83,-66.09,39,26,49,,49,37,'CYQI 041700Z 08023G43KT 3SM -RA BR OVC011 04/03 A2923 RMK SF8 PRESFR SLP903'
20180104,1700,CYQM,MONCTON_AIRPORT,46.10,-64.69,30,14,24,,24,28,'CYQM 041709Z 06013G19KT 1/2SM R06/5500VP6000FT/D R29/5000VP6000FT/D SN DRSN OVC004 M00/M01 A2972 RMK SF8 PRESFR SLP069'
20180104,1700,CYQT,THUNDER_BAY_AIRPORT,48.37,-89.33,-11,9,,,,-20,'CYQT 041700Z 28008KT 20SM SKC M24/M29 A3042 RMK SLP331'
20180104,1700,CYQY,SYDNEY_AIRPORT,46.17,-60.05,34,21,37,,37,30,'CYQY 041736Z CCA 10021G34KT 2 1/2SM -SN DRSN OVC011 01/M01 A3000 RMK NS8 PRESFRSLP163'
20180104,1700,CYRJ,ROBERVAL_AIRPORT,48.52,-72.27,3,8,,,,-2,'CYRJ 041700Z 32007KT 5SM -SN SCT030 OVC140 M16/M19 A2988 RMK SC4AS4 PRESFR SLP139'
20180104,1700,CYSB,SUDBURY_AIRPORT,46.62,-80.80,-11,22,33,,33,-20,'CYSB 041700Z 02019G29KT 20SM DRSN FEW036 FEW180 M24/M29 A3000 RMK SC1CI2 SC TR SLP202'
20180104,1700,CYSC,SHERBROOKE_AIRPORT,45.43,-71.68,14,9,,,,9,'CYSC 041716Z AUTO 02004KT 3/4SM -SN VV013 M10/M13 A2963 RMK PRESFR SLP053'
20180104,1700,CYSJ,SAINT_JOHN_AIRPORT,45.30,-65.87,34,18,30,,30,32,'CYSJ 041733Z 06018G29KT 2SM -RASN DRSN OVC011 01/00 A2947 RMK SC8 PRESFR SLP985'
20180104,1700,CYSN,ST._CATHARINES_ARPT,43.20,-79.17,16,13,21,,21,7,'CYSN 041700Z 33011G18KT 15SM DRSN BKN026 M09/M14 A2990 RMK SC7 SLP132'
20180104,1700,CYTL,BIG_TROUT_LAKE,53.82,-89.90,-26,7,,,,-33,'CYTL 041700Z AUTO 31006KT 9SM CLR M32/M36 A3045 RMK SLP353'
20180104,1700,CYTR,TRENTON_(CAN-MIL),44.12,-77.53,18,10,,,,12,'CYTR 041700Z 33009KT 15SM FEW078 OVC220 M08/M11 A2981 RMK AC2CS6 SLP099'
20180104,1700,CYTS,TIMMINS_AIRPORT,48.57,-81.38,-18,7,,,,-26,'CYTS 041700Z 31006KT 300V050 15SM IC FEW010 SCT019 M28/M32 A3016 RMK SC1SC2 SLP257'
20180104,1700,CYTZ,TORONTO_IL_ARPT_AUT,43.63,-79.40,12,17,25,,25,0,'CYTZ 041700Z AUTO 32015G22KT 9SM CLR M11/M18 A2992 RMK SLP137'
20180104,1700,CYUL,MONTREAL/DORVAL,45.47,-73.75,16,12,,,,9,'CYUL 041700Z 01010KT 15SM -SN BKN040 OVC057 M09/M13 A2978 RMK SC5SC3 SLP089'
20180104,1700,CYUY,ROUYN_AIRPORT,48.22,-78.83,-11,15,,,,-18,'CYUY 041700Z 34013KT 15SM IC DRSN FEW020 FEW270 M24/M28 A3002 RMK SF1CI1 SF TR SLP203'
20180104,1700,CYVO,VAL_D'OR_AIRPORT,48.05,-77.78,-8,15,21,,21,-13,'CYVO 041700Z 35013G18KT 10SM -SN BKN018 BKN260 M22/M25 A2995 RMK SC6CI1 SLP184'
20180104,1700,CYVV,WIARTON_AIRPORT,44.75,-81.10,3,9,,,,0,'CYVV 041700Z 34008KT 290V020 5/8SM -SN BLSN OVC006 M16/M18 A2999 RMK SN3ST5 SLP174'
20180104,1700,CYWA,PETAWAWA_ARPT,45.95,-77.32,3,12,17,,17,-2,'CYWA 041700Z AUTO 32010G15KT 4SM OVC037 M16/M19 A2991 RMK SLP139'
20180104,1700,CYWK,WABUSH_LAKE_AIRPORT,52.93,-66.87,-13,3,,,,-18,'CYWK 041700Z 35003KT 5SM -SN FEW037 BKN045 BKN055 M25/M28 A3000 RMK SC2SC3SC2 SLP231'
20180104,1700,CYXL,SIOUX_LOOKOUT_ARPT,50.11,-91.90,-22,3,,,,-27,'CYXL 041700Z 33003KT 300V030 15SM FEW019 BKN230 M30/M33 A3040 RMK SC2CI3 SLP359'
20180104,1700,CYXR,EARLTON_AIRPORT,47.70,-79.85,-13,21,,,,-20,'CYXR 041700Z AUTO 32018KT 9SM CLR M25/M29 A3008 RMK ICG PRESFR SLP217'
20180104,1700,CYXU,LONDON_AIRPORT,43.03,-81.15,9,13,20,,20,-2,'CYXU 041700Z 34011G17KT 15SM FEW042 M13/M19 A2994 RMK SC2 SLP159'
20180104,1700,CYXZ,WAWA_AIRPORT,47.97,-84.78,-17,5,,,,-24,'CYXZ 041700Z 02004KT 320V060 15SM FEW026 M27/M31 A3026 RMK SC1 SC TR SLP288'
20180104,1700,CYYB,NORTH_BAY_AIRPORT,46.36,-79.42,-8,15,23,,23,-15,'CYYB 041700Z 01013G20KT 320V030 15SM IC DRSN FEW030 M22/M26 A2992 RMK SC2 SLP172'
20180104,1700,CYYG,CHARLOTTETOWN_ARPT,46.29,-63.13,32,21,30,,30,30,'CYYG 041732Z 09016G25KT 3/4SM R03/6000FT/N -SN DRSN OVC005 M00/M01 A2979 RMK NS8 PRESFR SLP092'
20180104,1700,CYYR,GOOSE_BAY_AIRPORT,53.32,-60.42,9,10,,,,-4,'CYYR 041700Z 25009KT 15SM FEW035 FEW160 BKN250 M13/M20 A3030 RMK CF1AC2CS4 CONTRAILS SLP266'
20180104,1700,CYYU,KAPUSKASING_AIRPORT,49.42,-82.47,-18,9,,,,-24,'CYYU 041715Z 34007KT 6SM IC FEW017 BKN260 M27/M31 A3025 RMK SC1CS6 SLP280'
20180104,1700,CYYY,MONT_JOLI_AIRPORT,48.60,-68.22,14,5,,,,9,'CYYY 041700Z 08004KT 15SM FEW015 OVC030 M10/M13 A2994 RMK SC1SC8 SC TR SLP145'
20180104,1700,CYYZ,TORONTO/PEARSON,43.67,-79.60,12,21,,,,0,'CYYZ 041700Z 36018KT 15SM SCT030 SCT080 M11/M18 A2989 RMK CU3AC1 SLP136'
20180104,1700,CYZE,GORE_BAY_AIRPORT,45.88,-82.57,-9,10,,,,-18,'CYZE 041717Z AUTO 35009KT 9SM FEW018 SCT024 BKN040 M22/M27 A3015 RMK SLP232'
20180104,1700,CYZR,SARNIA_AIRPORT,43.00,-82.31,5,18,30,,30,-2,'CYZR 041700Z AUTO 30016G26KT 9SM CLR M15/M19 A3004 RMK ICG INTMT SLP189'
20180104,1700,CYZV,SEPT-ILES_AIRPORT,50.22,-66.27,14,10,,,,9,'CYZV 041700Z CCA 04009KT 20SM -SN BKN008 OVC020 M10/M13 A3003 RMK SF6SC2 CIG VRB 6-10 SLP178'
20180104,1700,CYZX,GREENWOOD_(CAN-MIL),44.98,-64.92,32,21,,,,32,'CYZX 041727Z 05024G29KT 3/8SM SN OVC004 01/00 A2947 RMK SF8 PRESFR WNDY HILL UNAVBL SLP982'
20180104,1700,CZBF,BATHURST_ARPT(AWRS),47.63,-65.75,21,5,,,,19,'CZBF 041700Z 01004KT 7SM -SG OVC010 M06/M07 A2992 RMK ST8 SLP140'
20180104,1700,CZCR,CHARLO_AUTO,47.98,-66.33,20,5,,,,18,'CZCR 041700Z AUTO 11004KT M07/M08 RMK AO1 SOG 27 8054 SLP142 T10651077'
20180104,1700,CZDB,DEBERT,45.42,-63.47,34,20,28,28,28,32,'CZDB 041700Z AUTO 09017G24KT 01/M00 RMK AO1 5PAST HR PRESFR SOG 03 8102 PK WND 08024/1656 SLP067 P0006 T00121001 50015'
20180104,1700,CZSP,ST_PETERS,46.45,-62.57,31,9,22,25,25,31,'CZSP 041700Z AUTO 11008G19KT M00/M01 RMK AO1 2PAST HR PRESFR SOG 06 6078 PK WND 14022/1637 SLP131 P0001 T10041007 50004'
20180104,1700,CZTB,THUNDER_BAY,48.37,-89.33,-12,9,,,,-23,'CZTB 041700Z AUTO 27008KT M24/M30 RMK AO1 SOG 04 8006 SLP328 T12441304'
20180104,1700,CZUM,CHURCHILL_FALLS,53.56,-64.09,-9,3,,,,-15,'CZUM 041724Z AUTO 03005KT 6SM HZ SCT140 M23/M26 A3008 RMK PRESFR SLP240'
20180104,1700,CXHF,HIGH_FALLS,45.84,-75.65,17,,,,,13,'CXHF 041700Z AUTO M08/M10 RMK AO1 T10831104'
20180104,1700,CYKQ,WASKAGANISH_AIRPORT,51.48,-78.75,-9,5,,,,-15,'CYKQ 041700Z 32004KT 300V010 10SM -SN SCT013 SCT060 M23/M26 A3025 RMK CF3SC1 SLP249'
20180104,1700,CMGB,GRANBY,45.37,-72.77,16,2,,,,9,'CMGB 041730Z AUTO 36002KT M09/M12 RMK AO1 SOG 25 8039 SLP069 T10911119'
20180104,1700,EYW,KEY_WEST_INTL_ARPT_(ASOS),24.55,-81.75,57,15,21,,21,46,'KEYW 041653Z 03013G18KT 10SM FEW026 14/08 A3017 RMK AO2 SLP216 T01390078'
20180104,1700,NQX,KEY_WEST_NAS,24.57,-81.68,57,15,,,,47,'KNQX 041653Z 02013KT 10SM BKN030 BKN045 14/08 A3017 RMK AO2 SLP213 T01390083 $'
20180104,1700,MTH,MARATHON_AIRPORT_(ASOS),24.73,-81.05,56,10,,,,38,'KMTH 041653Z AUTO 35009KT 10SM CLR 13/03 A3017 RMK AO2 SLP215 T01330033'
20180104,1700,MIA,MIAMI_INTL_AIRPORT_(ASOS),25.82,-80.28,56,14,22,,22,33,'KMIA 041653Z 30012G19KT 10SM CLR 13/01 A3015 RMK AO2 SLP209 T01330006'
20180104,1700,OPF,MIAMI/OPA_LOCKA_(ASOS),25.90,-80.28,55,16,21,,21,33,'KOPF 041653Z 34014G18KT 10SM CLR 13/01 A3015 RMK AO2 SLP210 T01280006'
20180104,1700,FLL,FT_LAUDERDALE/HOLLY_(ASOS),26.07,-80.15,52,16,25,,25,32,'KFLL 041653Z 31014G22KT 10SM CLR 11/00 A3013 RMK AO2 SLP203 T01110000'
20180104,1700,HST,HOMESTEAD_AFB,25.48,-80.38,55,17,,,,36,'KHST 041656Z AUTO 31015KT 10SM CLR 13/02 A3014 RMK AO2 SLP210 T01260022'
20180104,1700,TMB,MIAMI/KENDALL-TAMIA_(ASOS),25.65,-80.43,55,18,26,,26,34,'KTMB 041653Z 33016G23KT 10SM CLR 13/01 A3015 RMK AO2 SLP207 T01280011'
20180104,1700,PBI,WEST_PALM_BEACH_(ASOS),26.68,-80.12,50,14,20,,20,22,'KPBI 041653Z 34012KT 10SM CLR 10/M06 A3015 RMK AO2 SLP208 T01001056 $'
20180104,1700,APF,NAPLES_MUNICIPAL,26.15,-81.77,55,13,,,,34,'KAPF 041653Z 33011KT 10SM CLR 13/01 A3017 RMK AO2 SLP213 T01280011 $'
20180104,1700,FXE,FORT_LAUDERDALE_(ASOS),26.20,-80.17,52,12,24,,24,29,'KFXE 041653Z 31010G21KT 10SM CLR 11/M02 A3014 RMK AO2 SLP209 T01111017 $'
20180104,1700,MLB,MELBOURNE_REGIONAL_(ASOS),28.10,-80.65,50,23,28,,28,27,'KMLB 041653Z 28020G24KT 10SM CLR 10/M03 A3012 RMK AO2 SLP197 T01001028'
20180104,1700,GIF,WINTER_HAVEN_(ASOS),28.05,-81.75,48,14,20,,20,27,'KGIF 041653Z AUTO 29012G17KT 10SM CLR 09/M03 A3016 RMK AO2 SLP214 T00891028'
20180104,1700,VRB,VERO_BEACH_MUNI_(ASOS),27.65,-80.42,50,17,25,,25,26,'KVRB 041653Z 27015G22KT 10SM CLR 10/M03 A3013 RMK AO2 SLP202 T01001033'
20180104,1700,TIX,TITUSVILLE,28.52,-80.80,48,17,23,,23,19,'KTIX 041647Z 28015G20KT 7SM SKC 09/M07 A3012'
20180104,1700,MCO,ORLANDO_JETPORT___(ASOS),28.43,-81.32,46,17,25,,25,23,'KMCO 041653Z 29015G22KT 10SM CLR 08/M05 A3015 RMK AO2 SLP208 T00781050'
20180104,1700,ORL,ORLANDO/HERNDON___(ASOS),28.55,-81.33,46,16,25,30,30,20,'KORL 041653Z 28014G22KT 10SM CLR 08/M07 A3014 RMK AO2 PK WND 28026/1601 RAB22E25 SLP213 P0000 T00781067'
20180104,1700,BKV,BROOKSVILLE_(ASOS),28.47,-82.45,48,15,,,,29,'KBKV 041653Z 30013KT 10SM CLR 09/M02 A3018 RMK AO2 SLP219 T00891017'
20180104,1700,OCF,OCALA_MUNI_(AWOS),29.17,-82.22,43,8,,,,16,'KOCF 041651Z 30007KT 10SM CLR 06/M09 A3015 RMK AO2 SLP213 T00611089'
20180104,1700,DAB,DAYTONA_BEACH_RGNL_(ASOS),29.18,-81.05,45,21,29,,29,22,'KDAB 041653Z 27018G25KT 10SM CLR 07/M06 A3011 RMK AO2 SLP194 T00721056'
20180104,1700,SFB,SANFORD/ORLANDO_(ASOS),28.78,-81.23,46,18,,,,18,'KSFB 041653Z 28016KT 10SM CLR 08/M08 A3013 RMK AO2 SLP203 T00781078'
20180104,1700,JAX,JACKSONVILLE_INTL_(ASOS),30.50,-81.70,43,15,,,,21,'KJAX 041656Z 27013KT 10SM CLR 06/M06 A3007 RMK AO2 SLP183 T00611061'
20180104,1700,NIP,JACKSONVILLE_NAS,30.23,-81.68,42,15,24,,24,16,'KNIP 041653Z 27013G21KT 10SM CLR 06/M09 A3009 RMK AO2 SLP184 T00561089 $'
20180104,1700,NRB,MAYPORT_NS,30.40,-81.42,41,15,23,,23,20,'KNRB 041652Z 26013G20KT 10SM CLR 05/M07 A3006 RMK AO2 SLP179 T00501067 $'
20180104,1700,CRG,JACKSONVILLE/CRAIG_(ASOS),30.33,-81.52,42,16,22,,22,15,'KCRG 041653Z 27014G19KT 10SM CLR 06/M09 A3007 RMK AO2 SLP182 T00561094'
20180104,1700,SAV,SAVANNAH_MUNICIPAL_(ASOS),32.13,-81.20,36,12,,,,21,'KSAV 041653Z 27010KT 10SM FEW250 02/M06 A3000 RMK AO2 SLP159 T00221061'
20180104,1700,CHS,CHARLESTOWN_MUNI_(ASOS),32.90,-80.03,33,9,,,,20,'KCHS 041656Z 29008KT 10SM CLR 01/M07 A2994 RMK AO2 SLP138 T00061067 $'
20180104,1700,NBC,BEAUFORT_MCAS,32.48,-80.72,35,14,,,,20,'KNBC 041656Z AUTO 28012KT 10SM CLR 02/M07 A2997 RMK AO2 SLP149 T00171067 $'
20180104,1700,LHW,FT_STEWART/WRIGHT_&,31.88,-81.57,35,10,20,,20,19,'KLHW 041656Z AUTO 28009G17KT 10SM CLR 02/M07 A3000 RMK AO2 SLP163 P0001 T00171074 $'
20180104,1700,FPR,FT_PIERCE/ST_LUCIE_(ASOS),27.50,-80.37,50,15,,,,27,'KFPR 041653Z 28013KT 10SM CLR 10/M03 A3013 RMK AO2 SLP202 T01001028'
20180104,1700,SPG,SAINT_PETERSBURG_(ASOS),27.77,-82.63,52,9,16,,16,36,'KSPG 041653Z 32008G14KT 10SM BKN038 11/02 A3016 RMK AO2 SLP213 T01110022'
20180104,1700,FMY,FORT_MYERS/PAGE_FLD_(ASOS),26.58,-81.87,54,12,,,,33,'KFMY 041653Z 35010KT 10SM CLR 12/01 A3017 RMK AO2 SLP219 T01220006'
20180104,1700,RSW,FT_MYERS/SW_FLORIDA_(ASOS),26.53,-81.75,54,8,,,,34,'KRSW 041653Z 33007KT 300V010 10SM CLR 12/01 A3018 RMK AO2 SLP216 T01220011'
20180104,1700,TPA,TAMPA_INTL_AIRPORT_(ASOS),27.97,-82.53,53,15,24,,24,34,'KTPA 041653Z 29013G21KT 10SM SCT037 12/01 A3018 RMK AO2 SLP219 T01170011'
20180104,1700,SRQ,SARASOTA-BRADENTON_(ASOS),27.40,-82.55,53,10,,,,36,'KSRQ 041653Z 33009KT 10SM SCT042 12/02 A3017 RMK AO2 SLP215 T01170022'
20180104,1700,PIE,SAINT_PETERSBURG_(ASOS),27.92,-82.68,52,17,23,,23,37,'KPIE 041653Z 30015G20KT 10SM BKN036 11/03 A3018 RMK AO2 SLP219 T01110028'
20180104,1700,LAL,LAKELAND_REGIONAL,27.98,-82.02,48,14,,,,28,'KLAL 041650Z 30012KT 10SM SKC 09/M02 A3017'
20180104,1700,BOW,BARTOW_MUNICIPAL__&,27.95,-81.78,46,16,,,,27,'KBOW 041650Z 28014KT 10SM SKC 08/M03 A3016'
20180104,1700,AMG,ALMA/BACON_CO._(ASOS),31.53,-82.50,37,13,,,,12,'KAMG 041653Z AUTO 29011KT 10SM CLR 03/M11 A3007 RMK AO2 SLP182 T00281111'
20180104,1700,BQK,BRUNSWICK/GLYNCO,31.25,-81.47,34,9,,,,27,'KBQK 041735Z AUTO 27008KT 10SM CLR 02/M02 A3006 RMK AO2'
20180104,1700,TLH,TALLAHASSEE_RGNL_(ASOS),30.38,-84.37,40,13,,,,12,'KTLH 041653Z 28011KT 10SM CLR 04/M11 A3017 RMK AO2 SLP216 T00441111'
20180104,1700,GNV,GAINESVILLE_RGNL_(ASOS),29.68,-82.27,41,12,,,,15,'KGNV 041653Z 26010KT 10SM CLR 05/M09 A3014 RMK AO2 SLP209 T00501094'
20180104,1700,ABY,ALBANY_MUNICIPAL,31.53,-84.18,39,10,25,,25,11,'KABY 041653Z 31009G22KT 10SM CLR 04/M12 A3016 RMK AO2 SLP215 T00391117'
20180104,1700,VLD,VALDOSTA_REGIONAL_(ASOS),30.78,-83.28,40,6,,,,16,'KVLD 041653Z VRB05KT 10SM CLR 04/M09 A3012 RMK AO2 SLP210 T00441089'
20180104,1700,MCN,MACON/LEWIS_WILSON_(ASOS),32.70,-83.65,37,14,22,,22,9,'KMCN 041653Z 29012G19KT 10SM CLR 03/M13 A3008 RMK AO2 SLP188 T00281128'
20180104,1700,WRB,WARNER_ROBINS_AFB,32.63,-83.60,37,18,,,,9,'KWRB 041656Z 31016KT 10SM CLR 03/M13 A3007 RMK AO2A SLP188 T00301129'
20180104,1700,AGS,AUGUSTA/BUSH_FIELD_(ASOS),33.37,-81.97,38,16,,,,10,'KAGS 041653Z 29014KT 10SM CLR 03/M12 A2998 RMK AO2 SLP153 T00331122'
20180104,1700,ATL,ATLANTA_INTL_ARPT_(ASOS),33.65,-84.42,31,17,29,31,31,8,'KATL 041652Z 32015G25KT 10SM FEW250 M01/M13 A3006 RMK AO2 PK WND 32027/1632 SLP191 T10061133'
20180104,1700,FTY,ATLANTA/FULTON_CO._(ASOS),33.78,-84.52,30,20,24,,24,8,'KFTY 041653Z 30017G21KT 10SM CLR M01/M13 A3009 RMK AO2 SLP195 T10111133'
20180104,1700,PDK,ATLANTA/DEKALB_(ASOS),33.88,-84.30,29,16,25,31,31,7,'KPDK 041653Z 32014G22KT 10SM CLR M02/M14 A3006 RMK AO2 PK WND 32027/1629 SLP199 T10171139'
20180104,1700,VPS,EGLIN_AFB/VALPARAIS,30.48,-86.53,40,13,,,,9,'KVPS 041655Z 35011KT 10SM FEW025 04/M13 A3023 RMK AO2A FU FEW025 SLP244 T00431126 $'
20180104,1700,CEW,CRESTVIEW/BOB_SIKES_(ASOS),30.78,-86.52,39,8,17,,17,10,'KCEW 041653Z AUTO 36007G15KT 10SM CLR 04/M12 A3026 RMK AO2 SLP248 T00391122'
20180104,1700,PNS,PENSACOLA_REGIONAL(ASOS),30.47,-87.18,41,17,,,,12,'KPNS 041653Z 32015KT 10SM CLR 05/M11 A3026 RMK AO2 SLP250 T00501111'
20180104,1700,NPA,PENSACOLA_NAS,30.35,-87.32,41,10,,,,13,'KNPA 041656Z 35009KT 10SM FEW250 05/M11 A3026 RMK AO2 SLP248 T00501106 $'
20180104,1700,MOB,MOBILE/BATES_FIELD_(ASOS),30.68,-88.25,39,12,,,,13,'KMOB 041656Z 33010KT 10SM FEW060 FEW250 04/M11 A3029 RMK AO2 SLP258 T00391106'
20180104,1700,BFM,MOBILE_DOWNTOWN_(ASOS),30.63,-88.07,41,16,,,,13,'KBFM 041653Z 34014KT 10SM CLR 05/M11 A3031 RMK AO2 SLP262 T00501106'
20180104,1700,ECP,PANAMA_CITY,30.36,-85.80,42,14,,,,14,'KECP 041653Z 31012KT 10SM CLR 06/M10 A3021 RMK AO2 SLP244 T00561100'
20180104,1700,LSF,FORT_BENNING,32.33,-85.00,37,12,21,,21,9,'KLSF 041656Z AUTO 29010G18KT 10SM CLR 03/M13 A3014 RMK AO2 SLP214 T00261129'
20180104,1700,CSG,COLUMBUS_METRO_ARPT_(ASOS),32.52,-84.93,36,14,,,,7,'KCSG 041651Z 33012KT 10SM CLR 02/M14 A3014 RMK AO2 SLP208 T00221139'
20180104,1700,MGM,MONTGOMERY/DANNELLY_(ASOS),32.30,-86.40,35,12,,,,9,'KMGM 041653Z 31010KT 10SM CLR 02/M13 A3023 RMK AO2 SLP240 T00171128'
20180104,1700,MXF,MAXWELL_AFB/MONTGOM,32.38,-86.37,36,7,,,,12,'KMXF 041656Z AUTO 28006KT 10SM CLR 02/M11 A3021 RMK AO2 SLP234 T00221113 $'
20180104,1700,DHN,DOTHAN_MUNICIPAL,31.32,-85.45,37,14,,,,10,'KDHN 041653Z 32012KT 10SM CLR 03/M12 A3021 RMK AO2 SLPNO T00281122 $'
20180104,1700,OZR,CAIRNS_AAF/OZARK,31.28,-85.72,37,10,,,,9,'KOZR 041723Z AUTO 27011G16KT 10SM CLR 04/M13 A3018 RMK AO2 SLP225'
20180104,1700,MGE,DOBBINS_AFB/MARIETT,33.92,-84.52,29,24,,,,7,'KMGE 041656Z 29021KT 10SM CLR M02/M14 A3006 RMK AO2A SLP192 T10161141 $'
20180104,1700,BHM,BIRMINGHAM_MUNI_(ASOS),33.57,-86.75,30,16,21,,21,7,'KBHM 041653Z 32014G18KT 10SM CLR M01/M14 A3025 RMK AO2 SLP247 T10111139'
20180104,1700,AUO,AUBURN-OPELIKA_APT,32.62,-85.43,33,14,20,,20,9,'KAUO 041656Z AUTO 32012G17KT 10SM CLR 01/M13 A3014 RMK AO2 SLP232 T00061128 FZRANO'
20180104,1700,GAD,GADSEN_MUNI_(AWOS),33.97,-86.08,28,14,22,,22,9,'KGAD 041656Z AUTO 34012G19KT 10SM CLR M02/M13 A3022 RMK AO2 SLP244 T10221128 FZRANO'
20180104,1700,TCL,TUSCALOOSA_MUNI_(ASOS),33.22,-87.62,32,13,21,,21,9,'KTCL 041653Z 33011G18KT 10SM CLR 00/M13 A3030 RMK AO2 SLP260 T00001128'
20180104,1700,ANB,ANNISTON/CALHOUN_CO_(ASOS),33.58,-85.85,30,7,20,,20,8,'KANB 041653Z AUTO VRB06G17KT 10SM CLR M01/M13 A3020 RMK AO2 SLP240 T10111133'
20180104,1700,MSY,NEW_ORLEANS/MOISANT_(ASOS),29.98,-90.25,40,6,,,,18,'KMSY 041653Z 34005KT 10SM FEW250 04/M08 A3036 RMK AO2 SLP284 T00441078'
20180104,1700,ARA,NEW_IBERIA/ACADIANA_(ASOS),30.03,-91.88,42,6,,,,18,'KARA 041653Z 04005KT 10SM CLR 06/M08 A3039 RMK AO2 SLP290 T00561078'
20180104,1700,NEW,NEW_ORLEANS/LAKEFRO_(ASOS),30.05,-90.03,39,7,,,,18,'KNEW 041653Z 34006KT 10SM CLR 04/M08 A3037 RMK AO2 SLP276 T00391078'
20180104,1700,NBG,NEW_ORLEANS_NAS,29.83,-90.03,41,6,,,,19,'KNBG 041655Z VRB05KT 10SM CLR 05/M07 A3036 RMK AO2 SLP278 T00501072 PNO $'
20180104,1700,BTR,BATON_ROUGE/RYAN_(ASOS),30.53,-91.15,41,5,,,,15,'KBTR 041653Z VRB04KT 10SM CLR 05/M09 A3038 RMK AO2 SLP287 T00501094'
20180104,1700,PTN,PATTERSON_MEMORIAL,29.72,-91.33,41,7,,,,18,'KPTN 041656Z AUTO 06006KT 10SM CLR 05/M08 A3038 RMK AO2 SLP289 T00501078'
20180104,1700,MEI,MERIDIAN/KEY_FIELD_(ASOS),32.33,-88.75,37,10,,,,11,'KMEI 041658Z 34009KT 10SM CLR 03/M12 A3031 RMK AO2 SLP266 T00281117'
20180104,1700,NMM,MERIDIAN_NAS/MCCAIN,32.55,-88.57,35,10,17,,17,11,'KNMM 041656Z 35009G15KT 10SM SCT250 02/M12 A3032 RMK AO2 SLP281 T00171117 $'
20180104,1700,PIB,PINE_BELT_RGNL_AWOS,31.47,-89.33,37,8,,,,15,'KPIB 041656Z AUTO 34007KT 10SM CLR 03/M09 A3033 RMK AO2 SLP275 T00281094'
20180104,1700,JAN,JACKSON/THOMPSON_(ASOS),32.32,-90.08,35,9,,,,14,'KJAN 041654Z 33008KT 10SM CLR 02/M10 A3033 RMK AO2 SLP275 T00171100'
20180104,1700,GLH,GREENVILLE_MUNI,33.48,-90.98,32,13,,,,11,'KGLH 041653Z 35011KT 10SM CLR 00/M12 A3040 RMK AO2 SLP306 T00001117'
20180104,1700,MCB,MCCOMB/LEWIS_FIELD,31.18,-90.47,39,3,,,,15,'KMCB 041653Z AUTO VRB03KT 10SM CLR 04/M09 A3034 RMK AO2 SLP276 T00391094'
20180104,1700,GWO,GREENWOOD/LEFLORE_(ASOS),33.50,-90.08,31,9,,,,11,'KGWO 041653Z AUTO 36008KT 10SM CLR M01/M12 A3038 RMK AO2 SLP290 T10061117'
20180104,1700,POE,FORT_POLK_(ARMY),31.05,-93.20,40,7,,,,16,'KPOE 041658Z AUTO 10006KT 8SM CLR 04/M09 A3037 RMK AO2 SLP289 T00421087'
20180104,1700,LCH,LAKE_CHARLES_MUNI_(ASOS),30.12,-93.22,41,7,,,,21,'KLCH 041653Z 08006KT 10SM CLR 05/M06 A3039 RMK AO2 SLP299 T00501061'
20180104,1700,LFT,LAFAYETTE_REGIONAL_(ASOS),30.20,-91.98,42,6,,,,18,'KLFT 041653Z VRB05KT 10SM CLR 06/M08 A3039 RMK AO2 SLP290 T00561078 $'
20180104,1700,MLU,MONROE_REGIONAL_(ASOS),32.52,-92.03,36,5,,,,15,'KMLU 041653Z VRB04KT 10SM CLR 02/M09 A3042 RMK AO2 SLP302 T00221094'
20180104,1700,ESF,ALEXANDRIA/ESLER_(ASOS),31.40,-92.30,38,0,,,,16,'KESF 041653Z AUTO 00000KT 10SM CLR 03/M09 A3039 RMK AO2 SLP292 T00331089'
20180104,1700,ILM,WILMINGTON/NEW_HAN_(ASOS),34.27,-77.90,33,16,,,,14,'KILM 041653Z 30014KT 10SM CLR 01/M10 A2983 RMK AO2 SLP100 T00061100'
20180104,1700,POB,POPE_AFB,35.17,-79.02,32,13,24,,24,10,'KPOB 041656Z AUTO 32011G21KT 10SM SCT050 00/M12 A2983 RMK AO2 SLP107 T10021122 $'
20180104,1700,MQI,MANTEO/DARE_CO_RGNL,35.92,-75.70,27,16,33,,33,23,'KMQI 041645Z AUTO 31014G29KT OVC013 M03/M05 A2967 RMK AO2 T10281051 PWINO'
20180104,1700,RDU,RALEIGH-DURHAM_(ASOS),35.87,-78.78,29,21,29,33,33,6,'KRDU 041651Z 30018G25KT 280V340 10SM FEW055 M02/M14 A2982 RMK AO2 PK WND 35029/1608 SLP102 T10171144'
20180104,1700,GSB,SEYMOUR-JOHNSON_AFB,35.33,-77.97,32,15,21,,21,10,'KGSB 041729Z AUTO 31012G21KT 10SM CLR 00/M13 A2978 RMK AO2 WSHFT 20 SLPNO $'
20180104,1700,ISO,KINSTON/STALLINGS,35.33,-77.61,32,12,22,,22,12,'KISO 041656Z 29010G19KT 10SM SCT047 00/M11 A2979 RMK AO2'
20180104,1700,RWI,ROCKY_MOUNT-WILSON_(ASOS),35.85,-77.90,30,17,24,,24,11,'KRWI 041653Z AUTO 31015G21KT 10SM CLR M01/M12 A2979 RMK AO2 SLP088 T10111117'
20180104,1700,OAJ,JACKSONVILLE_(AWOS),34.83,-77.62,35,10,16,,16,18,'KOAJ 041656Z AUTO 29009G14KT 10SM CLR 02/M08 A2980 RMK AO2 SLP096 T00171078 FZRANO'
20180104,1700,NTU,OCEANA_NAS/SOUCEK,36.82,-76.03,23,20,28,,28,19,'KNTU 041712Z AUTO 30016G24KT 1SM -SN FEW012 BKN017 OVC024 M04/M07 A2962 RMK AO2P0000 T10441072 $'
20180104,1700,ORF,NORFOLK_INTL_ARPT_(ASOS),36.90,-76.20,24,13,28,,28,24,'KORF 041731Z 30012G22KT 250V330 1 3/4SM R05/3000VP6000FT BR FEW019 BKN027 OVC034 M04/M06 A2967 RMK AO2 T10441056'
20180104,1700,FKN,FRANKLIN/J_B_ROSE,36.70,-76.90,27,14,23,,23,18,'KFKN 041735Z AUTO 31016G21KT 10SM SCT028 BKN035 OVC049 M02/M08 A2972 RMK AO2 T10201085'
20180104,1700,NGU,NORFOLK_NAS/CHAMBER,36.93,-76.28,25,29,41,40,41,19,'KNGU 041730Z AUTO 30028G35KT 1/2SM HZ FEW020 BKN025 OVC038 M04/M07 A2968 RMK AO2 PK WND 29035/1729 T10391072 PWINO FZRANO $'
20180104,1700,PHF,NEWPORT_NEWS_(ASOS),37.13,-76.50,24,23,33,37,37,18,'KPHF 041721Z 31017G28KT 1 1/4SM -SN FEW022 BKN035 OVC047 M04/M08 A2967 RMK AO2 PK WND 30032/1706 P0000 T10441083'
20180104,1700,FAF,FORT_EUSTIS/FELKER,37.13,-76.62,24,23,37,,37,18,'KFAF 041726Z AUTO 31021G28KT 1 1/2SM +UP OVC015 M04/M08 A2965 RMK AO2 SNE17UPB17 SLP044 $'
20180104,1700,NKT,CHERRY_POINT_MCAS,34.90,-76.88,39,12,,,,-9999,'KNKT 041654Z 29010KT 10SM -RA CLR 04/ A2979 RMK AO2 SLP084 T0044 PNO $'
20180104,1700,EWN,NEW_BERN/CRAVEN_CO_(ASOS),35.07,-77.05,30,13,22,,22,18,'KEWN 041654Z AUTO 30011G19KT 10SM CLR M01/M08 A2978 RMK AO2 SLP085 T10111078'
20180104,1700,NCA,NEW_RIVER_MCAS,34.72,-77.45,31,17,24,,24,19,'KNCA 041656Z AUTO 29015G21KT 10SM CLR M01/M07 A2980 RMK AO2 SNB32E47 SLP093 P0000 T10061072 $'
20180104,1700,CAE,COLUMBIA_METRO_(ASOS),33.95,-81.12,38,12,24,,24,13,'KCAE 041656Z 30010G21KT 10SM CLR 03/M11 A2993 RMK AO2 SLP135 T00331106'
20180104,1700,MMT,MCENTIRE_ANG_BASE,33.92,-80.80,38,17,,,,11,'KMMT 041656Z AUTO 32015KT 10SM CLR 03/M12 A2992 RMK AO2 SLP137 T00321119 $'
20180104,1700,FLO,FLORENCE_REGIONAL_(ASOS),34.18,-79.72,32,13,,,,13,'KFLO 041653Z 32011KT 10SM CLR 00/M11 A2989 RMK AO2 UPB33E42 SLP121 P0000 T00001106'
20180104,1700,AHN,ATHENS_MUNICIPAL_(ASOS),33.95,-83.32,34,13,21,,21,10,'KAHN 041651Z 29011G18KT 10SM CLR 01/M12 A3000 RMK AO2 SLP165 T00111122'
20180104,1700,GMU,GREENVILLE_DOWNTOWN_(ASOS),34.85,-82.35,35,3,,,,8,'KGMU 041653Z VRB03KT 10SM CLR 02/M13 A2993 RMK AO2 SLP144 T00171133'
20180104,1700,GSP,GREENVILLE/SPARTANB_(ASOS),34.90,-82.22,31,14,21,,21,7,'KGSP 041653Z 03012G18KT 10SM CLR M01/M14 A2994 RMK AO2 SLP146 T10061139'
20180104,1700,AND,ANDERSON_CO_AIRPORT_(ASOS),34.50,-82.72,35,14,,,,7,'KAND 041656Z AUTO 31012KT 10SM CLR 02/M14 A2994 RMK AO2 SLP142 T00171139'
20180104,1700,HSE,HATTERAS_(ASOS),35.22,-75.62,31,16,32,37,37,24,'KHSE 041651Z AUTO 30014G28KT 10SM FEW031 M01/M04 A2971 RMK AO2 PK WND 30032/1600 SLP059 T10061044 TSNO'
20180104,1700,CLT,CHARLOTTE/DOUGLAS_(ASOS),35.22,-80.95,34,10,21,,21,6,'KCLT 041652Z 34009G18KT 10SM FEW030 01/M14 A2990 RMK AO2 SLP133 T00111144'
20180104,1700,SOP,SOUTHERN_PINES_AWOS,35.23,-79.40,33,13,23,,23,8,'KSOP 041656Z AUTO 31011G20KT 260V340 10SM CLR 01/M13 A2984 RMK AO2 SLP124 T00061133 FZRANO'
20180104,1700,HKY,HICKORY_REGIONAL_(ASOS),35.73,-81.38,25,17,24,,24,1,'KHKY 041653Z 32015G21KT 10SM CLR M04/M17 A2991 RMK AO2 SLP131 T10391172'
20180104,1700,AVL,ASHEVILLE_MUNICIPAL_(ASOS),35.43,-82.55,22,21,31,36,36,3,'KAVL 041654Z 36018G27KT 10SM CLR M06/M16 A2989 RMK AO2 PK WND 35031/1607 SLP142 T10561161'
20180104,1700,GSO,GREENSBORO/PIEDMONT_(ASOS),36.08,-79.95,26,21,33,38,38,0,'KGSO 041654Z 33018G29KT 10SM FEW055 M03/M18 A2983 RMK AO2 PK WND 30033/1610 SLP111 T10331178'
20180104,1700,TRI,BRISTOL/TRI-CITY__(ASOS),36.48,-82.40,20,16,,,,4,'KTRI 041653Z 33014KT 10SM OVC043 M07/M16 A3001 RMK AO2 SLP170 VIRGA T10671156'
20180104,1700,INT,WINSTON-SALEM/SMITH_(ASOS),36.13,-80.22,26,15,30,32,32,0,'KINT 041654Z 30013G26KT 10SM CLR M03/M18 A2986 RMK AO2 PK WND 33028/1603 SLP120 T10331178'
20180104,1700,RMG,ROME/RUSSELL_(ASOS),34.35,-85.17,30,17,24,,24,6,'KRMG 041653Z AUTO 33015G21KT 10SM CLR M01/M14 A3014 RMK AO2 SLP210 T10111144'
20180104,1700,HSV,HUNTSVILLE/MADISON_(ASOS),34.65,-86.77,24,13,,,,8,'KHSV 041653Z 31011KT 10SM CLR M04/M13 A3027 RMK AO2 SLP255 T10441133'
20180104,1700,MSL,MUSCLE_SHOALS_RGNL_(ASOS),34.75,-87.62,24,9,,,,7,'KMSL 041653Z AUTO 33008KT 10SM CLR M04/M14 A3031 RMK AO2 SLP270 T10441139'
20180104,1700,CHA,CHATTANOOGA/LOVELL_(ASOS),35.03,-85.20,25,15,,,,6,'KCHA 041653Z 33013KT 10SM SCT040 M04/M14 A3018 RMK AO2 SLP227 T10391144'
20180104,1700,TYS,KNOXVILLE_MUNICIPAL_(ASOS),35.82,-83.98,23,13,22,,22,12,'KTYS 041653Z 01011G19KT 10SM SCT025 BKN042 M05/M11 A3013 RMK AO2 SNB30E43 SLP213 P0000 T10501111'
20180104,1700,CSV,CROSSVILLE_MEMORIAL,35.95,-85.08,16,7,,,,5,'KCSV 041653Z AUTO VRB06KT 10SM BKN023 M09/M15 A3010 RMK AO2 SNE02 SLP217 P0000 T10891150'
20180104,1700,BNA,NASHVILLE_METRO_(ASOS),36.13,-86.68,19,14,,,,3,'KBNA 041653Z 35012KT 10SM FEW030 M07/M16 A3031 RMK AO2 SLP272 T10721161'
20180104,1700,MQY,SMYRNA,36.02,-86.52,17,10,,,,7,'KMQY 041656Z 31009KT 10SM SCT026 M08/M14 A3032 RMK AO2 SLP320 T10831139'
20180104,1700,CBM,COLUMBUS_AFB,33.65,-88.45,29,10,,,,11,'KCBM 041656Z AUTO 30009KT 10SM CLR M01/M12 A3033 RMK AO2 SLP276 T10141118 $'
20180104,1700,GTR,GOLDEN_TRI(AWOS),33.45,-88.58,30,14,,,,11,'KGTR 041656Z 33012KT 10SM CLR M01/M12 A3033 RMK AO2 SLP276 T10111117'
20180104,1700,TUP,TUPELO/C.D._LEMONS_(ASOS),34.27,-88.77,26,12,,,,6,'KTUP 041653Z 33010KT 10SM CLR M03/M14 A3035 RMK AO2 SLP280 T10331144'
20180104,1700,MEM,MEMPHIS_INTL_ARPT_(ASOS),35.05,-90.00,24,8,,,,5,'KMEM 041654Z 36007KT 10SM CLR M04/M15 A3039 RMK AO2 SLP294 T10441150 $'
20180104,1700,NQA,MEMPHIS_NAS,35.35,-89.87,21,9,,,,5,'KNQA 041650Z 32008KT 10SM SKC M06/M15 A3040'
20180104,1700,MKL,JACKSON/MCKELLAR_(ASOS),35.60,-88.92,19,12,,,,5,'KMKL 041653Z 34010KT 10SM CLR M07/M15 A3039 RMK AO2 SLP295 T10721150'
20180104,1700,DYR,DYERSBURG(AWOS),36.00,-89.40,19,9,,,,4,'KDYR 041656Z AUTO 02008KT 10SM CLR M07/M16 A3042 RMK AO2 SLPNO T10721156 FZRANO'
20180104,1700,LIT,LITTLE_ROCK/ADAMS_(ASOS),34.73,-92.23,31,3,,,,10,'KLIT 041653Z VRB03KT 10SM FEW250 M01/M12 A3043 RMK AO2 SLP310 T10061122'
20180104,1700,LRF,LITTLE_ROCK_AFB,34.92,-92.15,29,6,,,,9,'KLRF 041656Z AUTO 03005KT 10SM CLR M02/M13 A3041 RMK AO2 SLP305 T10161129'
20180104,1700,ARG,WALNUT_RIDGE_(AWOS),36.13,-90.92,21,7,,,,5,'KARG 041656Z AUTO 36006KT 10SM CLR M06/M15 A3043 RMK AO2 SLP310 T10611150 FZRANO'
20180104,1700,JBR,JONESBORO_MUNICIPAL_(ASOS),35.83,-90.65,23,6,,,,6,'KJBR 041653Z AUTO VRB05KT 10SM CLR M05/M14 A3042 RMK AO2 SLP303 T10501144 $'
20180104,1700,HOT,HOT_SPRINGS_(ASOS),34.48,-93.10,35,5,,,,11,'KHOT 041653Z AUTO 08004KT 10SM CLR 02/M12 A3040 RMK AO2 SLP298 T00171117'
20180104,1700,SGT,STUTTGART_(AWOS),34.60,-91.57,27,10,,,,12,'KSGT 041656Z AUTO 04009KT 10SM CLR M03/M11 A3043 RMK AO2 SLP307 T10281111 FZRANO'
20180104,1700,PBF,PINE_BLUFF/GRIDER_(ASOS),34.18,-91.93,30,12,,,,11,'KPBF 041653Z AUTO 02010KT 10SM CLR M01/M12 A3043 RMK AO2 SLP306 T10111117'
20180104,1700,ELD,EL_DORADO/GOODWIN_(ASOS),33.22,-92.80,36,6,,,,16,'KELD 041653Z AUTO VRB05KT 10SM CLR 02/M09 A3041 RMK AO2 SLP300 T00221089'
20180104,1700,HRO,HARRISON/BOONE_CO_(ASOS),36.27,-93.15,23,8,,,,2,'MHRO 041700Z 32012KT 9999 BKN020TCU 25/20 Q1020 A3012 NOSIG'
20180104,1700,BVX,BATESVILLE_(AWOS),35.73,-91.65,25,5,,,,6,'KBVX 041656Z AUTO VRB04KT 10SM CLR M04/M14 A3041 RMK AO2 SLP305 T10391144 FZRANO'
20180104,1700,CGI,CAPE_GIRARDEAU_MUNI_(ASOS),37.23,-89.57,16,8,,,,0,'KCGI 041653Z 33007KT 10SM CLR M09/M18 A3041 RMK AO2 SLP304 T10891178'
20180104,1700,RIC,RICHMOND/BYRD_FIELD_(ASOS),37.50,-77.33,23,13,23,,23,18,'KRIC 041713Z 31011KT 6SM BLSN BR BKN035 OVC055 M04/M08 A2971 RMK AO2 T10391083'
20180104,1700,PTB,PETERSBURG_(AWOS),37.18,-77.52,27,12,,,,16,'KPTB 041741Z AUTO 30010G19KT 10SM SCT036 SCT042 OVC049 M02/M14 A2973 RMK AO2'
20180104,1700,FVX,FARMVILLE,37.35,-78.43,30,9,22,,22,9,'KFVX 041735Z AUTO 34007KT 280V010 10SM SCT055 00/M13 A2974 RMK AO2 T10031128'
20180104,1700,WAL,WALLOPS_ISLAND_STN_(ASOS),37.93,-75.48,24,30,45,47,47,21,'KWAL 041732Z AUTO 30021G37KT 1/2SM FZFG BKN016 OVC022 M04/M06 A2949 RMK AO2 PK WND 29041/1705 T10441061 PWINO FZRANO'
20180104,1700,MFV,MELFA/ACCOMACK_ARPT,37.65,-75.77,25,30,45,,45,22,'KMFV 041735Z AUTO 30026G35KT 1/2SM -SN OVC012 M04/M05 A2957 RMK AO2 T10371055'
20180104,1700,OFP,RICHMOND_(ASOS),37.70,-77.43,24,16,26,,26,16,'KOFP 041703Z AUTO 31011G20KT 4SM -SN BKN037 OVC044 M04/M09 A2973 RMK AO2 P0000 T10441089'
20180104,1700,IAD,WASHINGTON/DULLES_(ASOS),38.95,-77.45,24,28,41,46,46,10,'KIAD 041652Z 32025G36KT 10SM FEW013 BKN029 OVC040 M04/M12 A2968 RMK AO2 PK WND 32040/1629 SLP054 P0000 T10441122'
20180104,1700,EZF,SHANNON_ARPT,38.27,-77.45,25,16,35,,35,15,'KEZF 041735Z AUTO 32022G29KT 10SM CLR M03/M11 A2970 RMK AO2 T10311107'
20180104,1700,NYG,QUANTICO_MCAF,38.50,-77.30,26,30,43,43,43,13,'KNYG 041656Z 33026G37KT 3SM BLSN BKN028 OVC037 M03/M11 A2971 RMK AO2 PK WND 34037/1649 SNE50 SLP062 P0000 T10331106'
20180104,1700,HEF,MANASSAS_MUNI(AWOS),38.72,-77.52,24,22,32,39,39,12,'KHEF 041656Z 32019G28KT 9SM -SN BKN041 BKN050 OVC060 M04/M11 A2971 RMK AO2 PK WND 34034/1609 SNE13B47 SLP072 T10441111 FZRANO PNO $'
20180104,1700,DAA,FORT_BELVOIR/DAVISO,38.72,-77.18,23,20,29,,29,16,'KDAA 041721Z AUTO 31021G31KT 6SM BLSN SCT013 M04/M10 A2967 RMK AO2 UPE1656SNB1656E08UPB08E11SNB11 SLP051 $'
20180104,1700,NHK,PATUXENT_RIVER_NAS,38.28,-76.40,23,24,38,43,43,18,'KNHK 041652Z AUTO 29021G33KT 1SM HZ FEW022 OVC033 M05/M08 A2960 RMK AO2 PK WND 31037/1558 CIG 027 RY24 SLP023 T10501078 PWINO FZRANO $'
20180104,1700,SBY,SALISBURY_REGIONAL_(ASOS),38.33,-75.52,23,23,37,41,41,20,'KSBY 041654Z 30020G32KT 1/2SM FZFG VV012 M05/M07 A2948 RMK AO2 PK WND 32036/1601 SLP985 T10501067'
20180104,1700,DCA,WASHINGTON/NATIONAL_(ASOS),38.85,-77.03,25,21,30,41,41,16,'KDCA 041725Z 33023G32KT 10SM BKN038 OVC048 M03/M11 A2966 RMK AO2 PK WND 33036/1706 SNE17 T10331106 PNO $'
20180104,1700,OKV,WINCHESTER_RGNL,39.15,-78.15,21,17,29,,29,10,'KOKV 041735Z AUTO 32020G35KT 7SM BKN034 BKN045 M05/M13 A2973 RMK AO2'
20180104,1700,JYO,LEESBURG/GODFREY,39.08,-77.57,27,28,44,,44,14,'KJYO 041735Z AUTO 34027G34KT 10SM BKN042 BKN050 OVC075 M03/M11 A2969 RMK AO2'
20180104,1700,MKJ,MARION_/_WYTHEVILLE,36.90,-81.35,15,14,25,,25,2,'KMKJ 041735Z AUTO 30016G27KT 5SM HZ BKN027 OVC032 M10/M17 A2984 RMK AO2 T10961175'
20180104,1700,VJI,ABINGTON,36.68,-82.03,17,13,22,,22,4,'KVJI 041735Z AUTO 34010G19KT 10SM BKN036 OVC043 M07/M15 A2994 RMK AO2 T10751153'
20180104,1700,BWI,BALTIMORE/WASH_INTL_(ASOS),39.18,-76.67,23,20,35,35,35,15,'KBWI 041737Z 30017G30KT 3SM -SN BR FEW029 BKN042 OVC049 M05/M09 A2959 RMK AO2 PK WND 30030/1730 PNO T10501089'
20180104,1700,HGR,HAGERSTOWN_REGIONAL_(ASOS),39.70,-77.73,24,26,37,40,40,8,'KHGR 041653Z 33023G32KT 10SM BKN042 OVC095 M04/M13 A2969 RMK AO2 PK WND 33035/1622 SLP072 T10441133'
20180104,1700,MTN,BALTIMORE/MARTIN,39.33,-76.42,25,29,38,,38,18,'KMTN 041725Z 27024G33KT 2SM -SN BKN030 OVC045 M04/M07 A2959'
20180104,1700,ACY,ATLANTIC_CITY_INTL_(ASOS),39.45,-74.57,24,28,47,47,47,23,'KACY 041654Z 32024G41KT 1/8SM FZFG VV007 M04/M05 A2929 RMK AO2 PK WND 32041/1645 SFC VIS 1/4 SLP919 P0003 T10441050 $'
20180104,1700,MIV,MILLVILLE_MUNICIPAL_(ASOS),39.37,-75.07,21,23,38,36,38,21,'KMIV 041714Z AUTO 31021G28KT 1/2SM FZFG VV013 M06/M06 A2939 RMK AO2 PK WND 31031/1701 T10561061 PWINO FZRANO $'
20180104,1700,PHL,PHILADELPHIA_INTL_(ASOS),39.88,-75.25,22,28,43,41,43,18,'KPHL 041727Z 33025G35KT 3/4SM R09R/3500V5000FT -SN BLSN OVC011 M05/M08 A2942 RMK AO2 PK WND 34036/1711 P0001 T10501078'
20180104,1700,BLM,BELMAR-FARMDALE,40.18,-74.13,23,,,,,22,'KBLM 041735Z AUTO 1/2SM SN FZFG OVC009 M05/M06 A2925 RMK AO2 CIG 003V011 P0000 FZRANO RVRNO $'
20180104,1700,PNE,PHILADELPHIA_NE_(ASOS),40.08,-75.02,24,25,37,37,37,19,'KPNE 041722Z 33021G32KT 1/4SM HZ VV010 M04/M07 A2940 RMK AO2 PK WND 33032/1717 T10441072 RVRNO $'
20180104,1700,DOV,DOVER_AFB,39.13,-75.47,22,26,35,,35,22,'KDOV 041726Z 30024G30KT 3/4SM R19/3500V4500FT SN BLSN BR VV014 M05/M05 A2945 RMK AO2A TWR VIS 1/2 CIG 011 RWY01 SLP976 $'
20180104,1700,ILG,WILMINGTON_AIRPORT_(ASOS),39.68,-75.60,22,23,39,40,40,18,'KILG 041651Z 32020G34KT 3/4SM R01/4500VP6000FT -SN BR OVC020 M06/M08 A2949 RMK AO2 PK WND 31035/1639 SLP985 P0012 T10561078'
20180104,1700,TTN,TRENTON/MERCER_CO._(ASOS),40.28,-74.82,23,22,32,41,41,19,'KTTN 041729Z 34022G30KT 1/4SM BLSN FZFG VV011 M05/M07 A2935 RMK AO2 PK WND 34036/1714 T10501072 $'
20180104,1700,WRI,MCGUIRE_AFB,40.02,-74.60,23,25,32,,32,21,'KWRI 041731Z 31024G30KT 3/8SM BLSN VV008 M05/M06 A2929 RMK AO2A CIG 001 RWY18 CIG 007 RWY24 SLP920 $'
20180104,1700,MMU,MORRISTOWN_MUNI,40.80,-74.42,23,18,33,,33,19,'KMMU 041645Z 36016G29KT 1/4SM +SN BLSN VV008 M05/M07 A2938'
20180104,1700,LYH,LYNCHBURG/P._GLENN_(ASOS),37.33,-79.20,26,14,28,30,30,0,'KLYH 041654Z 31012G24KT 280V360 10SM CLR M03/M18 A2977 RMK AO2 PK WND 34026/1620 SLP090 T10331178'
20180104,1700,SHD,STAUNTON/SHENANDOAH,38.27,-78.90,24,18,28,,28,1,'KSHD 041735Z AUTO 32018G24KT 10SM BKN049 M04/M17 A2975 RMK AO2 T10431172'
20180104,1700,ROA,ROANOKE_MUNICIPAL_(ASOS),37.32,-79.97,24,22,29,38,38,2,'KROA 041654Z 31019G25KT 10SM OVC050 M04/M17 A2984 RMK AO2 PK WND 30033/1559 SLP119 T10441167'
20180104,1700,BCB,VIRGINIA_TECH_ARPT,37.22,-80.42,17,21,29,,29,2,'KBCB 041735Z AUTO 30017G28KT 10SM OVC034 M08/M16 A2981 RMK AO2 T10801164'
20180104,1700,HSP,HOT_SPRINGS/INGALLS,37.95,-79.83,10,25,39,,39,-2,'KHSP 041735Z AUTO 31011G33KT 280V350 5SM HZ OVC018 M13/M18 A2958 RMK AO2 T11321184'
20180104,1700,PSK,DUBLIN/NEW_RIV_VLLY,37.13,-80.68,20,16,29,,29,1,'KPSK 041735Z AUTO 31015G31KT 10SM OVC036 M07/M16 A2982 RMK AO2 T10731164'
20180104,1700,LNP,WISE/LONESOME_PINE,36.98,-82.53,14,13,18,,18,7,'KLNP 041735Z AUTO 31011G15KT 270V330 4SM BKN019 OVC027 M11/M14 A2993 RMK AO2 PWINO'
20180104,1700,BKW,BECKLEY_MEMORIAL_(ASOS),37.78,-81.12,10,16,23,,23,4,'KBKW 041706Z AUTO 31015G23KT 1SM -SN VV015 M12/M16 A2985 RMK AO2 VIS 1/4 RWY19 P0000 T11221156 TSNO'
20180104,1700,BLF,BLUEFIELD/MERCER_CO,37.30,-81.20,9,16,26,30,30,2,'KBLF 041652Z AUTO 31014G23KT 3/4SM -SN BKN014 OVC021 M13/M17 A2983 RMK AO2 PK WND 32026/1556 SLP144 P0000 T11281167'
20180104,1700,LWB,LEWISBURG/GREENBRIE,37.87,-80.40,14,7,17,,17,6,'KLWB 041735Z AUTO 31009G16KT 260V350 1 1/4SM -SN SCT007 BKN014 OVC022 M10/M14 A2981 RMK AO2 T11041140'
20180104,1700,CRW,CHARLESTON/KANAWHA_(ASOS),38.37,-81.60,17,17,26,,26,7,'KCRW 041654Z 31015G23KT 7SM -SN SCT017 BKN025 OVC038 M08/M14 A3003 RMK AO2 SLP182 P0000 BINOVC T10831139'
20180104,1700,EKN,ELKINS/RANDOLPH_FLD_(ASOS),38.88,-79.85,13,16,23,,23,4,'KEKN 041728Z AUTO 30015KT 1 1/4SM -SN SCT021 OVC034 M11/M16 A2982 RMK AO2 P0058T11061156 TSNO'
20180104,1700,CKB,CLARKSBURG/BENEDUM_(ASOS),39.30,-80.23,18,16,22,,22,6,'KCKB 041653Z 29014G19KT 3SM HZ SCT028 OVC035 M08/M14 A2991 RMK AO2 SNE02B18E51 SLP142 P0000 T10781144'
20180104,1700,MGW,MORGANTOWN/HART_FLD_(ASOS),39.65,-79.92,16,12,21,,21,5,'KMGW 041653Z VRB05G14KT 10SM OVC030 M09/M15 A2990 RMK AO2 SLP144 T10891150'
20180104,1700,MRB,MARTINSBURG_RGNL,39.40,-77.98,23,25,35,40,40,7,'KMRB 041653Z 31022G30KT 10SM FEW035 SCT042 BKN110 M05/M14 A2973 RMK AO2 PK WND 31035/1636 SLP075 T10501139'
20180104,1700,CVG,CINCINNATI/COVINGTO_(ASOS),39.05,-84.67,14,7,,,,7,'KCVG 041652Z 30006KT 9SM OVC044 M10/M14 A3018 RMK AO2 SLP232 T11001139'
20180104,1700,LEX,LEXINGTON/BLUEGRASS_(ASOS),38.03,-84.60,16,9,,,,7,'KLEX 041654Z 28008KT 10SM OVC047 M09/M14 A3019 RMK AO2 SNB14E23 SLP236 P0000 T10891139'
20180104,1700,SDF,LOUISVILLE/STANDIFO_(ASOS),38.18,-85.73,18,9,,,,4,'KSDF 041734Z 28010KT 10SM SCT021 M07/M14 A3025 RMK AO2 T10671144'
20180104,1700,LOU,LOUISVILLE/BOWMAN_(ASOS),38.23,-85.67,18,7,,,,6,'KLOU 041708Z 29007KT 10SM SCT018 M08/M14 A3027 RMK AO2 T10831144'
20180104,1700,JKL,JACKSON/J._CARROLL_(ASOS),37.60,-83.32,16,9,,,,6,'KJKL 041719Z AUTO 32006KT 10SM SCT022 BKN027 OVC045 M09/M14 A3010 RMK AO2 T10891144'
20180104,1700,OWB,OWENSBORO/DAVIESS,37.73,-87.17,14,12,,,,3,'KOWB 041656Z 31010KT 10SM CLR M10/M16 A3035 RMK AO2 SLP292 T11001161'
20180104,1700,FTK,FORT_KNOX/GODMAN__&,37.90,-85.97,15,8,,,,4,'KFTK 041656Z AUTO 28007KT 10SM CLR M09/M15 A3024 RMK AO2 SLP256 T10931155'
20180104,1700,LOZ,LONDON-CORBIN_ARPT_(ASOS),37.09,-84.07,15,9,,,,6,'KLOZ 041653Z AUTO 31008KT 280V350 10SM BKN020 M09/M14 A3015 RMK AO2 SLP226 T10941144'
20180104,1700,HTS,HUNTINGTON/TRI_STAT_(ASOS),38.37,-82.55,18,12,20,,20,5,'KHTS 041651Z 30010G17KT 9SM BKN025 BKN034 OVC050 M08/M15 A3010 RMK AO2 SNE07B41E51 SLP202 P0000 T10781150'
20180104,1700,PKB,PARKERSBURG/WILSON&,39.35,-81.43,18,15,29,,29,7,'KPKB 041700Z 30015G23KT 10SM FEW024 SCT032 OVC042 M08/M16 A3004 RMK AO2 T10831156'
20180104,1700,HLG,WHEELING/OHIO_CO._(ASOS),40.18,-80.65,14,18,26,31,31,1,'KHLG 041653Z 31016G23KT 10SM OVC031 M10/M17 A2993 RMK AO2 PK WND 30027/1556 SLP159 T11001172'
20180104,1700,CMH,PORT_COLUMBUS_INTL_(ASOS),40.00,-82.88,14,17,,,,3,'KCMH 041651Z 34015KT 10SM FEW029 BKN038 M10/M16 A3009 RMK AO2 SLP204 T11001161'
20180104,1700,LCK,RICKENBACKER_ANGB,39.82,-82.93,14,15,21,,21,4,'KLCK 041735Z AUTO 33011G18KT 10SM OVC034 M10/M16 A3010 RMK AO2 T11031162'
20180104,1700,ZZV,ZANESVILLE_MUNI_(ASOS),39.95,-81.90,16,15,21,,21,7,'KZZV 041700Z AUTO 30012KT 8SM -SN FEW015 SCT025 OVC037 M09/M15 A3003 RMK AO2 P0000 T10941150'
20180104,1700,OSU,OHIO_ST_U/COLUMBUS_(ASOS),40.08,-83.07,12,16,24,,24,2,'KOSU 041653Z 34014G21KT 10SM FEW028 BKN038 M11/M17 A3009 RMK AO2 SLP207 T11111167'
20180104,1700,DAY,DAYTON/JAMES_M_COX_(ASOS),39.90,-84.20,13,14,,,,3,'KDAY 041656Z 33012KT 10SM FEW025 BKN044 M11/M16 A3014 RMK AO2 SLP225 T11061161'
20180104,1700,LUK,CINCINNATI/LUNKIN_(ASOS),39.10,-84.42,17,7,,,,8,'KLUK 041653Z 32006KT 9SM OVC048 M08/M13 A3023 RMK AO2 SLP243 T10831133'
20180104,1700,EVV,EVANSVILLE_REGIONAL_(ASOS),38.05,-87.53,14,8,,,,3,'KEVV 041654Z 34007KT 10SM CLR M10/M16 A3036 RMK AO2 SLP289 T11001161 $'
20180104,1700,MVN,MOUNT_VERNON_(AWOS),38.32,-88.87,14,10,,,,1,'KMVN 041656Z AUTO 31009KT 270V010 10SM CLR M10/M17 A3040 RMK AO2 SLP302 T11001172 FZRANO'
20180104,1700,MDH,CARBONDALE/MURPHYSB_(ASOS),37.78,-89.25,12,7,,,,1,'KMDH 041652Z 31006KT 10SM CLR M11/M17 A3042 RMK AO2 SLP308 T11111172'
20180104,1700,BLV,SCOTT_AFB/BELLEVILL,38.55,-89.85,12,10,,,,-2,'KBLV 041656Z AUTO 30009KT 10SM CLR M11/M19 A3041 RMK AO2 SLP310 T11111191 $'
20180104,1700,MWA,MARION_REGIONAL,37.75,-89.02,12,12,,,,0,'KMWA 041647Z 31010KT 10SM SKC M11/M18 A3040'
20180104,1700,STL,ST._LOUIS/LAMBERT_(ASOS),38.75,-90.37,11,8,,,,0,'KSTL 041651Z 32007KT 10SM CLR M12/M18 A3042 RMK AO2 SLP324 T11171178'
20180104,1700,SUS,SPIRIT_OF_ST_LOUIS_(ASOS),38.67,-90.65,11,3,,,,0,'KSUS 041654Z VRB03KT 10SM CLR M12/M18 A3042 RMK AO2 SLP318 T11171178'
20180104,1700,PAH,PADUCAH/BARKLEY___(ASOS),37.07,-88.77,16,7,,,,0,'KPAH 041653Z 34006KT 10SM CLR M09/M18 A3038 RMK AO2 SLP295 T10891178'
20180104,1700,SME,SOMERSET(AWOS),37.06,-84.61,18,7,23,,23,5,'KSME 041715Z AUTO 36007G14KT 10SM BKN025 M07/M14 A3022 RMK AO2'
20180104,1700,BAK,COLUMBUS/BALKALAR_&,39.27,-85.90,10,7,,,,1,'KBAK 041647Z 31006KT 10SM SCT090 M12/M17 A3025'
20180104,1700,HNB,HUNTINGBURG,38.25,-86.95,15,8,,,,4,'KHNB 041656Z AUTO 31007KT 10SM CLR M09/M16 A3033 RMK AO2 SLP279 T10941156 FZRANO'
20180104,1700,HUF,TERRE_HAUTE/HULMAN_(ASOS),39.45,-87.32,5,8,,,,-5,'KHUF 041653Z 32007KT 10SM CLR M15/M21 A3033 RMK AO2 SLP284 T11501206'
20180104,1700,BMG,BLOOMINGTON/MONROE_(ASOS),39.15,-86.62,11,3,,,,-1,'KBMG 041653Z VRB03KT 10SM CLR M12/M18 A3026 RMK AO2 SLP262 T11171183'
20180104,1700,IND,INDIANAPOLIS_INTL_(ASOS),39.73,-86.27,11,8,,,,2,'KIND 041654Z 31007KT 10SM FEW040 M12/M17 A3023 RMK AO2 SLP254 T11171167'
20180104,1700,LAF,LAFAYETTE/PURDUE_U_(ASOS),40.42,-86.93,4,9,,,,-3,'KLAF 041654Z 26008KT 10SM CLR M16/M19 A3028 RMK AO2 SLP266 T11561194'
20180104,1700,SPI,SPRINGFIELD/CAPITAL_(ASOS),39.85,-89.67,7,3,,,,-3,'KSPI 041652Z 32003KT 10SM CLR M14/M19 A3041 RMK AO2 SLP311 T11391194 $'
20180104,1700,ALN,ALTON/ST_LOUIS_RGNL,38.90,-90.05,10,8,,,,0,'KALN 041650Z 29007KT 10SM SKC M12/M18 A3042'
20180104,1700,UIN,QUINCY_MUNI/BALDWIN_(ASOS),39.95,-91.20,5,6,,,,-2,'KUIN 041654Z AUTO VRB05KT 10SM OVC110 M15/M19 A3040 RMK AO2 SLP314 T11501189'
20180104,1700,BMI,BLOOMINGTON/NORMAL,40.48,-88.92,3,12,,,,-6,'KBMI 041656Z 34010KT 10SM CLR M16/M21 A3033 RMK AO2 SLP300 T11611211'
20180104,1700,SGF,SPRINGFLD_MUNI_(ASOS),37.23,-93.38,20,3,,,,4,'KSGF 041652Z 01003KT 10SM CLR M07/M16 A3037 RMK AO2 SLP305 T10671156'
20180104,1700,COU,COLUMBIA_REGIONAL_(ASOS),38.82,-92.22,12,6,,,,-1,'KCOU 041654Z VRB05KT 10SM BKN100 M11/M18 A3040 RMK AO2 SLP312 T11111183'
20180104,1700,FAM,FARMINGTON_AIRPORT,37.77,-90.43,15,5,,,,2,'KFAM 041656Z AUTO VRB04KT 10SM CLR M09/M17 A3038 RMK AO2 SLP304 T10941167 FZRANO'
20180104,1700,IRK,KIRKSVILLE_REGIONAL_(ASOS),40.10,-92.55,8,5,,,,-1,'KIRK 041655Z AUTO 01004KT 10SM BKN100 M13/M18 A3041 RMK AO2 SLP325 T11331183'
20180104,1700,VIH,ROLLA/VICHY_AIRPORT_(ASOS),38.13,-91.77,12,3,,,,0,'KVIH 041653Z AUTO VRB03KT 10SM CLR M11/M18 A3038 RMK AO2 SLP308 T11111178'
20180104,1700,TBN,FORT_LEONARD_WOOD,37.73,-92.13,15,3,,,,0,'KTBN 041656Z AUTO 27003KT 10SM CLR M09/M18 A3036 RMK AO2 SLP304 T10921180'
20180104,1700,JEF,JEFFERSON_CITY_ARPT_(ASOS),38.59,-92.16,11,3,,,,-1,'KJEF 041653Z 28003KT 10SM CLR M12/M18 A3044 RMK AO2 SLP310 T11171183'
20180104,1700,AIZ,KAISER_MEM_(AWOS),38.10,-92.55,18,7,,,,2,'KAIZ 041656Z AUTO 26006KT 10SM CLR M08/M17 A3042 RMK AO2 SLP315 T10781167 FZRANO'
20180104,1700,SZL,WHITEMAN_AFB,38.73,-93.55,13,0,,,,-1,'KSZL 041656Z 00000KT 10SM BKN130 M11/M19 A3038 RMK AO2A SLP308 T11081186 $'
20180104,1700,EWR,NEWARK_INTL_AIRPORT_(ASOS),40.70,-74.17,23,20,36,32,36,22,'KEWR 041735Z 33018G27KT 1/4SM R04R/1800V2400FT SN BLSN FZFG VV006 M05/M06 A2932RMK AO2 PK WND 33028/1653 CIG 004V007 P0014 T10501056 $'
20180104,1700,TEB,TETERBORO_AIRPORT_(ASOS),40.85,-74.07,23,18,29,,29,20,'KTEB 041651Z 35016G25KT 1/8SM R06/1400V1800FT +SN FZFG VV005 M05/M07 A2935 RMK AO2 PRESFR SLP937 P0005 T10501067 $'
20180104,1700,OXC,OXFORD_(AWOS),41.48,-73.13,22,,,,,20,'KOXC 041717Z AUTO 1/4SM SN FZFG OVC006 M06/M07 A2919 RMK AO2 CIG 004V008 P0000 FZRANO'
20180104,1700,LGA,NEW_YORK/LA_GUARDIA_(ASOS),40.77,-73.90,25,30,47,47,47,21,'KLGA 041651Z 34024G40KT 1/4SM R04/1000V1600FT SN BLSN FZFG VV004 M04/M06 A2929 RMK AO2 PK WND 35041/1639 SLP918 SNINCR 1/4 P0003 T10441056'
20180104,1700,ISP,ISLIP/MACARTHUR_(ASOS),40.80,-73.10,26,32,,,,26,'KISP 041728Z 35028KT 1/4SM R06/1600V2400FT +SN FZFG VV003 M03/M03 A2907 RMK AO2PRESFR T10331033 PNO $'
20180104,1700,POU,POUGHKEEPSIE,41.63,-73.88,20,23,33,33,33,15,'KPOU 041718Z 35014G28KT 1/4SM FZFG VV008 M07/M09 A2941 RMK AO2 PK WND 36029/1702 PRESFR T10721094 $'
20180104,1700,HPN,WHITE_PLAINS,41.07,-73.70,20,33,48,53,53,20,'KHPN 041656Z 34029G42KT 1/4SM R16/1000V1200FT +SN FZFG VV002 M07/M07 A2927 RMK AO2 PK WND 34046/1643 PRESFR SLP923 P0000 T10671067 $'
20180104,1700,SWF,NEWBURGH/STEWART,41.50,-74.10,19,14,25,,25,19,'KSWF 041645Z 03012G22KT 1/4SM R09/1800FT SN OVC003 M07/M07 A2945 RMK PRESFR'
20180104,1700,BDR,BRIDGEPORT/SIKORSKI_(ASOS),41.17,-73.13,25,26,41,43,43,23,'KBDR 041732Z AUTO 33020G37KT 1/2SM FZFG VV011 M05/M07 A2916 RMK AO2 PK WND 32037/1723 T10501067 PWINO FZRANO $'
20180104,1700,HVN,NEW_HAVEN/TWEED,41.27,-72.88,27,26,39,47,47,24,'KHVN 041733Z 34015G26KT 3SM R02/3000V3500FT -SN BR BKN010 OVC015 M02/M04 A2913 RMK AO2 PK WND 35041/1702 SNB06 PRESFR P0002 T10221039 $'
20180104,1700,GON,GROTON/NEW_LONDON,41.33,-72.05,29,26,44,45,45,27,'KGON 041656Z 36023G38KT 1/4SM R05/1400V1800FT SN FZFG VV007 M02/M03 A2902 RMK AO2 PK WND 01039/1637 PRESFR SLP827 P0000 T10171028 $'
20180104,1700,SFZ,PAWTUCKET_(AWOS),41.92,-71.50,25,,,,,23,'KSFZ 041656Z AUTO 1/4SM +SN FZFG OVC005 M04/M05 A2910 RMK AO2 CIG 003V007 PRESFR SLP805 P0000 T10391050 FZRANO'
20180104,1700,BID,BLOCK_ISLAND_(AWOS),41.17,-71.58,28,35,48,51,51,28,'KBID 041725Z AUTO 01028G44KT 1/4SM +SN FZFG OVC006 M01/M02 A2891 RMK AO2 PK WND01044/1724 CIG 003V008 PRESFR P0000 FZRANO'
20180104,1700,ACK,NANTUCKET_MEMORIAL_(ASOS),41.25,-70.07,41,36,49,49,49,41,'KACK 041653Z 02031G43KT 1 1/4SM R24/6000VP6000FT +RA BR OVC006 05/05 A2883 RMK AO2 PK WND 01043/1645 PRESFR SLP764 P0043 T00500050'
20180104,1700,PYM,PLYMOUTH_MUNICIPAL_(ASOS),41.92,-70.73,34,29,38,41,41,32,'KPYM 041714Z AUTO 03025G34KT 1/4SM +SN FG OVC004 01/00 A2904 RMK AO2 PK WND 03036/1702 P0001 T00060000'
20180104,1700,EWB,NEW_BEDFORD_MUNI_(ASOS),41.68,-70.97,32,15,33,33,33,-9999,'KEWB 041737Z 01017G27KT 1/4SM R05/1800V2600FT +SN VV004 00/ A2895 RMK AO2 PK WND 01029/1702 PRESFR P0008 T0000 $'
20180104,1700,MVY,MARTHAS_VINEYARD_(ASOS),41.40,-70.62,34,31,44,48,48,34,'KMVY 041653Z 02027G38KT 1 1/4SM -SN BR OVC010 01/01 A2892 RMK AO2 PK WND 03042/1557 PRESFR SLPNO P0019 T00110011 $'
20180104,1700,HYA,HYANNIS/POLANDO_FLD_(ASOS),41.67,-70.28,37,25,37,39,39,36,'KHYA 041714Z 01021G34KT 1 1/4SM -SN BR OVC008 03/02 A2892 RMK AO2 PK WND 01034/1706 RAE07SNB07 PRESFR P0003 T00330022'
20180104,1700,CQX,CHATHAM_MUNI_ARPT_(ASOS),41.68,-70.00,41,18,47,41,47,40,'KCQX 041716Z AUTO 03021G33KT 1 1/4SM RA BR OVC009 05/04 A2891 RMK AO2 PK WND 04036/1657 PRESFR P0008 T00500044 TSNO'
20180104,1700,PVD,PROVIDENCE/GREEN_(ASOS),41.73,-71.43,27,28,44,40,44,26,'KPVD 041737Z 36024G33KT 1/4SM R05/0800V2000FT +SN FZFG VV007 M03/M03 A2903 RMK AO2 PK WND 01035/1721 PRESFR P0004 T10281028 $'
20180104,1700,PVC,PROVINCETOWN_(AWOS),42.07,-70.22,39,,,55,55,37,'KPVC 041710Z AUTO 03038G48KT 1 1/4SM -RA BR OVC009 03/02 RMK AO2 PK WND 03048/1707 CIG 007V014 P0005 $'
20180104,1700,BDL,HARTFORD/BRADLEY_(ASOS),41.93,-72.68,23,18,32,31,32,21,'KBDL 041712Z 36019G24KT 1/4SM R06/2200V2800FT +SN BLSN FZFG VV005 M04/M06 A2928RMK AO2 PK WND 35027/1701 TWR VIS 1/4 P0002 T10441056'
20180104,1700,IJD,WILLIMANTIC_(ASOS),41.73,-72.18,23,13,24,,24,20,'KIJD 041732Z AUTO 36014G25KT 1/2SM FZFG VV009 M04/M07 A2912 RMK AO2 SNEMM PRESFR P0002 T10441067 PWINO FZRANO $'
20180104,1700,DXR,DANBURY_MUNICIPAL_(ASOS),41.37,-73.48,20,21,37,36,37,17,'KDXR 041735Z 33019G31KT 1/4SM FZFG VV006 M07/M09 A2927 RMK AO2 PK WND 34031/1726 PRESFR T10671089 $'
20180104,1700,HFD,HARTFORD/BRAINARD_(ASOS),41.73,-72.65,23,18,28,37,37,21,'KHFD 041724Z 35018G30KT 1/4SM SN FZFG VV011 M04/M06 A2922 RMK AO2 PK WND 35032/1709 P0001 T10441056 $'
20180104,1700,BVY,BEVERLY_MUNICIPAL_(ASOS),42.58,-70.92,27,20,35,35,35,25,'KBVY 041653Z 36017G30KT M1/4SM FZFG VV002 M03/M04 A2917 RMK AO2 PK WND 36030/1647 SNEMM PRESFR SLP877 P0000 T10281039 $'
20180104,1700,BOS,BOSTON/LOGAN_INTL_(ASOS),42.37,-71.03,28,28,39,41,41,27,'KBOS 041736Z 35021G31KT 1/4SM R04R/1400V1800FT +SN BLSN FZFG VV005 M02/M03 A2911 RMK AO2 PK WND 36036/1714 P0008 T10221028 $'
20180104,1700,ORH,WORCESTER_(ASOS),42.27,-71.88,25,22,36,45,45,19,'KORH 041719Z 36024G39KT 1/4SM R11/1400V2000FT SN FZFG VV007 M04/M06 A2913 RMK AO2 PK WND 36039/1717 PRESFR P0001 T10391061'
20180104,1700,RDG,READING/SPAATZ_FLD_(ASOS),40.38,-75.97,23,20,,30,30,17,'KRDG 041706Z 33018G26KT 3SM -SN BLSN BR SCT031 BKN038 OVC046 M05/M09 A2954 RMK AO2 PK WND 33026/1705 SFC VIS 8 P0000 T10501089'
20180104,1700,MDT,MIDDLETOWN/OLMSTED,40.20,-76.77,21,18,31,,31,16,'KMDT 041730Z 33017G25KT 2SM -SN OVC028 M06/M09 A2961 RMK AO2 TWR VIS 2 1/2 P0000 T10561089'
20180104,1700,LNS,LANCASTER_(ASOS),40.12,-76.30,23,23,36,39,39,14,'KLNS 041653Z 33020G31KT 3SM UP FEW032 OVC055 M05/M10 A2957 RMK AO2 PK WND 32034/1641 UPB1554 SLP019 P0000 T10501100'
20180104,1700,AFJ,WASHINGTON_(AWOS),40.13,-80.28,14,13,23,,23,3,'KAFJ 041721Z AUTO 30009KT 4SM -SN SCT023 BKN028 OVC034 M11/M14 A2995 RMK AO2 P0000 FZRANO'
20180104,1700,CXY,HARRISBURG/CAPITAL_(ASOS),40.22,-76.85,23,16,26,,26,12,'KCXY 041730Z 31016G22KT 2 1/2SM -SN BKN030 OVC037 M04/M11 A2962 RMK AO2 P0000 T10441106'
20180104,1700,BTP,BUTLER_CO._(AWOS),40.78,-79.95,14,10,16,,16,5,'KBTP 041656Z AUTO 30009G14KT 9SM -SN BKN027 OVC032 M10/M15 A2988 RMK AO2 SNB36 SLP147 P0000 T11001150 FZRANO'
20180104,1700,DUJ,DU_BOIS_(ASOS),41.18,-78.90,15,16,31,31,31,3,'KDUJ 041653Z AUTO 31018G22KT 8SM FEW026 SCT032 BKN039 M09/M17 A2972 RMK AO2 PK WND 29027/1643 SNE13 SLP096 P0000 T10941167'
20180104,1700,AOO,ALTOONA/BLAIR_CO_(ASOS),40.30,-78.32,19,23,36,36,36,8,'KAOO 041711Z AUTO 32022G29KT 10SM BKN030 OVC037 M07/M13 A2970 RMK AO2 PK WND 34031/1658 UPB1659E09SNE1658 P0000 T10721133'
20180104,1700,JST,JOHNSTOWN/CAMBRIA_(ASOS),40.32,-78.83,11,21,29,,29,7,'KJST 041704Z AUTO 30016G25KT 1 1/4SM -SN BKN016 OVC022 M11/M14 A2968 RMK AO2 P0000 T11111139'
20180104,1700,UNV,STATE_COLLEGE,40.85,-77.85,19,20,33,,33,7,'KUNV 041653Z 33017G29KT 10SM SCT035 BKN042 M07/M14 A2970'
20180104,1700,AVP,WILKES-BARRE/SCRANT_(ASOS),41.33,-75.73,19,13,,,,14,'KAVP 041654Z 34011KT 1 1/4SM -SN FEW017 BKN025 OVC038 M07/M10 A2956 RMK AO2 SLP020 P0002 T10721100'
20180104,1700,IPT,WILLIAMSPORT_(ASOS),41.25,-76.92,23,15,22,,22,13,'KIPT 041705Z 31012G19KT 4SM -SN BKN031 OVC043 M05/M11 A2967 RMK AO2 P0000 T10501106'
20180104,1700,MUI,MUIR_AAF/INDIANTOWN,40.43,-76.57,21,8,23,,23,12,'KMUI 041731Z 32008G21KT 3SM -SN BLSN BKN014 OVC020 M06/M11 A2957 RMK AO2A SLP023 $'
20180104,1700,MSV,MONTICELLO(AWOS),41.70,-74.80,17,17,26,32,32,12,'KMSV 041738Z AUTO 33018G27KT 3/4SM -SN OVC016 M08/M11 A2940 RMK AO2 PK WND 34028/1700 P0000 FZRANO RVRNO'
20180104,1700,BGM,BINGHAMTON/BROOME_(ASOS),42.22,-75.98,16,16,,,,11,'KBGM 041734Z 34011KT 1SM -SN FEW015 BKN030 OVC039 M08/M11 A2954 RMK AO2 SFC VIS1 1/4 P0000 T10831111'
20180104,1700,ITH,ITHACA/TOMPKINS_CO.,42.48,-76.45,18,14,,,,15,'KITH 041656Z 33012KT 1/2SM R32/3500V4000FT SN FZFG OVC009 M08/M09 A2966 RMK AO2 SLP061 P0000 T10781094'
20180104,1700,ELM,ELMIRA/CORNING_RGNL_(ASOS),42.17,-76.90,21,12,22,,22,14,'KELM 041704Z 31007G16KT 270V330 3SM -SN FEW024 BKN031 OVC043 M06/M10 A2968 RMK AO2 P0000 T10611100'
20180104,1700,RUT,RUTLAND_STATE(AWOS),43.53,-72.95,14,10,17,,17,10,'KRUT 041656Z AUTO 33008G15KT 3/4SM -SN BR OVC015 M10/M12 A2954 RMK AO2 PRESFR SLP025 P0000 T11001117 FZRANO $'
20180104,1700,ABE,ALLENTOWN-BETHLEHEM_(ASOS),40.65,-75.43,24,21,30,37,37,13,'KABE 041731Z AUTO 33018G28KT 2 1/2SM -SN OVC042 M04/M11 A2945 RMK AO2 PK WND 34032/1701 VIS 1 1/2V4 P0000 T10441106 $'
20180104,1700,ALB,ALBANY_COUNTY_ARPT_(ASOS),42.75,-73.80,18,13,,,,13,'KALB 041651Z 34011KT 1/2SM R01/3500FT SN FZFG VV011 M08/M11 A2959 RMK AO2 SLP025 OCNL DRSN P0003 T10781106'
20180104,1700,GFL,GLEN_FALLS/WARREN_(ASOS),43.33,-73.62,18,12,,,,15,'KGFL 041737Z AUTO 35010KT 1SM -SN BR OVC020 M08/M09 A2954 RMK AO2 P0000 T10781094'
20180104,1700,OGS,OGDENSBURG_INTL,44.68,-75.47,21,6,,,,15,'KOGS 041735Z AUTO 01008KT 1 1/4SM -SN OVC006 M07/M09 A2973 RMK AO2 T10681091'
20180104,1700,SYR,SYRACUSE/HANCOCK_(ASOS),43.12,-76.12,19,9,,,,17,'KSYR 041654Z 33008KT 1SM R28/3500V4000FT -SN BR OVC018 M07/M08 A2971 RMK AO2 SLP065 P0001 T10721083'
20180104,1700,PIT,PITTSBURGH_INTL_(ASOS),40.50,-80.22,14,14,24,32,32,3,'KPIT 041651Z 32012G21KT 10SM OVC032 M10/M16 A2990 RMK AO2 PK WND 33028/1554 SNE13 SLP152 P0000 T11001161'
20180104,1700,BVI,BEAVER_FALLS_ARPT,40.77,-80.40,14,13,18,,18,5,'KBVI 041647Z 31011G16KT 10SM OVC025 M10/M15 A2990'
20180104,1700,AGC,PITTSBURGH/ALLEGHENY_(ASOS),40.35,-79.93,15,14,26,,26,2,'KAGC 041707Z 33014G22KT 5SM -SN BKN026 OVC036 M09/M17 A2987 RMK AO2 SNB07 P0000T10941167'
20180104,1700,LBE,LATROBE/WESTMORLAND,40.28,-79.40,16,13,20,,20,5,'KLBE 041645Z 29011G17KT 10SM OVC030 M09/M15 A2987'
20180104,1700,CAK,AKRON-CANTON_RGNL_(ASOS),40.92,-81.43,12,13,,,,4,'KCAK 041734Z 31014G20KT 2SM -SN SCT021 BKN036 M11/M17 A2996 RMK AO2 SFC VIS 5 P0000 T11111167'
20180104,1700,JHW,JAMESTOWN_(AWOS),42.15,-79.27,10,12,,,,7,'KJHW 041733Z AUTO 33016KT 1/2SM SN FEW008 BKN015 OVC025 M11/M15 A2977 RMK AO2 P0000 FZRANO RVRNO'
20180104,1700,CLE,CLEVELAND/HOPKINS_(ASOS),41.42,-81.87,13,16,,,,3,'KCLE 041722Z 32017KT 10SM BKN022 OVC041 M11/M16 A3006 RMK AO2 T11111161 $'
20180104,1700,BKL,CLEVELAND/BURKELAKE_(ASOS),41.52,-81.68,13,24,32,35,35,2,'KBKL 041653Z 31021G28KT 10SM BKN024 OVC036 M11/M17 A3004 RMK AO2 PK WND 32030/1604 SLP182 T11061167'
20180104,1700,MFD,MANSFIELD/LAHM_MUNI_(ASOS),40.82,-82.52,10,10,,,,1,'KMFD 041652Z 30009KT 10SM OVC024 M12/M17 A3002 RMK AO2 SLP190 T11221172'
20180104,1700,CGF,CLEVELAND/CUYAHOGA,41.57,-81.48,12,17,,,,5,'KCGF 041645Z 31015KT 7SM OVC022 M11/M15 A3002'
20180104,1700,YNG,YOUNGSTOWN_MUNI_(ASOS),41.27,-80.67,14,14,24,,24,6,'KYNG 041651Z 30012G21KT 2SM -SN BLSN BKN018 OVC038 M10/M14 A2991 RMK AO2 SLP149 VIS N 1 P0000 T11001144'
20180104,1700,ERI,ERIE_INTL_AIRPORT_(ASOS),42.08,-80.18,15,13,22,,22,9,'KERI 041724Z 32011G22KT 1SM R06/P6000FT -SN SCT014 BKN019 OVC026 M09/M14 A2993 RMK AO2 VIS 1/2V2 P0001 T10941139'
20180104,1700,BFD,BRADFORD_REGIONAL_(ASOS),41.80,-78.63,12,18,,,,5,'KBFD 041706Z AUTO 33015KT 2 1/2SM -SN BKN023 BKN029 OVC034 M11/M15 A2970 RMK AO2 VIS 1 3/4V5 P0000 T11111150'
20180104,1700,FKL,FRANKLIN(AWOS),41.38,-79.87,14,7,18,,18,7,'KFKL 041733Z AUTO 30010G15KT 1 3/4SM -SN FEW008 BKN018 OVC039 M09/M14 A2983 RMKAO2 P0000 FZRANO'
20180104,1700,BUF,BUFFALO_INTL_ARPT_(ASOS),42.93,-78.73,16,15,,,,7,'KBUF 041718Z 29011KT 9SM -SN FEW017 BKN023 BKN039 BKN230 M09/M14 A2985 RMK AO2 VIS LWR N-E P0000 T10941139'
20180104,1700,IAG,NIAGARA_FALLS_INTL,43.10,-78.95,16,15,,,,6,'KIAG 041653Z 33013KT 9SM OVC021 M09/M14 A2987 RMK AO2 UPB04E09SNE04 SLP137 P0000 T10891144'
20180104,1700,ROC,ROCHESTER/MONROE_CO_(ASOS),43.12,-77.67,19,14,24,,24,10,'KROC 041654Z 31015G22KT 10SM -SN FEW014 SCT022 OVC160 M07/M12 A2980 RMK AO2 SLP104 P0000 T10721122'
20180104,1700,ORD,CHICAGO/O'HARE_ARPT_(ASOS),41.98,-87.90,8,12,,,,-6,'KORD 041651Z 34010KT 10SM FEW025 M13/M21 A3029 RMK AO2 SLP273 T11331211'
20180104,1700,DPA,W._CHICAGO/DU_PAGE_(ASOS),41.92,-88.25,5,10,,,,-4,'KDPA 041652Z 32009KT 10SM CLR M15/M20 A3030 RMK AO2 SLP279 T11501200'
20180104,1700,CPS,CAHOKIA/ST._LOUIS_(ASOS),38.56,-90.15,12,7,,,,-1,'KCPS 041653Z 28006KT 10SM CLR M11/M18 A3043 RMK AO2 SLP314 T11111183'
20180104,1700,CMI,CHAMPAIGN/URBANA_(ASOS),40.03,-88.28,2,12,,,,-6,'KCMI 041653Z 30010KT 10SM CLR M17/M21 A3032 RMK AO2 SLP289 T11671211'
20180104,1700,DEC,DECATUR_AIRPORT,39.83,-88.87,3,6,,,,-5,'KDEC 041654Z 32005KT 10SM CLR M16/M21 A3036 RMK AO2 SLP299 T11611206'
20180104,1700,PIA,PEORIA_REGIONAL_(ASOS),40.67,-89.68,4,6,,,,-7,'KPIA 041654Z 34005KT 10SM CLR M16/M22 A3039 RMK AO2 SLP308 T11561217 $'
20180104,1700,SQI,STERLING_ROCKFALLS,41.75,-89.67,13,7,,,,-4,'KSQI 041656Z AUTO 33006KT 10SM CLR M11/M20 A3038 RMK AO2 SLP314 T11061200 FZRANO'
20180104,1700,FWA,FORT_WAYNE/BAER_FLD_(ASOS),41.00,-85.20,15,8,,,,5,'KFWA 041654Z 30007KT 10SM BKN034 BKN048 M09/M15 A3017 RMK AO2 SLP231 T10941150'
20180104,1700,GUS,GRISSOM_AFB/PERU,40.65,-86.15,6,8,,,,1,'KGUS 041721Z AUTO 26008KT 10SM BKN021 BKN029 BKN048 M13/M16 A3019 RMK AO2 CIG 021V031 SLP245 $'
20180104,1700,MIE,MUNCIE/JOHNSON_FLD_(ASOS),40.25,-85.40,9,12,,,,2,'KMIE 041653Z 28010KT 10SM OVC042 M13/M17 A3019 RMK AO2 SLP237 T11281167'
20180104,1700,GYY,GARY_REGIONAL,41.62,-87.42,12,13,,,,1,'KGYY 041645Z 28011KT 15SM SCT030 M11/M17 A3029 RMK SNE27'
20180104,1700,MDW,CHICAGO/MIDWAY_(ASOS),41.78,-87.76,9,14,,,,-4,'KMDW 041653Z 32012KT 10SM FEW025 M13/M20 A3029 RMK AO2 SLP282 T11281200'
20180104,1700,UGN,CHICAGO/WAUKEGAN_(ASOS),42.42,-87.87,8,9,,,,-5,'KUGN 041655Z 31008KT 10SM CLR M13/M21 A3028 RMK AO2 SLP282 T11331206'
20180104,1700,SBN,SOUTH_BEND/ST._JOE_(ASOS),41.70,-86.32,13,0,,,,11,'KSBN 041654Z 00000KT 1 3/4SM -SN BR BKN022 OVC028 M11/M12 A3019 RMK AO2 SLP238 P0000 T11061117'
20180104,1700,EKM,ELKHART_MUNICIPAL,41.72,-86.00,,6,,,,-9999,'KEKM 041650Z 34005KT 7SM BKN030 M/M A3019'
20180104,1700,TOL,TOLEDO_EXPRESS_(ASOS),41.60,-83.80,12,17,23,,23,3,'KTOL 041652Z 31015G20KT 10SM FEW031 M11/M16 A3011 RMK AO2 SLP211 T11111161 $'
20180104,1700,FDY,FINDLAY_(ASOS),41.02,-83.67,11,12,,,,1,'KFDY 041653Z AUTO 32010KT 10SM BKN034 M12/M17 A3011 RMK AO2 SLP209 T11171172'
20180104,1700,DTW,DETROIT_METRO_(ASOS),42.23,-83.33,10,13,23,,23,0,'KDTW 041653Z 34011G20KT 7SM -SN OVC030 M12/M18 A3010 RMK AO2 SNB47 SLP206 P0000 T11221178'
20180104,1700,ARB,ANN_ARBOR_MUNICIPAL_(ASOS),42.22,-83.75,10,20,26,,26,-1,'KARB 041653Z 31017G23KT 10SM OVC032 M12/M18 A3009 RMK AO2 SLP206 T11221183'
20180104,1700,DET,DETROIT_CITY_ARPT_(ASOS),42.42,-83.02,8,15,24,,24,-3,'KDET 041717Z 33011G21KT 10SM SCT029 M13/M20 A3010 RMK AO2 T11331200'
20180104,1700,YIP,DETROIT/WILLOW_RUN_(ASOS),42.23,-83.53,13,18,,30,30,1,'KYIP 041653Z 33016KT 9SM BKN031 M11/M17 A3010 RMK AO2 PK WND 34026/1617 SLP205 T11061172'
20180104,1700,MTC,SELFRIDGE_ANGB,42.62,-82.83,7,17,,,,-4,'KMTC 041656Z 32015KT 10SM DRSN FEW026 M14/M20 A3008 RMK AO2A SLP204 T11411202'
20180104,1700,P59,COPPER_HARBOR_RAMOS_(ASOS),47.45,-87.90,5,15,,,,-3,'KP59 041651Z AUTO 04013KT M15/M19 A3031 RMK AO1 SLP291 T11501194'
20180104,1700,LAN,LANSING/CAPITAL_(ASOS),42.77,-84.60,10,13,22,,22,0,'KLAN 041726Z 34011KT 10SM FEW028 M12/M18 A3013 RMK AO2 UPE1655 P0000 T11171178'
20180104,1700,JXN,JACKSON/REYNOLDS_(ASOS),42.27,-84.47,11,13,,,,1,'KJXN 041726Z 32012G18KT 10SM BKN030 BKN035 A3009 RMK AO2 $'
20180104,1700,BTL,BATTLE_CREEK_(ASOS),42.30,-85.25,13,15,,,,3,'KBTL 041653Z 36013KT 10SM FEW029 OVC036 M11/M16 A3013 RMK AO2 SLP222 T11061161 $'
20180104,1700,RFD,ROCKFORD_(ASOS),42.20,-89.10,4,8,,,,-7,'KRFD 041654Z 34007KT 10SM CLR M16/M22 A3035 RMK AO2 SLP299 T11561217'
20180104,1700,MLI,MOLINE/QUAD_CITY_(ASOS),41.45,-90.52,5,3,,,,-6,'KMLI 041652Z 01003KT R09/2000VP6000FT BKN120 M15/M21 A3039 RMK AO2 SLP307 T11501211'
20180104,1700,CID,CEDAR_RAPIDS_MUNI_(ASOS),41.88,-91.70,0,8,,,,-7,'KCID 041652Z 32007KT 10SM OVC120 M18/M22 A3038 RMK AO2 SLP314 T11781217'
20180104,1700,AWG,WASHINGTON,41.28,-91.67,3,6,,,,-4,'KAWG 041735Z AUTO 34005KT 10SM CLR M16/M20 A3042 RMK AO2'
20180104,1700,BRL,BURLINGTON_MUNI_(ASOS),40.78,-91.13,4,5,,,,-4,'KBRL 041653Z AUTO VRB04KT 10SM OVC120 M16/M20 A3041 RMK AO2 SLP316 T11561200'
20180104,1700,EOK,KEOKUK_MUNI,40.47,-91.43,5,3,,,,-4,'KEOK 041735Z AUTO 33005KT 10SM SCT065 OVC110 M14/M20 A3040 RMK AO2'
20180104,1700,CCY,CHARLES_CITY,43.07,-92.62,3,7,,,,-8,'KCCY 041735Z AUTO 32005KT 10SM BKN065 OVC075 M16/M22 A3036 RMK AO2'
20180104,1700,TNU,NEWTON_MUNI,41.68,-93.02,3,0,,,,-4,'KTNU 041735Z AUTO 00000KT 10SM FEW065 SCT085 BKN110 M15/M20 A3038 RMK AO2 PWINO'
20180104,1700,OTM,OTTUMWA_INDUSTRIAL_(ASOS),41.10,-92.45,4,6,,,,-4,'KOTM 041653Z AUTO 36005KT 10SM OVC110 M16/M20 A3041 RMK AO2 SLP320 T11561200 $'
20180104,1700,CNC,CHARITON,41.03,-93.37,3,0,,,,-4,'KCNC 041735Z AUTO 00000KT 10SM FEW100 M15/M19 A3038 RMK AO2'
20180104,1700,DBQ,DUBUQUE_MUNICIPAL_(ASOS),42.40,-90.70,2,8,,,,-6,'KDBQ 041653Z 35007KT 10SM FEW100 M17/M21 A3034 RMK AO2 SLP303 T11671211'
20180104,1700,CWI,CLINTON_MUNI_(AWOS),41.83,-90.33,3,12,,,,-4,'KCWI 041656Z AUTO 35010KT 10SM CLR M16/M20 A3039 RMK AO2 SLP320 T11611200 FZRANO'
20180104,1700,MXO,MONTICELLO_MUNI,42.23,-91.17,1,6,,,,-8,'KMXO 041735Z AUTO 31003KT 10SM CLR M16/M22 A3037 RMK AO2'
20180104,1700,DEH,DECORAH,43.28,-91.73,0,5,,,,-6,'KDEH 041735Z AUTO 33004KT 10SM FEW010 BKN095 M17/M21 A3035 RMK AO2'
20180104,1700,ALO,WATERLOO_MUNICIPAL_(ASOS),42.55,-92.40,3,0,,,,-6,'KALO 041654Z 00000KT 10SM FEW065 OVC085 M16/M21 A3040 RMK AO2 SLP320 T11611211'
20180104,1700,MCW,MASON_CITY_MUNI_(ASOS),43.15,-93.33,3,3,,,,-5,'KMCW 041653Z AUTO 36003KT 10SM SCT060 OVC075 M16/M21 A3038 RMK AO2 SLP318 T11611206 TSNO'
20180104,1700,MUT,MUSCATINE,41.37,-91.15,1,5,,,,-6,'KMUT 041735Z AUTO 31005KT 10SM OVC110 M16/M21 A3043 RMK AO2'
20180104,1700,OLZ,OELWEIN,42.68,-91.97,1,6,,,,-6,'KOLZ 041735Z AUTO 32006KT 10SM SCT110 M16/M20 A3037 RMK AO2'
20180104,1700,OXV,KNOXVILLE,41.30,-93.12,3,0,,,,-6,'KOXV 041735Z AUTO 00000KT 10SM OVC100 M15/M21 A3037 RMK AO2'
20180104,1700,CON,CONCORD_MUNICIPAL_(ASOS),43.20,-71.50,22,14,,,,19,'KCON 041651Z AUTO 34012KT 1/4SM FZFG VV005 M06/M07 A2938 RMK AO2 PRESFR SLP956 P0007 T10561072 PWINO FZRANO $'
20180104,1700,PSM,PEASE_AFB/PORTSMOUT,43.08,-70.82,25,20,31,,31,22,'KPSM 041730Z 01020G28KT 1/8SM R34/1400V2200FT +SN FZFG BKN002 OVC008 M03/M05 A2921 RMK AO2A'
20180104,1700,PWM,PORTLAND_INTL_JET_(ASOS),43.65,-70.32,23,22,33,41,41,21,'KPWM 041734Z 02016G34KT 1/2SM -SN OVC027 M04/M06 A2929 RMK AO2 PK WND 36036/1720 PRESFR P0001 T10441056 $'
20180104,1700,SFM,SANFORD_MUNI_(AWOS),43.40,-70.72,23,24,33,36,36,21,'KSFM 041712Z AUTO 01021G29KT 1/4SM SN FZFG OVC010 M05/M06 A2929 RMK AO2 PK WND 02031/1658 CIG 007V012 PRESFR P0000 FZRANO RVRNO'
20180104,1700,WVL,WATERVILLE_(AWOS),44.53,-69.68,21,14,23,,23,19,'KWVL 041727Z AUTO 01015G25KT 3/4SM -SN BR BKN008 OVC013 M04/M06 A2939 RMK AO2 CIG 007V011 P0001 FZRANO'
20180104,1700,BHB,BAR_HARBOR_(AWOS),44.45,-68.37,31,26,33,37,37,30,'KBHB 041734Z AUTO 02021G28KT 1/2SM SN FZFG OVC006 M01/M02 A2932 RMK AO2 PK WND 02032/1716 CIG 004V009 PRESFR FZRANO RVRNO PNO $'
20180104,1700,RKD,ROCKLAND/KNOX(AWOS),44.07,-69.10,30,18,30,35,35,30,'KRKD 041737Z AUTO 02014G25KT 1/4SM SN FZFG OVC008 M01/M02 A2927 RMK AO2 PK WND 02030/1725 CIG 005V010 PRESFR P0001 FZRANO'
20180104,1700,FVE,FRENCHVILLE_(ASOS),47.28,-68.32,14,7,,,,10,'KFVE 041718Z AUTO 02006KT 8SM -SN BKN008 OVC026 M10/M12 A2975 RMK AO2 PRESFR P0000 T11001122'
20180104,1700,BGR,BANGOR_INTL_ARPT__(ASOS),44.80,-68.83,19,16,,,,15,'KBGR 041716Z 36018KT 1/2SM R15/2000V3000FT SN FZFG VV011 M07/M08 A2949 RMK AO2 P0001 T10671083'
20180104,1700,VSF,SPRINGFIELD/HARTNES_(ASOS),43.35,-72.52,18,8,,,,15,'KVSF 041723Z AUTO VRB05G18KT 1/2SM SN FZFG VV010 M08/M09 A2944 RMK AO2 PRESFR P0002 T10781094'
20180104,1700,LEB,LEBANON_MUNICIPAL_(ASOS),43.63,-72.30,14,7,,,,10,'KLEB 041653Z 01006KT 1/4SM -SN FZFG VV004 M10/M12 A2954 RMK AO2 SLP020 P0000 T11001122'
20180104,1700,MWN,MOUNT_WASHINGTON,44.27,-71.30,10,56,63,,63,10,'KMWN 041649Z 07049G55KT 0SM SN FZFG BLSN VV000 M12/M12 RMK VRY LGT ICG'
20180104,1700,HIE,WHITEFIELD_(ASOS),44.35,-71.55,15,6,,,,12,'KHIE 041652Z AUTO 36005KT 1/4SM SN FZFG VV010 M09/M11 A2954 RMK AO2 PRESFR SLP029 P0003 T10941111'
20180104,1700,MPV,BARRE-MONTPELIER_(ASOS),44.20,-72.57,10,7,,,,10,'KMPV 041728Z AUTO 32006KT 1/2SM -SN FZFG VV018 M11/M12 A2955 RMK AO2 P0001 T11111117'
20180104,1700,LCI,LACONIA_MUNI_(AWOS),43.57,-71.42,19,0,,,,16,'KLCI 041720Z AUTO 06004KT 1/2SM SN FZFG OVC007 M07/M08 A2937 RMK AO2 CIG 005V011 PRESFR P0000 FZRANO'
20180104,1700,EEN,KEENE/DILLANT(AWOS),42.90,-72.27,16,26,32,32,32,14,'KEEN 041656Z AUTO 35023G28KT 340V050 1/4SM +SN FZFG OVC005 M09/M10 A2940 RMK AO2 PK WND 35028/1656 SLP978 P0000 T10891100 FZRANO'
20180104,1700,BTV,BURLINGTON_INTL_(ASOS),44.47,-73.15,17,12,,,,12,'KBTV 041728Z 34010KT 3/4SM R15/3000V4500FT -SN VV014 M09/M12 A2965 RMK AO2 PRESFR P0002 T10891117'
20180104,1700,LEW,AUBURN-LEWISTON,44.05,-70.28,21,16,22,,22,19,'KLEW 041738Z AUTO 01018G24KT 1SM -SN BR FEW007 BKN013 OVC020 M05/M06 A2935 RMK AO2 PRESFR P0000 FZRANO'
20180104,1700,AUG,AUGUSTA_STATE_ARPT_(ASOS),44.32,-69.80,20,18,,,,17,'KAUG 041700Z AUTO 36016KT 1/2SM FZFG VV010 M06/M08 A2947 RMK AO2 PRESFR T10611078 PWINO FZRANO $'
20180104,1700,MLT,MILLINOCKET_MUNI_(ASOS),45.65,-68.68,18,9,,,,16,'KMLT 041729Z AUTO 01009G17KT 1/4SM SN FZFG VV009 M07/M08 A2960 RMK AO2 PRESFR P0001 T10721083 TSNO'
20180104,1700,MSS,MASSENA/RICHARDS_(ASOS),44.93,-74.85,18,7,,,,14,'KMSS 041653Z AUTO 03006KT 3/4SM -SN BR VV019 M08/M10 A2979 RMK AO2 SLP095 P0001T10781100'
20180104,1700,ART,WATERTOWN_INTL_ARPT,44.00,-76.02,19,10,,,,15,'KART 041710Z AUTO 01008KT 3/4SM -SN BR BKN028 BKN033 OVC041 M07/M09 A2974 RMK AO2 P0000 T10721094'
20180104,1700,SLK,SARANAC_LAKE/ADIRON_(ASOS),44.38,-74.20,14,,,,,9,'KSLK 041701Z AUTO 1 3/4SM -SN BKN029 OVC037 M10/M13 A2959 RMK AO2 PRESFR P0000 T11001128 $'
20180104,1700,GRR,GRAND_RAPIDS_INTL_(ASOS),42.88,-85.52,13,7,,,,0,'KGRR 041653Z 36006KT 10SM FEW032 BKN042 M11/M18 A3016 RMK AO2 SNE34 SLP230 P0000 T11061178'
20180104,1700,BEH,BENTON_HARBOR/ROSS_(ASOS),42.13,-86.43,17,6,,,,9,'KBEH 041734Z AUTO VRB06KT 2 1/2SM -SN FEW023 BKN032 OVC045 M07/M12 A3017 RMK AO2 VIS 1 1/2V5 SNB19 P0000 T10721117'
20180104,1700,AZO,KALAMAZOO_INTL_ARPT_(ASOS),42.23,-85.55,14,13,22,,22,3,'KAZO 041653Z 35011G19KT 10SM FEW031 OVC049 M10/M16 A3015 RMK AO2 SLP227 T11001161'
20180104,1700,MKG,MUSKEGON_(ASOS),43.17,-86.25,14,8,,,,2,'KMKG 041655Z 01007KT 10SM SCT038 OVC050 M10/M17 A3020 RMK AO2 SLP238 T11001167'
20180104,1700,FNT,FLINT/BISHOP_INTL_(ASOS),42.97,-83.75,6,13,,,,-3,'KFNT 041653Z 35012KT 10SM SCT028 M14/M20 A3012 RMK AO2 SLP219 T11441200'
20180104,1700,PTK,PONTIAC-OAKLAND_(ASOS),42.67,-83.42,6,20,28,,28,-2,'KPTK 041725Z 33015KT 10SM SCT025 M15/M20 A3006 RMK AO2 T11501200'
20180104,1700,MBS,SAGINAW/TRI_CITY_(ASOS),43.53,-84.08,7,10,,,,-4,'KMBS 041653Z 01009KT 10SM SCT032 M14/M20 A3015 RMK AO2 SLP225 T11391200'
20180104,1700,HTL,HOUGHTON_LAKE_ARPT_(ASOS),44.37,-84.68,1,16,26,30,30,-10,'KHTL 041653Z AUTO 34014G23KT 10SM CLR M17/M23 A3012 RMK AO2 PK WND 01026/1557 SLP231 T11721233'
20180104,1700,CAD,CADILLAC/WEXFORD_CO,44.28,-85.42,3,10,22,,22,-5,'KCAD 041735Z AUTO 35009G17KT 5SM HZ BKN021 OVC030 M15/M20 A3010 RMK AO2 T11501197'
20180104,1700,MBL,MANISTEE_(AWOS),44.27,-86.25,10,7,,,,5,'KMBL 041721Z AUTO 01011KT 3SM -SN SCT009 BKN024 OVC031 M11/M15 A3020 RMK AO2 FZRANO PNO $'
20180104,1700,TVC,TRAVERSE_CITY/CHERR_(ASOS),44.73,-85.58,7,15,,,,-2,'KTVC 041653Z 36012KT 3SM -SN BKN028 OVC034 M14/M19 A3021 RMK AO2 SLP243 P0000 T11391189'
20180104,1700,APN,ALPENA_CO._REGIONAL_(ASOS),45.07,-83.57,2,17,22,,22,-3,'KAPN 041654Z AUTO 34015G19KT 1SM -SN BKN019 OVC026 M17/M19 A3015 RMK AO2 SLP229 P0000 T11671194'
20180104,1700,OSC,WURTSMITH_AFB,44.45,-83.40,2,22,29,,29,-9,'KOSC 041735Z AUTO 32017G22KT 5SM HZ CLR M16/M23 A3011 RMK AO2 T11621230'
20180104,1700,MKE,MILWAUKEE/MITCHELL_(ASOS),42.95,-87.90,9,13,22,,22,-5,'KMKE 041652Z 33011G19KT 10SM FEW025 M13/M21 A3029 RMK AO2 SLP275 T11281206'
20180104,1700,ARV,MINOCQUA/WOODRUFF,45.93,-89.73,4,8,,,,-5,'KARV 041735Z AUTO 36012KT 5SM HZ OVC022 M16/M20 A3023 RMK AO2 T11561200'
20180104,1700,MWC,MILWAUKEE/TIMMERMAN,43.12,-88.03,7,16,,,,-8,'KMWC 041645Z 35014KT 10SM SKC M14/M22 A3031'
20180104,1700,MSN,MADISON/DANE_RGNL_(ASOS),43.13,-89.33,4,12,,,,-5,'KMSN 041653Z 35010KT 10SM CLR M16/M21 A3033 RMK AO2 SLP292 T11561206'
20180104,1700,JVL,JANESVILLE/ROCK_CO.,42.62,-89.03,5,6,,,,-4,'KJVL 041645Z 32005KT 10SM SKC M15/M20 A3033'
20180104,1700,LNR,LONE_ROCK_REGIONAL_(ASOS),43.22,-90.18,2,6,,,,-5,'KLNR 041656Z AUTO 22005KT 10SM CLR M17/M21 A3037 RMK AO2 SLP301 T11671206'
20180104,1700,LSE,LA_CROSSE_MUNICIPAL,43.87,-91.25,1,7,,,,-8,'KLSE 041653Z 32006KT 10SM CLR M17/M22 A3042 RMK AO2 SLP332 T11721222'
20180104,1700,EAU,EAU_CLAIRE_CO._ARPT_(ASOS),44.87,-91.48,-4,0,,,,-9,'KEAU 041656Z 00000KT 10SM CLR M20/M23 A3039 RMK AO2 SLP320 T12001228'
20180104,1700,VOK,VOLK/CAMP_DOUGLAS,43.93,-90.27,5,3,,,,-6,'MSSM 041650Z 02003KT CAVOK 31/14 Q1013 A2993'
20180104,1700,RST,ROCHESTER_MUNICIPAL_(ASOS),43.92,-92.50,-1,6,,,,-6,'KRST 041654Z 31005KT 10SM BKN080 OVC100 M18/M21 A3035 RMK AO2 SLP318 T11831211'
20180104,1700,GRB,GREEN_BAY/STRAUBEL_(ASOS),44.48,-88.13,5,12,,,,-7,'KGRB 041653Z 33010KT 10SM CLR M15/M22 A3031 RMK AO2 SLP282 T11501217'
20180104,1700,MTW,MANITOWAC_MUNI_AWOS,44.13,-87.68,6,18,,,,-6,'KMTW 041656Z AUTO 32016KT 10SM CLR M14/M21 A3029 RMK AO2 SLP282 T11441211 FZRANO'
20180104,1700,OSH,OSHKOSH/WITTMAN_FLD_(ASOS),43.98,-88.55,5,7,,,,-5,'KOSH 041653Z 35006KT 10SM CLR M15/M21 A3030 RMK AO2 SLP296 T11501206'
20180104,1700,ATW,APPLETON/OUTAGAMIE,44.25,-88.52,3,10,,,,-9,'KATW 041645Z 34009KT 10SM SKC M16/M23 A3028'
20180104,1700,SUE,STURGEON_BAY,44.85,-87.42,6,15,,,,-5,'KSUE 041656Z AUTO 33013KT 10SM FEW029 M14/M21 A3028 RMK AO2 SLP282 T11441206 FZRANO'
20180104,1700,AUW,WAUSAU_MUNICIPAL_(ASOS),44.93,-89.63,3,9,,,,-5,'KAUW 041654Z AUTO 35008KT 10SM OVC021 M16/M21 A3027 RMK AO2 SLP290 T11611206'
20180104,1700,RYV,WATERTOWN,43.17,-88.72,2,5,,,,-5,'KRYV 041735Z AUTO 32005KT 10SM CLR M15/M20 A3030 RMK AO2 T11531202'
20180104,1700,CWA,MOSINEE/CENTRAL_WI,44.78,-89.67,1,7,,,,-4,'KCWA 041645Z 31006KT 10SM BKN020 M17/M20 A3029'
20180104,1700,PBH,PHILLIPS/PRICE_CO.,45.70,-90.40,-1,0,,,,-5,'KPBH 041735Z AUTO 33003KT 10SM OVC018 M17/M20 A3027 RMK AO2 T11721200'
20180104,1700,ESC,ESCANABA_(AWOS),45.75,-87.03,9,10,,,,-2,'KESC 041656Z AUTO 33011G17KT 7SM -SN FEW030 BKN036 OVC043 M14/M19 A3026 RMK AO2SNB42 SLP276 P0000 T11391189 FZRANO'
20180104,1700,MNM,MENOMINEE_(AWOS),45.13,-87.63,9,10,17,,17,-5,'KMNM 041656Z AUTO 34009G15KT 10SM CLR M13/M21 A3030 RMK AO2 SLP284 T11281206 FZRANO $'
20180104,1700,FFL,FAIRFIELD,41.05,-91.98,3,6,,,,-6,'KFFL 041735Z AUTO 32005KT 10SM FEW110 M16/M21 A3040 RMK AO2 PWINO'
20180104,1700,ORB,ORR,48.02,-92.87,-17,0,,,,-24,'KORB 041733Z AUTO 00000KT 10SM CLR M24/M29 A3035 RMK AO2'
20180104,1700,COQ,CLOQUET_(AWOS),46.70,-92.50,-8,6,,,,-18,'KCOQ 041735Z AUTO 00000KT 10SM CLR M21/M27 A3035 RMK AO2'
20180104,1700,FBL,FARIBAULT_MUNI_AWOS,44.33,-93.32,1,0,,,,-6,'KFBL 041735Z AUTO 00000KT 10SM SCT075 OVC100 M17/M21 A3037 RMK AO2'
20180104,1700,OWA,OWATONNA_(AWOS),44.12,-93.25,1,0,,,,-8,'KOWA 041733Z AUTO 00000KT 10SM SCT080 SCT095 M17/M21 A3036 RMK AO2'
20180104,1700,RGK,RED_WING,44.58,-92.48,0,0,,,,-11,'KRGK 041735Z AUTO 00000KT 10SM CLR M17/M24 A3040 RMK AO2'
20180104,1700,MIC,MINNEAPOLIS/CRYSTAL_(ASOS),45.07,-93.35,-2,5,,,,-12,'KMIC 041653Z 36004KT 10SM OVC085 M19/M24 A3042 RMK AO2 SLP328 T11891244'
20180104,1700,FCM,MINNEAPOLIS/FLY_CLD_(ASOS),44.83,-93.45,1,0,,,,-8,'KFCM 041653Z 00000KT 10SM OVC085 M17/M22 A3041 RMK AO2 SLP324 T11721222'
20180104,1700,MSP,MINNEAPOLIS-ST_PAUL_(ASOS),44.88,-93.22,-1,3,,,,-8,'KMSP 041653Z 04003KT 10SM BKN080 M18/M22 A3043 RMK AO2 SLP329 T11831222'
20180104,1700,STP,SAINT_PAUL_DOWNTOWN_(ASOS),44.95,-93.07,-2,3,,,,-10,'KSTP 041653Z 29003KT 10SM CLR M19/M23 A3046 RMK AO2 SLP333 T11891233'
20180104,1700,ONA,WINONA_MUNI_(AWOS),44.08,-91.70,0,7,,,,-8,'KONA 041735Z AUTO 31004KT 10SM M17/M21 A3041 RMK AO2'
20180104,1700,AEL,ALBERT_LEA_(AWOS),43.68,-93.37,1,0,,,,-9,'KAEL 041721Z AUTO 00000KT 10SM SCT055 SCT080 SCT100 M17/M23 A3034 RMK AO2'
20180104,1700,SGS,SOUTH_ST_PAUL_MUNI,44.85,-93.15,-1,0,,,,-10,'KSGS 041735Z AUTO 00000KT 10SM CLR M18/M23 A3042 RMK AO2 T11771235'
20180104,1700,HUL,HOULTON_INTL_ARPT_(ASOS),46.12,-67.80,13,3,,,,11,'KHUL 041736Z AUTO 02009KT 1/4SM SN FZFG VV009 M09/M10 A2962 RMK AO2 SNB1656 PRESFR P0001 T10891100'
20180104,1700,CAR,CARIBOU_MUNICIPAL_(ASOS),46.87,-68.02,16,12,,,,10,'KCAR 041654Z AUTO 02010KT 10SM FEW037 SCT046 OVC080 M09/M12 A2977 RMK AO2 PRESFR SLP099 T10891122'
20180104,1700,PQI,PRESQUE_ISLE_(AWOS),46.68,-68.05,15,9,,,,11,'KPQI 041656Z AUTO 36008KT 10SM OVC070 M09/M12 A2979 RMK AO2 SLP133 T10941117 FZRANO'
20180104,1700,ANJ,SAULT_STE_MARIE___(ASOS),46.47,-84.37,-8,9,,,,-20,'KANJ 041655Z AUTO 36008KT 10SM CLR M22/M29 A3022 RMK AO2 SLP257 T12221289'
20180104,1700,CIU,CHIPPEWA_INTL(AWOS),46.25,-84.47,-8,9,,,,-20,'KCIU 041656Z AUTO 01008KT 10SM CLR M22/M29 A3022 RMK AO2 SLP263 T12221289 FZRANO PNO $'
20180104,1700,PLN,PELLSTON/EMMET_CO_(ASOS),45.57,-84.80,-3,13,,,,-16,'KPLN 041654Z AUTO 35011KT 10SM CLR M19/M27 A3023 RMK AO2 SLP259 T11941267'
20180104,1700,RHI,RHINELANDER/ONEIDA_(ASOS),45.63,-89.47,2,8,,,,-7,'KRHI 041653Z AUTO 36007KT 10SM OVC023 M17/M22 A3023 RMK AO2 SNB08E19 SLP284 P0000 T11671217'
20180104,1700,IMT,IRON_MOUNTAIN/FORD_(ASOS),45.82,-88.12,3,17,22,,22,-7,'KIMT 041716Z AUTO 33015KT 10SM SCT026 M16/M22 A3024 RMK AO2 T11611217'
20180104,1700,CMX,HOUGHTON_CO_MEM_(ASOS),47.17,-88.50,4,9,,,,-5,'KCMX 041720Z AUTO 02007KT 3SM -SN BKN023 OVC030 M16/M22 A3027 RMK AO2 P0000 T11561217'
20180104,1700,TWM,TWO_HARBORS,47.05,-91.75,9,0,,,,-8,'KTWM 041735Z AUTO 00000KT 10SM CLR M12/M23 A3034 RMK AO2'
20180104,1700,IWD,IRONWOOD_(AWOS),46.53,-90.13,5,7,,,,0,'KIWD 041724Z AUTO VRB05KT 3SM -SN OVC020 M15/M19 A3030 RMK AO2 FZRANO PNO $'
20180104,1700,DLH,DULUTH_INTL_AIRPORT_(ASOS),46.83,-92.18,-8,8,,,,-16,'KDLH 041655Z 35007KT 10SM CLR M22/M27 A3034 RMK AO2 SLP326 T12221267'
20180104,1700,HIB,HIBBING-CHISHOLM_(ASOS),47.38,-92.83,-11,0,,,,-15,'KHIB 041653Z AUTO 00000KT 10SM CLR M24/M26 A3037 RMK AO2 SLP337 T12391261'
20180104,1700,GPZ,GRAND_RAPIDS(AWOS),47.22,-93.52,-2,3,,,,-11,'KGPZ 041659Z AUTO 30003KT 4SM HZ CLR M19/M24 A3040 RMK AO2 FZRANO'
20180104,1700,ELO,ELY_MUNI_(AWOS),47.82,-91.83,-15,3,,,,-20,'KELO 041735Z AUTO 00000KT 10SM CLR M24/M28 A3035 RMK AO2'
20180104,1700,INL,INTERNATIONAL_FALLS_(ASOS),48.57,-93.38,-11,0,,,,-18,'KINL 041732Z AUTO 00000KT 10SM SCT009 M23/M27 A3040 RMK AO2 T12331272'
20180104,1700,EVM,EVELETH_MUNI_(AWOS),47.40,-92.50,-11,0,,,,-18,'KEVM 041728Z AUTO 00000KT 10SM CLR M22/M26 A3036 RMK AO2'
20180104,1700,CBG,CAMBRIDGE_MUNI,45.57,-93.27,-4,0,,,,-15,'KCBG 041735Z AUTO 00000KT 10SM M19/M25 A3041 RMK AO2'
20180104,1700,BFW,SILVER_BAY,47.20,-91.40,-2,0,,,,-17,'KBFW 041736Z AUTO 00000KT 10SM M18/M27 A3034 RMK AO2'
20180104,1700,AUM,AUSTIN_MUNI,43.67,-92.93,1,3,,,,-8,'KAUM 041734Z AUTO 00000KT 10SM BKN100 M17/M22 A3034 RMK AO2'
20180104,1700,GTB,FORT_DRUM/WHEELER,44.05,-75.73,17,8,,,,13,'KGTB 041733Z AUTO 34008KT 1 7/8SM -SN BR FEW005 OVC026 M08/M10 A2968 RMK AO2 CIG 003 RWY03 SLP063'
20180104,1700,MHT,MANCHESTER_AIRPARK_(ASOS),42.93,-71.43,21,18,29,,29,19,'KMHT 041653Z 35019KT 1/4SM R35/2000V2800FT +SN FZFG VV005 M06/M07 A2932 RMK AO2SLP949 SNINCR 2/9 P0003 T10611072 $'
20180104,1700,ASH,NASHUA/BOIRE_FIELD,42.78,-71.52,22,16,23,30,30,21,'KASH 041709Z 34015G26KT 1/4SM +SN FZFG OVC006 M05/M06 A2927 RMK AO2 PK WND 34026/1703 PRESFR P0000'
20180104,1700,ARR,AURORA_MUNICIPAL_(ASOS),41.77,-88.47,1,9,,,,-7,'KARR 041652Z 34008KT 10SM CLR M17/M22 A3032 RMK AO2 SLPNO T11721217'
20180104,1700,PWK,CHICAGO/PALWAUKEE_(ASOS),42.12,-87.92,8,13,,,,-5,'KPWK 041652Z 33011KT 10SM CLR M13/M21 A3031 RMK AO2 SLP278 T11331206'
20180104,1700,JFK,NEW_YORK/JF_KENNEDY_(ASOS),40.65,-73.78,23,33,53,53,53,22,'KJFK 041708Z 33032G46KT 1/8SM R04R/1400V2400FT -SN BLSN FZFG VV006 M05/M06 A2926 RMK AO2 PK WND 33046/1701 SFC VIS 1/4 P0001 T10501061 $'
20180104,1700,FRG,FARMINGDALE/REPUBLC_(ASOS),40.73,-73.42,24,29,43,59,59,21,'KFRG 041736Z AUTO 35022G36KT 1/2SM FZFG VV013 M05/M07 A2916 RMK AO2 PK WND 34051/1706 T10501067 PWINO FZRANO $'
20180104,1700,FOK,WESTHAMPTON_BEACH_(ASOS),40.85,-72.63,27,29,45,56,56,25,'KFOK 041735Z 34033G49KT 1/2SM SN FZFG VV009 M03/M04 A2900 RMK AO2 PK WND 34049/1734 SNB1659 PRESFR P0000 T10281039 $'
20180104,1700,BED,HANSCOM_FLD/BEDFORD_(ASOS),42.47,-71.28,26,17,28,31,31,24,'KBED 041728Z 35013G23KT 1/4SM R11/1200V1400FT +SN BLSN FZFG VV004 M03/M03 A2916RMK AO2 PK WND 34027/1657 P0000 T10281033'
20180104,1700,LWM,LAWRENCE_MUNICIPAL_(ASOS),42.72,-71.12,27,20,33,39,39,23,'KLWM 041654Z 01017G29KT 1/4SM FZFG VV004 M03/M05 A2925 RMK AO2 PK WND 02034/1558 SNEMM PRESFR SLP906 P0003 T10281050 $'
20180104,1700,CEF,CHICOPEE/WESTOVER,42.20,-72.53,20,22,37,,37,15,'KCEF 041719Z 01016G28KT 1/4SM R23/2600V4500FT +SN BLSN VV004 M06/M09 A2927 RMK AO2A PRESFR SLP922'
20180104,1700,BAF,WESTFIELD/BARNES_(ASOS),42.15,-72.72,23,23,31,36,36,22,'KBAF 041733Z 35018G29KT 1/4SM R20/1800V2400FT FZFG VV006 M04/M04 A2927 RMK AO2 PK WND 36031/1707 T10391044 $'
20180104,1700,SCH,SCHENECTADY_AIRPORT,42.85,-73.93,18,7,,,,16,'KSCH 041645Z 28006KT 1/2SM SN OVC008 M08/M09 A2960'
20180104,1700,FFO,WRIGHT-PATERSON_AFB,39.83,-84.05,15,13,,,,2,'KFFO 041656Z 30011KT 10SM BKN043 M10/M17 A3014 RMK AO2A SLP225 T10961168'
20180104,1700,ADW,ANDREWS_AFB,38.82,-76.87,23,33,38,,38,15,'KADW 041710Z 31021G31KT 10SM FEW009 FEW044 M05/M10 A2961 RMK AO2A SNE1656 SLP038 $'
20180104,1700,LFI,LANGLEY_AFB/HAMPTON,37.08,-76.37,24,20,32,32,32,19,'KLFI 041658Z 31017G28KT 2SM BLSN BKN014 BKN021 BKN170 M04/M07 A2965 RMK PK WND 32028/05 SLP047 P0010 60010 T10441075 11036 21047 52015 $'
20180104,1700,MTV,MARTINSVILLE,36.63,-80.02,26,22,31,,31,-1,'KMTV 041735Z AUTO 33020G24KT 10SM CLR M03/M18 A2987 RMK AO2 T10331185'
20180104,1700,HOP,FORT_CAMPBELL_(AAF),36.67,-87.50,14,6,,,,1,'KHOP 041656Z AUTO 29005KT 10SM CLR M10/M17 A3034 RMK AO2 SLP285 T10991171'
20180104,1700,BWG,BOWLING_GREEN_(ASOS),36.97,-86.42,17,7,,,,3,'KBWG 041653Z AUTO VRB06KT 10SM CLR M08/M16 A3031 RMK AO2 SLP272 T10831161'
20180104,1700,FBG,FORT_BRAGG/SIMMONS,35.13,-78.93,32,18,28,,28,13,'KFBG 041656Z AUTO 30016G24KT 10SM FEW050 00/M11 A2982 RMK AO2 SLP103 T10011106 $'
20180104,1700,ECG,ELIZABETH_CITY(CGS)_(ASOS),36.27,-76.18,27,22,35,39,39,24,'KECG 041734Z 30026G34KT 6SM HZ FEW022 BKN031 M02/M05 A2969 RMK AO2 PK WND 31034/1730 T10221050'
20180104,1700,AEX,ENGLAND_AFB/ALEXAND_(ASOS),31.33,-92.55,38,3,,,,16,'KAEX 041653Z VRB03KT 10SM CLR 03/M09 A3039 RMK AO2 SLP296 T00331089'
20180104,1700,GPT,GULFPORT-BILOXI_(ASOS),30.40,-89.07,39,8,,,,15,'KGPT 041653Z 32007KT 10SM CLR 04/M09 A3032 RMK AO2 SLP267 T00391094'
20180104,1700,BIX,KEESLER_AFB/BILOXI,30.42,-88.92,40,13,,,,15,'KBIX 041656Z AUTO 35011KT 10SM CLR 04/M10 A3031 RMK AO2 SLP267 T00441097'
20180104,1700,PAM,TYNDALL_AFB,30.07,-85.58,39,10,,,,16,'KPAM 041656Z AUTO 32009KT 10SM CLR 04/M09 A3022 RMK AO2 SLP237 T00401091 TSNO $'
20180104,1700,HRT,HURLBURT_FIELD_(AF),30.43,-86.68,41,16,,,,12,'KHRT 041656Z AUTO 35014KT 10SM CLR 05/M11 A3023 RMK AO2 SLP239 T00481113 $'
20180104,1700,SVN,HUNTER_(AAF),32.02,-81.15,34,,,,,24,'KSVN 041656Z COR AUTO 27010KT 10SM CLR 01/M05 A2998 RMK AO2 SLP156 T00091047 $ COR 1732'
20180104,1700,VAD,MOODY_AFB/VALDOSTA,30.97,-83.20,40,13,18,,18,13,'KVAD 041656Z AUTO 29011G16KT 10SM CLR 04/M10 A3010 RMK AO2 SLP197 T00421103 $'
20180104,1700,MCF,MACDILL_AFB/TAMPA,27.85,-82.52,54,12,22,,22,36,'KMCF 041658Z 32010G19KT 10SM SCT036 12/02 A3017 RMK AO2A SLP220 $'
20180104,1700,SSC,SHAW_AFB/SUMTER,33.97,-80.47,34,13,,,,13,'KSSC 041656Z AUTO 29011KT 10SM CLR 01/M11 A2989 RMK AO2 SLP126 T00131108 $'
20180104,1700,MYR,MYRTLE_BEACH(CIV),33.68,-78.93,35,15,,,,18,'KMYR 041656Z 30013KT 10SM CLR 02/M08 A2989 RMK AO2 SLP122 T00171078 FZRANO'
20180104,1700,CRE,NORTH_MYRTLE_BEACH_(ASOS),33.82,-78.72,36,13,22,,22,13,'KCRE 041653Z 31011G19KT 10SM CLR 02/M11 A2986 RMK AO1 SLP112 T00221106'
20180104,1700,TTS,NASA_SHUTTLE_FCLTY,28.62,-80.72,47,16,23,,23,26,'KTTS 041658Z AUTO 29014G20KT 10SM CLR 09/M03 A3010 RMK AO2 SLP197 T00861031 $'
20180104,1700,COF,PATRICK_AFB/COCOA_B,28.23,-80.60,49,20,,,,25,'KCOF 041656Z AUTO 27017KT 10SM CLR 10/M04 A3011 RMK AO2 SLP201 T00961037'
20180104,1700,MMUN,CANCUN_INTL_AIRPORT,21.03,-86.87,72,9,,,,52,'MMUN 041649Z 34008KT 7SM FEW070 SCT200 22/11 A3018 RMK 8/078 SC'
20180104,1700,MMCE,CIUDAD_DEL_CARMEN_&,18.65,-91.80,68,9,,,,-9999,'MMCE 041645Z 09008KT 2SM -RA BKN008 OVC070 20/// A3025 RMK 6//// 8/77/ LWR SC'
20180104,1700,TXKF,BERMUDA_NAS/KINDLEY,32.37,-64.68,73,30,45,,45,61,'TXKF 041655Z 23026G39KT 9999 FEW027 SCT040 BKN300 23/16 Q1004'
20180104,1700,MYGF,FREEPORT_INTL_ARPT,26.55,-78.70,59,20,,,,39,'MYGF 041700Z 32017KT 9999 SCT025 15/04 A3009'
20180104,1700,MYNN,NASSAU_INTL_AIRPORT,25.05,-77.47,72,18,,,,57,'MYNN 041700Z 28016KT 9999 SCT020 22/14 A3007'
20180104,1700,MUHA,HAVANA/JOSE_MARTI,22.98,-82.40,68,12,,,,59,'MUHA 041655Z 02010KT 350V050 9000 BKN023 20/15 Q1020'
20180104,1700,MUVR,VARADERO,23.13,-81.28,63,13,,,,59,'MUVR 041650Z 01011KT 9000 BKN019 17/15 Q1020'
20180104,1700,MUCM,CAMAGUEY/IGANCIO,21.42,-77.85,75,7,,,,55,'MUCM 041650Z 02006KT 340V070 9000 SCT018 24/13 Q1018'
20180104,1700,MUCU,SANTIAGO_DE_CUBA,19.97,-75.85,75,14,,,,61,'MUCU 041651Z 36012KT 9000 SCT020 BKN070 24/16 Q1016'
20180104,1700,MUCL,CAYO_LARGO_DEL_SUR,21.62,-81.55,73,9,,,,63,'MUCL 041652Z 36008KT 320V030 9000 SCT018 23/17 Q1019'
20180104,1700,MUGM,GUANTANAMO_BAY_NAS,19.90,-75.13,76,17,,,,68,'MUGM 041656Z 34015KT 9999 SCT040 BKN060 BKN150 24/20 A3002 RMK SLP165 T02440200'
20180104,1700,MWCR,OWEN_ROBERTS_INTL,19.28,-81.35,81,16,,,,68,'MWCR 041700Z 35014KT 9999 FEW018 27/20 Q1017'
20180104,1700,MKJS,SANGSTER/MONTEGO,18.50,-77.92,79,16,,,,66,'MKJS 041700Z 03014KT 9999 FEW022 BKN048 26/19 Q1016'
20180104,1700,MKJP,NORMAN_MANLEY/KINGS,17.93,-76.78,81,15,,,,72,'MKJP 041700Z 35013KT 9999 FEW018 BKN080 27/22 Q1014'
20180104,1700,MDPP,PUERTO_PLATA_INTL,19.75,-70.55,82,6,,,,75,'MDPP 041700Z 36005KT 9999 FEW020 BKN300 28/24 Q1015'
20180104,1700,MDST,SANTIAGO_INTL_ARPT,19.47,-70.70,81,0,,,,72,'MDST 041700Z 00000KT 9999 BKN018 BKN070 27/22 Q1015 REBR'
20180104,1700,MDPC,PUNTA_CANA,18.57,-68.37,84,12,,,,73,'MDPC 041700Z 17010KT 9999 SCT020 29/23 Q1015 NOSIG'
20180104,1700,MDSD,CAUCEDO/DE_LAS_AMER,18.43,-69.67,88,12,,,,72,'MDSD 041700Z 16010KT 9999 SCT020 SCT300 31/22 Q1015'
20180104,1700,TJBQ,AQUADILLA/BORINQUEN,18.50,-67.13,84,6,,,,70,'TJBQ 041650Z 35005KT 10SM SKC 29/21 A3000'
20180104,1700,TJSJ,SAN_JUAN_INTL_ARPT,18.43,-66.00,87,10,18,,18,69,'TJSJ 041656Z 16009G16KT 10SM FEW038 FEW110 31/21 A2998 RMK AO2 SLP151 T03060206'
20180104,1700,TIST,C._AMALIE/CYRIL_E._(ASOS),18.33,-64.97,82,15,,,,75,'TIST 041653Z AUTO 13013KT 10SM FEW023 28/24 A3000 RMK AO2 RAE05 SLP158 P0000 T02780239'
20180104,1700,TISX,CHRISTIANSTED/ALEXA_(ASOS),17.70,-64.80,82,13,,,,75,'TISX 041653Z 13011KT 10SM SCT021 28/24 A3001 RMK AO2 SLP161 T02780239 $'
20180104,1700,MZBZ,BELIZE_INTL_AIRPORT,17.53,-88.30,77,10,,,,61,'MZBZ 041700Z 35009KT 9999 FEW025 25/16 A3016 Q1021 NOSIG'
20180104,1700,MGHT,HUEHUETENANGO,15.32,-91.47,63,0,,,,48,'MGHT 041700Z 00000KT 9999 BKN024 17/09 QFE 823/2'
20180104,1700,MGPB,PUERTO_BARRIOS(MIL),15.72,-88.60,72,0,,,,70,'MGPB 041700Z 00000KT 9999 SCT018 BKN080 22/21 Q1021 A3015'
20180104,1700,MGGT,GUATEMALA/LA_AURORA,14.58,-90.52,66,16,,,,52,'MGGT 041700Z 36014KT 9999 BKN020 19/11 Q1028 A3036 FEW200'
20180104,1700,MGSJ,SAN_JOSE_(CIV/MIL),13.92,-90.82,90,0,,,,64,'MGSJ 041700Z 00000KT CAVOK 32/18 Q1014 A2994 BKN200'
20180104,1700,MSLP,EL_SALVADOR_INTL,13.43,-89.05,90,13,24,,24,59,'MSLP 041650Z 01011G21KT 340V050 CAVOK 32/15 Q1013 A2993 NOSIG'
20180104,1700,MHAM,AMAPALA/LOS_PELONAS,13.28,-87.67,86,5,,,,72,'MHAM 041700Z 36004KT 9999 FEW030 30/22'
20180104,1700,MHRO,ROATAN,16.32,-86.53,77,14,,,,68,'MHRO 041700Z 32012KT 9999 BKN020TCU 25/20 Q1020 A3012 NOSIG'
20180104,1700,MHLC,LA_CEIBA/GOLOSON__&,15.73,-86.87,68,0,,,,68,'MHLC 041700Z 00000KT 1000 RA BKN020 OVC070 20/20 Q1021 A3015 BECMG 5000 -RA'
20180104,1700,MHTE,TELA,15.72,-87.48,72,7,,,,72,'MHTE 041700Z 27006KT 8000 VCSH BKN026TCU OVC080 22/22 Q1018 REDZ TCU 8KMS VCSH ALL'
20180104,1700,MHYR,YORO,15.17,-87.12,66,5,,,,63,'MHYR 041700Z 05004KT 9999 SCT020 BKN070 19/17 VCSH NE E SE'
20180104,1700,MHLM,LA_MESA/PEDRO_SULA,15.45,-87.93,72,0,,,,72,'MHLM 041700Z 00000KT 8000 VCSH FEW008 SCT020 OVC070 22/22 Q1021 A3015 NOSIG'
20180104,1700,MHPL,PUERTO_LEMPIRA,15.22,-83.80,77,14,,,,66,'MHPL 041700Z 36012KT 9999 SCT028TCU BKN05 METAR MHCA 041700Z 12003KT 9999 SCT028 25/19 Q1020 HZ'
20180104,1700,MHCA,CATACAMAS,14.90,-85.93,77,3,,,,66,'MHCA 041700Z 12003KT 9999 SCT028 25/19 Q1020 HZ'
20180104,1700,MHSR,SANTA_ROSA_DE_COPAN,14.78,-88.78,61,5,,,,59,'MHSR 041700Z 36004KT 8000 BKN018 16/15 8KM ALL CL HZ'
20180104,1700,MHLE,LA_ESPERANZA,14.33,-88.17,61,12,,,,55,'MHLE 041700Z 05010KT 8000 VCSH BKN014 16/13 8KMS N N NE E CL VCSH'
20180104,1700,MHTG,TEGUCIGALPA/TONCONT,14.05,-87.22,72,14,,,,57,'MHTG 041700Z 04012KT 9999 SCT030 SCT080 22/14 Q1023 A3021 NOSIG'
20180104,1700,MNPC,PUERTO_CABEZAS(MIL),14.05,-83.37,84,18,,,,75,'MNPC 041700Z 36016KT 8000 BKN016 29/24 Q1015 HZ'
20180104,1700,MNJG,JINOTEGA,13.08,-85.98,68,18,,,,66,'MNJG 041700Z 36016KT CAVOK 20/19 Q1017'
20180104,1700,TAPA,COOLIDGE_AIRPORT,17.12,-61.78,82,13,,,,72,'TAPA 041700Z 12011KT 9999 VCSH FEW018 28/22 Q1016 NOSIG'
20180104,1700,TNCM,PRINSES_JULIANA,18.05,-63.12,84,16,,,,73,'TNCM 041700Z 12014KT 090V160 9999 FEW020 29/23 Q1016 A3002 NOSIG'
20180104,1700,TFFR,LE_RAIZET/GUADELOUP,16.27,-61.52,81,15,,,,72,'TFFR 041730Z AUTO 11009KT 9999 FEW032 SCT068 BKN078 27/22 Q1015 TEMPO 4000 SHRASCT015TCU'
20180104,1700,TDPD,MELVILLE_HALL_ARPT,15.53,-61.30,81,9,,,,73,'TDPD 041700Z 07008KT 9999 -SHRA SCT015 BKN032 27/23 Q1016'
20180104,1700,TDCF,CANEFIELD_AIRPORT,15.53,-61.40,82,2,,,,73,'TDCF 041700Z 32002KT 9999 BKN018 SCT034 28/23 Q1015'
20180104,1700,TFFF,LE_LAMENTIN_______&,14.60,-61.00,86,10,,,,72,'TFFF 041730Z AUTO 12009KT 060V170 9999 SCT032 SCT042 30/22 Q1015 NOSIG'
20180104,1700,FMH,OTIS_ANGB,41.65,-70.52,36,29,49,,49,36,'KFMH 041735Z 02027G40KT 2SM +RA BKN007 BKN013 01/01 A2889 RMK AO2'
20180104,1700,TVR,VICKSBURG/TALLULAH_ARPT_(ASOS),32.35,-91.03,36,7,,,,16,'KTVR 041653Z AUTO VRB06KT 10SM CLR 02/M09 A3040 RMK AO2 SLP302 T00221089'
20180104,1700,FZY,FULTON/OSWEGO_CTY_AIRPORT,43.35,-76.38,21,6,,,,16,'KFZY 041736Z AUTO 33005KT 3/4SM -SN BR VV016 M06/M08 A2970 RMK AO2 P0000 T10611083'
20180104,1700,IZG,FRYEBERG_(ASOS),43.99,-70.95,22,10,,,,21,'KIZG 041733Z AUTO 36013G20KT 1/2SM SN FZFG VV009 M05/M05 A2941 RMK AO2 PRESFR P0000 T10501050'
20180104,1700,AQW,NORTH_ADAMS_(ASOS),42.70,-73.17,17,10,21,,21,13,'KAQW 041652Z AUTO 26009G18KT 1/4SM SN FZFG VV008 M08/M11 A2948 RMK AO2 SLP994 P0004 T10831106'
20180104,1700,EYE,EAGLE_CREEK_AIRPARK_(ASOS),39.83,-86.29,6,10,,,,-2,'KEYE 041653Z AUTO 33009KT 10SM CLR M14/M19 A3023 RMK AO2 SLP255 T11441189'
20180104,1700,HYR,HAYWARD_MUNI_AIRPORT_(ASOS),46.02,-91.45,-4,0,,,,-9,'KHYR 041653Z AUTO 00000KT 10SM OVC013 M20/M23 A3035 RMK AO2 SLP321 T12001228'
20180104,1700,LHQ,LANCASTER_(ASOS),39.76,-82.66,14,13,,,,4,'KLHQ 041718Z AUTO 31012G19KT 10SM OVC034 M09/M16 A3009 RMK AO2 T10941156'
20180104,1700,MVL,MORRISVILLE-STOWE_ARPT_(ASOS),44.53,-72.62,13,3,,,,9,'KMVL 041735Z AUTO 03003KT 1SM -SN BR M10/M12 A2958 RMK AO2 PRESFR P0001 T11001117 $'
20180104,1700,UUU,NEWPORT_(ASOS),41.53,-71.28,28,24,35,41,41,27,'KUUU 041730Z AUTO 36022G36KT 1/4SM FZFG VV004 M02/M02 A2896 RMK AO2 PK WND 36036/1725 PRESFR T10221022 PWINO FZRANO $'
20180104,1700,IWI,WISCASSET_(ASOS),43.96,-69.71,22,7,18,,18,19,'KIWI 041653Z AUTO VRB06G16KT 1/2SM SN FZFG VV016 M06/M07 A2943 RMK AO2 PRESFR SLP966 P0003 T10561072'
20180104,1700,FFC,PEACHTREE_CITY_(ASOS),33.34,-84.57,32,14,22,,22,8,'KFFC 041653Z AUTO 31012G19KT 10SM CLR 00/M13 A3010 RMK AO2 SLP202 T00001133'
20180104,1700,ISW,WISCONSN_RAPIDS_(ASOS),44.44,-89.83,3,8,,,,-7,'KISW 041654Z AUTO 36007KT 10SM UP SCT022 M16/M22 A3033 RMK AO2 UPB52 SLP301 P0000 T11611217'
20180104,1700,AFN,JAFFREY_MUNICIPAL_(ASOS),42.80,-72.00,23,9,22,,22,21,'KAFN 041731Z AUTO 36009G18KT 330V040 1/4SM +SN FZFG VV005 M04/M06 A2926 RMK AO2P0005 T10441056'
20180104,1700,AIG,ANTIGO,45.03,-89.14,2,10,,,,-6,'KAIG 041735Z AUTO 34010KT 10SM OVC024 M16/M21 A3022 RMK AO2 T11601211'
20180104,1700,BIV,TULIP_CITY_ARPT/HOLLAND_(ASOS),42.75,-86.10,15,9,,,,5,'KBIV 041653Z AUTO 03008KT 10SM FEW034 M09/M15 A3018 RMK AO2 SLP235 T10941150'
20180104,1700,DLL,BARABOO/WISCONSIN_DELLS,43.31,-89.46,5,6,,,,-6,'KDLL 041735Z AUTO 34005KT 10SM CLR M14/M21 A3031 RMK AO2 T11421210'
20180104,1700,DMO,SEDALIA_(ASOS),38.72,-93.17,14,6,,,,1,'KDMO 041653Z AUTO 29005KT 10SM CLR M10/M17 A3043 RMK AO2 SNB01E05 SLP322 P0000 T11001172'
20180104,1700,DVN,QUAD_CITIES/QUAD_CITIES_(ASOS),41.61,-90.57,2,6,,,,-8,'KDVN 041652Z AUTO 32005KT 10SM OVC120 M17/M22 A3040 RMK AO2 SLP314 T11671222'
20180104,1700,FFT,CAPITAL_CITY_ARPT_(ASOS),38.19,-84.90,16,7,,,,5,'KFFT 041653Z AUTO 26006KT 10SM OVC047 M09/M15 A3020 RMK AO2 SLP240 T10891150'
20180104,1700,FSW,FORT_MADISON,40.67,-91.33,3,5,,,,-4,'KFSW 041735Z AUTO 30005KT 10SM BKN080 M16/M19 A3040 RMK AO2'
20180104,1700,GVL,GAINSVILLE_(ASOS),34.32,-83.83,32,12,21,,21,4,'KGVL 041653Z AUTO 31010G18KT 10SM CLR 00/M16 A2999 RMK AO2 SLP164 T00001156'
20180104,1700,IOW,IOWA_CITY_(ASOS),41.63,-91.55,3,5,,,,-5,'KIOW 041652Z AUTO 28004KT 10SM OVC120 M16/M21 A3043 RMK AO2 SLP322 T11611206'
20180104,1700,RPD,RICE_LAKE,45.48,-91.72,-3,0,,,,-9,'KRPD 041735Z AUTO 00000KT 10SM CLR M18/M22 A3038 RMK AO2 T11771216'
20180104,1700,SUW,SUPERIOR,46.69,-92.09,-6,6,,,,-15,'KSUW 041735Z AUTO 22005KT 10SM CLR M20/M26 A3045 RMK AO2 T11991256'
20180104,1700,DNL,AUGUSTA_(ASOS),33.47,-82.03,37,7,,,,10,'KDNL 041653Z AUTO 29006KT 10SM CLR 03/M12 A2997 RMK AO2 SLP152 T00281122'
20180104,1700,EHR,HENDERSON_CITY,37.82,-87.68,16,9,,,,3,'KEHR 041656Z AUTO 34008KT 10SM CLR M09/M16 A3037 RMK AO2 SLP297 T10891161 FZRANO'
20180104,1700,ENW,KENOSHA_(ASOS),42.59,-87.94,8,13,23,,23,-5,'KENW 041653Z 33011G20KT 10SM CLR M13/M21 A3028 RMK AO2 SLP273 T11331206'
20180104,1700,MFI,MARSHFIELD_(ASOS),44.63,-90.18,0,7,,,,-6,'KMFI 041654Z AUTO 31006KT 10SM OVC020 M18/M21 A3029 RMK AO2 SLP296 T11781211 TSNO'
20180104,1700,SGJ,ST_AUGUSTINE_AIRPT,29.97,-81.33,42,15,25,,25,17,'KSGJ 041656Z 29013G22KT 10SM CLR 06/M08 A3009 RMK AO2 SLP187 T00561083'
20180104,1700,UES,WAUKESHA_CNTY_ARPT,43.02,-88.14,3,12,17,,17,-8,'KUES 041645Z 32010G15KT 10SM SKC M16/M22 A3030'
20180104,1700,UNO,WEST_PLAINS_(ASOS),36.73,-91.85,21,6,,,,-1,'KUNO 041653Z AUTO 34005KT 10SM CLR M06/M18 A3036 RMK AO2 SLP298 T10611183'
20180104,1700,FLD,FOND_DU_LAC_(ASOS),43.77,-88.49,4,6,,,,-7,'KFLD 041653Z AUTO 33005KT 10SM CLR M16/M22 A3031 RMK AO2 SLP287 T11561217 TSNO'
20180104,1700,LEE,LEESBURG_MUNICIPAL_ARPT_(ASOS),28.82,-81.81,45,15,,,,20,'KLEE 041653Z 29013KT 10SM CLR 07/M07 A3015 RMK AO2 SLP210 T00721067'
20180104,1700,MIW,MARSHALLTOWN_(ASOS),42.11,-92.91,3,3,,,,-4,'KMIW 041653Z AUTO 31003KT 10SM OVC075 M16/M20 A3039 RMK AO2 SLP319 T11611200'
20180104,1700,SBM,SHEBOYGAN_(ASOS),43.78,-87.85,6,14,,,,-5,'KSBM 041653Z AUTO 34012KT 9SM -SN CLR M14/M21 A3028 RMK AO2 SLP274 P0000 T11441206 TSNO'
20180104,1700,LWV,LAWRENCEVILLE-VINCENNES_(ASOS),38.76,-87.60,14,14,,,,1,'KLWV 041653Z AUTO 31012KT 10SM CLR M10/M17 A3036 RMK AO2 SLP288 T11001172'
20180104,1700,PGD,PUNTA_GORDA_(ASOS),26.92,-82.00,55,14,,,,34,'KPGD 041653Z 33012KT 10SM CLR 13/01 A3019 RMK AO2 SLP224 T01280011'
20180104,1700,HTO,EASTHAMPTON,40.96,-72.25,26,28,38,,38,25,'KHTO 041735Z AUTO 35025G40KT OVC008 M04/M05 A2898 RMK AO2 T10401051 PWINO'
20180104,1700,DCU,DECATUR-PRYOR_FIELD_(ASOS),34.65,-86.94,24,13,18,,18,6,'KDCU 041653Z AUTO 33011G16KT 10SM CLR M04/M14 A3028 RMK AO2 SLP261 T10441144'
20180104,1700,CDD,CRANE_LAKE_(AWOS),46.27,-92.57,-18,0,,,,-24,'KCDD 041728Z AUTO 00000KT 10SM CLR M26/M29 A3043 RMK AO2'
20180104,1700,JMR,MORA,45.89,-93.27,-4,3,,,,-13,'KJMR 041735Z AUTO 00000KT 10SM CLR M20/M25 A3041 RMK AO2'
20180104,1700,LVN,MINNEAPOLIS_(AIRLAKE_APT),44.63,-93.23,0,0,,,,-8,'KLVN 041735Z AUTO 00000KT 10SM M18/M22 A3038 RMK AO2'
20180104,1700,MCD,MACKINAC_ISLAND,45.86,-84.64,-4,12,21,,21,-15,'KMCD 041735Z AUTO 36008KT 10SM SCT017 M19/M25 A3021 RMK AO2 T11921248'
20180104,1700,OZW,HOWELL,42.63,-83.98,9,15,21,,21,-1,'KOZW 041735Z AUTO 35010G18KT 10SM OVC031 M13/M18 A3008 RMK AO2 T11281185'
20180104,1700,ANE,MINNEAPOLIS/BLAINE,45.15,-93.22,0,0,,,,-11,'KANE 041655Z 00000KT 10SM SCT100 M18/M24 A3041'
20180104,1700,CKC,GRAND_MARAIS/COOK_COUNTY_AIRPORT,47.84,-90.38,-11,12,,,,-22,'KCKC 041735Z AUTO 33006KT 10SM CLR M23/M29 A3025 RMK AO2'
20180104,1700,GSH,GOSHEN_MUNICIPAL_AIRPORT_(ASOS),41.53,-85.79,,8,17,,17,-9999,'KGSH 041723Z AUTO 27010KT 10SM BKN025 OVC032 A3016 RMK AO2 $'
20180104,1700,TZR,COLUMBUS_(BOLTON_FLD),39.90,-83.13,12,13,,,,3,'KTZR 041720Z 32013G21KT 10SM BKN028 BKN034 A3011'
20180104,1700,DTS,DESTIN_AIRPORT_(ASOS),30.39,-86.47,43,14,,,,11,'KDTS 041653Z 35012KT 10SM CLR 06/M12 A3024 RMK AO2 SLP239 T00611117'
20180104,1700,DKK,DUNKIRK_AIRPORT_(ASOS),42.49,-79.28,14,12,21,,21,6,'KDKK 041735Z AUTO 32010KT 10SM SCT024 OVC037 M10/M15 A2989 RMK AO2 T11001150'
20180104,1700,BJJ,WOOSTER/WAYNE_CTY_ARPT_(ASOS),40.87,-81.89,11,12,,,,6,'KBJJ 041733Z AUTO 30017KT 3SM -SN BKN019 OVC028 M11/M16 A3000 RMK AO2 P0000 T11111156'
20180104,1700,SET,ST_CHARLES_(ASOS),38.93,-90.43,11,5,,,,-1,'KSET 041654Z AUTO VRB04KT 10SM CLR M12/M18 A3043 RMK AO2 SLP313 T11171183'
20180104,1700,AVC,SOUTH_HILL/MECKLENBURG-BRUNSWICK,36.69,-78.05,28,10,22,,22,8,'KAVC 041735Z AUTO 30007G17KT 250V320 10SM OVC050 M02/M13 A2980 RMK AO2 T10231132'
20180104,1700,CLI,CLINTONVILLE_MUNI_ARPT,44.61,-88.73,5,7,,,,-6,'KCLI 041735Z AUTO 03006KT 10SM CLR M14/M21 A3030 RMK AO2'
20180104,1700,DYT,DULUTH-SKY_HARBOR_ARPT,46.72,-92.04,-6,8,,,,-15,'KDYT 041735Z AUTO 22006KT 10SM SCT055 M19/M25 A3044 RMK AO2'
20180104,1700,EGV,EAGLE_RIVER-UNION_ARPT,45.93,-89.27,2,10,,,,-8,'KEGV 041735Z AUTO 34008KT 10SM OVC023 M16/M22 A3021 RMK AO2 T11631220'
20180104,1700,UNU,JUNEAU-DODGE_CTY_ARPT,43.43,-88.70,1,3,,,,-7,'KUNU 041735Z AUTO 33005KT 10SM CLR M16/M21 A3030 RMK AO2 T11611209'
20180104,1700,TTF,MONROE-CUSTER_ARPT,41.94,-83.43,12,12,,,,1,'KTTF 041735Z AUTO 33013KT 10SM OVC031 M11/M18 A3009 RMK AO2 T11091181'
20180104,1700,ACB,BELLAIRE-ANTRIM_CTY_ARPT,44.99,-85.20,1,9,16,,16,-7,'KACB 041735Z AUTO 36008KT 10SM SCT024 M17/M21 A3023 RMK AO2 T11671213'
20180104,1700,AMN,ALMA-GRATIOT_COMM_ARPT,43.32,-84.69,10,15,21,,21,-1,'KAMN 041719Z AUTO 34013G18KT 10SM OVC033 M12/M18 A3014 RMK AO2 T11181183'
20180104,1700,IDI,INDIANA-INDIANA_CTY_ARPT,40.63,-79.10,16,12,18,,18,9,'KIDI 041735Z AUTO 31012KT 7SM SCT028 BKN034 OVC041 M08/M13 A2982 RMK A01'
20180104,1700,IRS,STURGIS-KIRSCH_MUNI_ARPT,41.81,-85.44,15,10,,,,4,'KIRS 041735Z AUTO 34010G14KT 10SM SCT030 BKN035 BKN048 M09/M15 A3013 RMK AO2 T10901148'
20180104,1700,MRJ,MINERAL_POINT-IOWA_CTY_ARPT,42.89,-90.23,5,0,,,,-4,'KMRJ 041735Z AUTO 33006KT 10SM CLR M13/M19 A3030 RMK AO2'
20180104,1700,GKJ,MEADVILLE-PORT_MEADVILLE_ARPT,41.63,-80.21,13,15,24,,24,7,'KGKJ 041724Z AUTO 32008G21KT 3SM -SN BKN023 OVC031 M11/M14 A2987 RMK AO2 P0000 T11111144 $'
20180104,1700,TEW,MASON-JEWETT_FIELD,42.57,-84.42,11,15,,,,-2,'KTEW 041735Z AUTO 33012G18KT 10SM OVC028 M12/M19 A3011 RMK AO2 T11171189'
20180104,1700,OGB,ORANGEBURG/MUNI_ARPT_(ASOS),33.46,-80.85,35,12,,,,15,'KOGB 041653Z AUTO 28010KT 10SM CLR 02/M09 A2994 RMK AO2 SLP138 T00171094'
20180104,1700,MUHG,HOLGUIN_(CIV/MIL)_&,20.78,-76.32,75,10,,,,63,'MUHG 041651Z 01009KT 340V050 9000 SCT020 24/17 Q1017'
20180104,1700,GZH,EVERGREEN_(ASOS),31.42,-87.04,36,8,16,,16,10,'KGZH 041653Z AUTO 34007G14KT 300V010 10SM CLR 02/M12 A3027 RMK AO2 SLP250 T00221122'
20180104,1700,MAI,MARIANA_(ASOS),30.80,-85.21,40,12,,,,11,'KMAI 041653Z AUTO 33010KT 10SM CLR 04/M12 A3020 RMK AO2 SLP225 T00441117'
20180104,1700,LPR,LORAIN/ELYRIA_(ASOS),41.34,-82.18,12,13,,,,1,'KLPR 041723Z AUTO 35015KT 3SM -SN BKN018 OVC024 M11/M17 A3005 RMK AO2 P0000 T11111172'
20180104,1700,P92,SALT_POINT__(ASOS),29.60,-91.30,43,6,,,,16,'KP92 041653Z AUTO VRB05KT 06/M09 A3036 RMK AO1 SLP281 T00611089 $'
20180104,1700,HAO,HAMILTON_AIRPORT_(ASOS),39.36,-84.52,15,9,,,,7,'KHAO 041653Z AUTO 29008KT 10SM OVC045 M09/M14 A3021 RMK AO2 SLP240 T10941139'
20180104,1700,HLX,HILLSVILLE,36.77,-80.82,13,28,39,,39,-2,'KHLX 041735Z AUTO 31031G42KT 10SM SCT027 BKN032 M10/M19 A2971 RMK AO2 T10981187'
20180104,1700,BAX,BAD_AXE,43.78,-82.99,3,16,23,,23,-3,'KBAX 041735Z AUTO 31015G18KT 5SM HZ OVC021 M16/M20 A3009 RMK AO2 T11621201'
20180104,1700,EFT,MONROE,42.62,-89.59,5,7,,,,-4,'KEFT 041735Z AUTO 35005KT 10SM CLR M13/M20 A3029 RMK AO2'
20180104,1700,ERY,NEWBERRY,46.31,-85.46,-1,14,18,,18,-8,'KERY 041735Z AUTO 01008KT 5SM HZ BKN023 BKN028 OVC040 M18/M22 A3020 RMK AO2 T11831219'
20180104,1700,OEB,COLDWATER,41.94,-85.05,14,12,,,,1,'KOEB 041735Z AUTO 34010G16KT 10SM OVC037 M10/M17 A3011 RMK AO2 T10961168'
20180104,1700,RMY,MARSHALL,42.25,-84.96,13,10,,,,-1,'KRMY 041735Z AUTO 31012G19KT 10SM SCT033 M10/M19 A3011 RMK AO2 T11001191'
20180104,1700,MDZ,MEDFORD,45.10,-90.30,-2,6,,,,-6,'KMDZ 041735Z AUTO 32008KT 10SM OVC019 M17/M20 A3026 RMK AO2 T11741202'
20180104,1700,STE,STEVENS_POINT_MUNI,44.55,-89.53,2,7,,,,-7,'KSTE 041715Z AUTO 36007KT 10SM SCT021 M16/M21 A3030 RMK AO2 T11631215'
20180104,1700,SEG,SELINSGROVE_(ASOS),40.83,-76.87,21,16,23,,23,15,'KSEG 041726Z AUTO 33010KT 5SM HZ BKN035 OVC045 M06/M09 A2965 RMK AO2 SNE16 P0000 T10561094'
20180104,1700,THV,YORK_AIRPORT_(ASOS),39.93,-76.88,21,16,26,,26,14,'KTHV 041653Z AUTO 31018G26KT 2 1/2SM -SN BKN031 OVC043 M06/M10 A2963 RMK AO2 PKWND 32028/1634 SNB00 SLP041 P0000 T10561100'
20180104,1700,PQL,PASCAGOULA_(ASOS),30.47,-88.53,41,12,,,,13,'KPQL 041653Z 36010KT 10SM CLR 05/M11 A3031 RMK AO2 SLP264 T00501106'
20180104,1700,AKQ,WAKEFIELD_(ASOS),36.98,-77.00,25,10,20,,20,20,'KAKQ 041726Z AUTO 30007KT 260V360 3SM -SN BKN025 OVC033 M03/M06 A2972 RMK AO2 P0000 T10331061'
20180104,1700,GED,GEORGETOWN/SUSSEX_(ASOS),38.68,-75.37,23,15,30,32,32,19,'KGED 041654Z AUTO 32013G26KT 1/4SM +SN FZFG VV010 M05/M07 A2945 RMK AO2 PK WND 31028/1644 SNB1555 SLP973 P0001 T10501072 $'
20180104,1700,VAY,MOUNT_HOLLY_(ASOS),39.93,-74.83,23,18,28,32,32,20,'KVAY 041654Z AUTO 32016G24KT 1/2SM SN FZFG VV013 M05/M07 A2938 RMK AO2 PK WND 33028/1640 SNB1555 SLP950 P0000 T10501067 $'
20180104,1700,FIT,FITCHBURG_(ASOS),42.55,-71.76,26,17,28,30,30,23,'KFIT 041652Z AUTO 34015G24KT 1/4SM SN FZFG VV006 M03/M05 A2929 RMK AO2 PK WND 01026/1617 SNEMMB16SNEMMB37 SLP923 P0003 T10331050 $'
20180104,1700,MGY,DAYTON_(ASOS),39.59,-84.22,14,10,,,,4,'KMGY 041653Z AUTO 32009KT 10SM FEW024 BKN043 M10/M16 A3014 RMK AO2 SLP223 T11001156'
20180104,1700,TAN,TAUNTON_(ASOS),41.87,-71.02,30,15,37,32,37,-9999,'KTAN 041736Z AUTO 36015G25KT M1/4SM FZFG VV004 M01/ A2902 RMK AO2 PK WND 02028/1716 PRESFR T1011 PWINO FZRANO $'
20180104,1700,TOB,DODGE_CENTER,44.02,-92.83,0,3,,,,-9,'KTOB 041735Z AUTO 01004KT 10SM SCT080 SCT095 M18/M23 A3033 RMK AO2'
20180104,1700,MTO,MATTOON/CHARLESTON_(ASOS),39.48,-88.28,5,13,,,,-2,'KMTO 041653Z AUTO 32011KT 10SM CLR M15/M19 A3034 RMK AO2 SLP291 T11501189'
20180104,1700,POF,POPLAR_BLUFF_(ASOS),36.77,-90.32,19,7,,,,1,'KPOF 041653Z AUTO 33006KT 10SM CLR M07/M17 A3042 RMK AO2 SLP309 T10721172'
20180104,1700,VPZ,VALPARAISO_(ASOS),41.45,-87.00,14,17,22,,22,8,'KVPZ 041703Z AUTO 30014KT 1/2SM SN VV010 M09/M13 A3022 RMK AO2 P0000 T10941133'
20180104,1700,TDZ,METCALF_FIELD/TOLEDO_(ASOS),41.56,-83.48,13,17,,,,1,'KTDZ 041653Z AUTO 31015KT 10SM SCT033 M11/M17 A3012 RMK AO2 SLP211 T11061172'
20180104,1700,PEO,PENN_YAN_AIRPORT_(ASOS),42.64,-77.05,20,14,28,,28,10,'KPEO 041728Z AUTO 30015G23KT 8SM -SN BKN018 M07/M12 A2969 RMK AO2 UPB27E28SNB28P0000 T10721122'
20180104,1700,MGJ,ORANGE_COUNTY_AIRPORT_(ASOS),41.51,-74.26,21,10,,,,18,'KMGJ 041704Z AUTO 01010KT 1/4SM SN FZFG VV009 M06/M08 A2941 RMK AO2 P0000 T10611078 $'
20180104,1700,ADG,LENAWEE_COUNTY_AIRPORT_(ASOS),41.87,-84.07,12,13,23,,23,1,'KADG 041701Z AUTO 34014G20KT 10SM OVC029 M11/M17 A3011 RMK AO2 T11111167 TSNO'
20180104,1700,DFI,DEFIANCE_MEMORIAL_APRT_(ASOS),41.34,-84.43,14,15,,,,0,'KDFI 041653Z AUTO 32013KT 10SM SCT047 M10/M18 A3014 RMK AO2 SLP221 T11001178'
20180104,1700,40J,PERRY_FOLEY_ARPT_(ASOS),30.07,-83.57,42,9,,,,17,'K40J 041735Z AUTO 26010KT 10SM CLR 07/M09 A3015 RMK AO2 T00661087'
20180104,1700,AOH,LIMA_ALLEN_CNTY_APT_(ASOS),40.71,-84.03,,12,,,,-9999,'KAOH 041653Z AUTO 34010KT 10SM SCT045 A3011 RMK AO2 SLPNO $'
20180104,1700,CTY,CROSS_CITY_ARPT_(ASOS),29.62,-83.10,43,13,,,,15,'KCTY 041735Z AUTO 27012KT 10SM CLR 06/M08 A3019 RMK AO2 T00641083'
20180104,1700,FLP,FLIPPIN_(AWOS),36.20,-92.47,23,10,,,,8,'KFLP 041656Z AUTO 33009KT 10SM CLR M05/M13 A3042 RMK AO2 SLP308 T10501133 FZRANO'
20180104,1700,PHD,HARRY_CLEVER_FIELD_(ASOS),40.47,-81.42,13,17,26,,26,0,'KPHD 041653Z AUTO 32015G23KT 10SM OVC040 M11/M18 A3002 RMK AO2 SLP181 T11061178'
20180104,1700,RQB,ROBIN_HOOD_AIRPORT,43.72,-85.50,9,10,23,,23,-3,'KRQB 041735Z AUTO 36017G20KT 10SM OVC031 M13/M20 A3012 RMK AO2 T11301199'
20180104,1700,ASJ,AHOSKIE_TRI_COU,36.30,-77.17,30,9,,,,13,'KASJ 041645Z AUTO 32008KT 270V360 10SM OVC045 M01/M11 A2974 RMK AO2 T10121108'
20180104,1700,EDE,EDENTON_NORTHEA,36.03,-76.57,30,9,,,,22,'KEDE 041645Z AUTO 32008KT 10SM SCT022 SCT034 M01/M05 A2973 RMK AO2 T10101055'
20180104,1700,ILN,AIRBORNE_AIRPARK_ARPT_(ASOS),39.42,-83.77,14,16,,,,5,'KILN 041654Z AUTO 32016KT 10SM SCT023 OVC038 M10/M15 A3012 RMK AO2 SLP241 T11001150'
20180104,1700,RAC,RACINE_JOHN_H_B_(ASOS),42.76,-87.81,9,12,21,,21,-5,'KRAC 041653Z AUTO 33010G18KT 10SM CLR M13/M21 A3030 RMK AO2 SLP275 T11281206'
20180104,1700,GLR,OTSEGO_COUNTY_ARPT_(ASOS),45.01,-84.70,-4,8,17,,17,-15,'KGLR 041653Z AUTO 01007G15KT 10SM CLR M20/M26 A3012 RMK AO2 SLP234 T12001261'
20180104,1700,FAY,FAYETTEVILLE_RGNL_(ASOS),34.98,-78.88,33,16,25,30,30,14,'KFAY 041653Z 31014G22KT 10SM FEW050 01/M10 A2984 RMK AO2 PK WND 32026/1611 SLP099 T00061100'
20180104,1700,DMH,BALTIMORE_SCIENCE_CNTR_(ASOS),39.28,-76.61,25,,,,,15,'KDMH 041654Z AUTO M04/M09 A2960 RMK AO1 SLP022 T10391094'
20180104,1700,CCO,NEWNAN_COWETA_ARPT,33.31,-84.77,32,13,21,,21,4,'KCCO 041735Z AUTO 31009G17KT 10SM CLR 01/M17 A3009 RMK AO2 T00051167'
20180104,1700,FQD,RUTHERFORDTON,35.43,-81.94,29,16,23,,23,2,'KFQD 041645Z AUTO 01014G20KT 10SM CLR M01/M16 A2992 RMK AO2 T10151165'
20180104,1700,JYM,HILLSDALE,41.92,-84.59,14,15,24,,24,1,'KJYM 041735Z AUTO 31020G26KT 5SM HZ BKN031 M10/M17 A3006 RMK AO2'
20180104,1700,MNN,MARION_(ASOS),40.62,-83.06,11,18,23,,23,1,'KMNN 041653Z AUTO 33016G20KT 10SM OVC033 M12/M17 A3009 RMK AO2 SLP209 T11171172'
20180104,1700,SFQ,SUFFOLK,36.68,-76.60,26,18,26,,26,20,'KSFQ 041735Z AUTO 32017G23KT 4SM HZ SCT014 BKN021 OVC047 M02/M06 A2972 RMK AO2 T10251062'
20180104,1700,OEO,OSCEOLA,45.31,-92.69,-7,0,,,,-12,'KOEO 041735Z AUTO 00000KT 1SM HZ OVC003 M20/M24 A3045 RMK AO2 T12041237'
20180104,1700,ETB,WEST_BEND,43.42,-88.13,5,14,17,,17,-6,'KETB 041735Z AUTO 33010KT 10SM CLR M14/M21 A3027 RMK AO2'
20180104,1700,DNN,DALTON_MUNI_AIRPORT,34.72,-84.87,27,15,22,,22,12,'KDNN 041735Z AUTO 33014G19KT 10SM CLR M02/M12 A3015 RMK AO2'
20180104,1700,CPK,CHESAPEAKE,36.66,-76.32,25,21,28,,28,21,'KCPK 041735Z AUTO 30017G27KT SCT020 BKN027 OVC048 M03/M08 A2969 RMK AO2 T10351076 PWINO'
20180104,1700,CJR,CULPEPER,38.53,-77.86,27,17,28,,28,5,'KCJR 041735Z AUTO 31016G32KT 10SM OVC048 M03/M16 A2973 RMK AO2 T10301159'
20180104,1700,EET,SHELBY_COUNTY_ARPT_(ASOS),33.17,-86.77,32,13,17,,17,10,'KEET 041653Z AUTO 35011G15KT 10SM CLR 00/M12 A3022 RMK AO2 SLP237 T00001122'
20180104,1700,ISQ,MANISTIQUE,45.97,-86.17,5,10,20,,20,-5,'KISQ 041735Z AUTO 36009KT 10SM SCT027 BKN034 BKN043 M15/M21 A3023 RMK AO2 T11481212'
20180104,1700,OWD,NORWOOD_MEMORIAL_ARPT_(ASOS),42.18,-71.17,29,15,25,,25,26,'KOWD 041735Z 34009G23KT 1/4SM SN FZFG VV005 M01/M03 A2910 RMK AO2 SNEMMB21 PRESFR P0006 T10111028 $'
20180104,1700,GEZ,SHELBYVILLE_MUNI_ARPT_(ASOS),39.65,-85.80,10,8,,,,2,'KGEZ 041653Z AUTO 31007KT 10SM CLR M12/M17 A3022 RMK AO2 SLP249 T11221167'
20180104,1700,BUY,BURLINGTON-ALAMANCE_REG_(ASOS),36.03,-79.47,33,20,28,33,33,7,'KBUY 041654Z AUTO 29017G24KT 10SM CLR 01/M14 RMK AO2 PK WND 28029/1629 SLPNO T00061139'
20180104,1700,MEB,LAURINBURG-MAXTON_ARPT_(ASOS),34.78,-79.37,33,17,28,,28,15,'KMEB 041652Z AUTO 32015G24KT 10SM CLR 01/M09 A2987 RMK AO2 SLP115 T00061094'
20180104,1700,BYH,EAKER_AFB,35.97,-89.95,19,13,22,,22,5,'KBYH 041650Z 02011G19KT 10SM SKC M07/M15 A3043'
20180104,1700,CWF,CHENAULT_AIRPARK,30.22,-93.15,41,13,,,,21,'KCWF 041645Z 09011KT 10SM SKC 05/M06 A3040'
20180104,1700,PMP,POMPANO_BEACH_(ASOS),26.25,-80.11,54,20,,,,32,'KPMP 041653Z 32017KT 10SM CLR 12/00 A3014 RMK AO2 SLP207 T01220000'
20180104,1700,AAF,APALACHICOLA_MUNI_(ASOS),29.73,-85.03,42,13,,,,13,'KAAF 041653Z AUTO 32011KT 10SM CLR 06/M11 A3021 RMK AO2 SLP229 T00561106'
20180104,1700,GNA,GRAND_MARAIS_(ASOS),47.75,-90.35,-1,0,,,,-14,'KGNA 041656Z AUTO 00000KT M18/M26 A3042 RMK AO1 SLP332 T11831256'
20180104,1700,12N,ANDOVER/AEROFLEX_ARPT_(ASOS),41.00,-74.73,20,8,20,,20,16,'K12N 041654Z AUTO 35007G17KT 330V030 M07/M09 A2944 RMK AO1 SLP984 P0004 T10671089'
20180104,1700,OQT,OAK_RIDGE_(ASOS),36.02,-84.23,21,3,,,,7,'KOQT 041653Z AUTO VRB03KT 10SM OVC038 M06/M14 A3016 RMK AO2 SLP236 T10611139'
20180104,1700,MTP,MONTAUK_AIRPORT_(ASOS),41.07,-71.92,34,25,38,43,43,31,'KMTP 041654Z AUTO 35022G33KT 01/M01 A2901 RMK AO1 PK WND 01037/1619 SLP822 P0008 T00111006'
20180104,1700,LBT,LUMBERTON_MUNI_AIRPORT_(ASOS),34.61,-79.06,32,14,,,,14,'KLBT 041654Z AUTO 32012KT 10SM CLR 00/M10 A2986 RMK AO2 SLP111 T00001100'
20180104,1700,ASX,KENNEDY_MEMORIAL_AIRPORT_(ASOS),46.54,-90.92,2,9,,,,-5,'KASX 041653Z AUTO 32008KT 10SM OVC022 M17/M21 A3039 RMK AO2 SLP317 T11671206'
20180104,1700,CUB,COLUMBIA_OWENS_AIRPORT_(ASOS),33.97,-80.99,37,12,22,,22,9,'KCUB 041653Z AUTO 28010G19KT 10SM CLR 03/M13 A2994 RMK AO2 SLP137 T00281128'
20180104,1700,MQE,MILTON_(ASOS),42.22,-71.12,27,,,,,25,'KMQE 041656Z AUTO M03/M04 A2908 RMK AO1 PRESFR SLP865 P0033 T10281039'
20180104,1700,1V4,ST._JOHNSBURY_(ASOS),44.42,-72.02,10,,,,,8,'K1V4 041654Z AUTO M12/M13 A2958 RMK AO1 PRESFR SLP040 P0006 T11221133'
20180104,1700,SVH,STATESVILLE,35.76,-80.96,28,17,25,,25,-7,'KSVH 041645Z AUTO 31015G22KT 10SM CLR M02/M21 A2989 RMK AO2 T10231215'
20180104,1700,WWD,WILDWOOD(AWOS),39.02,-74.92,25,21,30,35,35,21,'KWWD 041711Z AUTO 31018G30KT 1/2SM SN FZFG OVC009 M04/M06 A2937 RMK AO2 PK WND 31030/1702 CIG 007V013 P0000 FZRANO TSNO'
20180104,1700,DDH,MORSE_STATE_AIRPORT_(ASOS),42.89,-73.24,18,6,,,,12,'KDDH 041729Z AUTO 31007KT 1SM -SN VV018 M08/M11 A2944 RMK AO2 P0000 T10831111'
20180104,1700,HZY,ASHTABULA_COUNTY_AIRPORT_(ASOS),41.77,-80.69,13,14,22,,22,8,'KHZY 041737Z AUTO 32014G21KT 3SM -SN BKN016 OVC024 M11/M14 A2995 RMK AO2 P0000 T11061139'
20180104,1700,UZA,ROCK_HILL-YORK_CNTY_ARPT_(ASOS),34.98,-81.05,34,13,23,,23,5,'KUZA 041654Z AUTO 31011G20KT 10SM -RA CLR 01/M15 A2990 RMK AO2 UPE1555RAB1555 SLP138 P0000 T00111150'
20180104,1700,VTA,NEWARK-HEATH_AIRPORT_(ASOS),40.02,-82.46,13,15,,,,4,'KVTA 041725Z AUTO 31014G23KT 10SM BKN029 OVC035 M11/M17 A3006 RMK AO2 T11061167'
20180104,1700,ASD,SLIDELL_(ASOS),30.35,-89.82,40,9,,,,14,'KASD 041653Z AUTO 31008KT 10SM CLR 04/M10 A3035 RMK AO2 SLP278 T00441100'
20180104,1700,ROS,RUSH_CITY,45.70,-92.95,-8,0,,,,-12,'KROS 041735Z AUTO 00000KT 10SM SCT100 M22/M24 A3042 RMK AO2 T12171245'
20180104,1700,BPK,BAXTER_COUNTY_ARPT_(ASOS),36.37,-92.47,23,5,,,,5,'KBPK 041653Z AUTO VRB04KT 10SM CLR M05/M15 A3039 RMK AO2 SLP301 T10501150'
20180104,1700,LLQ,MONTICELLO_ARPT_(ASOS),33.64,-91.75,34,6,,,,12,'KLLQ 041653Z AUTO VRB05KT 10SM CLR 01/M11 A3041 RMK AO2 SLP299 T00111111'
20180104,1700,HKA,BLYTHEVILLE_ARPT_(ASOS),35.94,-89.83,21,13,,,,7,'KHKA 041653Z AUTO 01011KT 10SM CLR M06/M14 A3043 RMK AO2 SLP310 T10611139 $'
20180104,1700,CHO,CHARLOTTESVILLE_APRT_(ASOS),38.14,-78.45,27,10,30,33,33,2,'KCHO 041653Z 34009G26KT 10SM OVC055 M03/M17 A2975 RMK AO2 PK WND 32029/1637 SLP079 T10281167'
20180104,1700,DPL,KENANSVILLE/DUPLIN_COUNTY,35.00,-77.98,30,12,25,,25,12,'KDPL 041645Z AUTO 29010G22KT 10SM CLR M01/M11 A2981 RMK AO2'
20180104,1700,HFF,MACKALL_AAF,35.03,-79.50,30,14,22,,22,11,'KHFF 041726Z AUTO 32016G21KT 10SM -RASN CLR 00/M12 A2983 RMK AO2 SLP121 $'
20180104,1700,RUE,RUSSELLVILLE_MCPL_(ASOS),35.25,-93.09,31,6,,,,8,'KRUE 041653Z AUTO VRB05KT 10SM CLR M01/M13 A3041 RMK AO2 SLP300 T10061133'
20180104,1700,AKH,GASTONIA_MCPL_(ASOS),35.19,-81.15,34,14,21,,21,5,'KAKH 041654Z AUTO 29012G18KT 10SM CLR 01/M15 A2990 RMK AO2 SNB01E48 SLP132 P0000 T00111150'
20180104,1700,PSF,PITTSFIELD_MCPL_APRT_(ASOS),42.42,-73.29,18,9,23,,23,13,'KPSF 041654Z AUTO 31007KT 1/4SM SN FZFG VV008 M08/M11 A2939 RMK AO2 SLP976 P0004 T10831106'
20180104,1700,EQY,MONROE_AIRPORT_(ASOS),35.02,-80.62,33,17,31,31,31,5,'KEQY 041653Z AUTO 32015G27KT 10SM CLR 01/M15 A2988 RMK AO2 PK WND 31027/1647 SLP142 T00061150'
20180104,1700,OVS,BOSCOBEL_(ASOS),43.16,-90.68,5,0,,,,-3,'KOVS 041653Z AUTO 00000KT 10SM CLR M15/M19 A3039 RMK AO2 SLP313 T11501194'
20180104,1700,PTW,POTTSTOWN_LIMERICK_(ASOS),40.24,-75.55,21,18,31,31,31,16,'KPTW 041654Z AUTO 32016G27KT 1SM -SN FEW020 BKN030 OVC038 M06/M09 A2950 RMK AO2 PK WND 33027/1646 SLP991 P0000 T10611089'
20180104,1700,TKPK,GOLDEN_ROCK,17.30,-62.68,84,13,,,,73,'TKPK 041700Z 10011KT 9999 BKN020 29/23 Q1016'
20180104,1700,TKPN,CHARLESTOWN/NEWCAST,17.20,-62.58,84,15,,,,72,'TKPN 041700Z 11013KT 9999 FEW018 29/22 Q1016'
20180104,1700,HWO,NORTH_PERRY_ARPT_(ASOS),25.99,-80.24,55,18,23,,23,31,'KHWO 041653Z 33016G20KT 10SM CLR 13/M01 A3016 RMK AO2 SLP211 T01281006'
20180104,1700,AKR,AKRON_FULTON_INTL_ARPT_(ASOS),41.04,-81.46,13,16,23,,23,5,'KAKR 041716Z AUTO 32014KT 3SM -SN BKN021 BKN030 OVC043 M11/M16 A2998 RMK AO2 SNE07B11 P0000 T11061156 $'
20180104,1700,APG,PHILLIPS_AAF/ABERDN,39.47,-76.17,,,,31,31,-9999,'KAPG 041658Z AUTO 31011G20KT 10SM OVC060 M A2955 RMK AO2 PK WND 32027/01 SNE1558 SLPNO $'
20180104,1700,CDW,CALDWELL/ESSEX_CO_(ASOS),40.88,-74.28,22,10,25,,25,20,'KCDW 041653Z 35009G22KT 320V030 1/4SM SN FZFG VV006 M06/M07 A2938 RMK AO2 SLP956 P0002 T10561067'
20180104,1700,SAW,K._I._SAWYER_AFB,46.35,-87.40,3,13,,,,-2,'KSAW 041647Z 33011KT 1SM SN SCT008 SCT017 OVC035 M16/M19 A3021'
20180104,1700,SMQ,SOMERSET_AIRPORT_(ASOS),40.62,-74.67,22,21,37,43,43,19,'KSMQ 041731Z AUTO 34017G37KT 1/4SM SN FZFG VV017 M06/M07 A2936 RMK AO2 PK WND 33037/1726 P0001 T10561072'
20180104,1700,MRN,MORGANTON-LENOIR_AIRPORT,35.82,-81.61,26,23,28,,28,2,'KMRN 041645Z AUTO 31020G24KT 10SM CLR M03/M17 A2995 RMK AO2 T10321169'
20180104,1700,MWK,MOUNT_AIRY/SURRY_COUNTY_APRT,36.46,-80.55,26,15,21,,21,-3,'KMWK 041645Z AUTO 30013G18KT 280V350 10SM CLR M03/M19 A2987 RMK AO2 T10321195'
20180104,1700,OCW,WASHINGTON/WARREN_FIELD_APRT,35.57,-77.05,32,13,20,,20,13,'KOCW 041645Z AUTO 29011G17KT 10SM CLR 00/M11 A2976 RMK AO2 T10011107'
20180104,1700,P58,PORT_HOPE_(ASOS),44.02,-82.79,8,23,35,36,36,3,'KP58 041651Z AUTO 32020G30KT M13/M16 A3006 RMK AO1 PK WND 30031/1639 SLP199 T11331161'
20180104,1700,PDC,PRAIRIE_DU_CHIEN_MUNI_APRT,43.02,-91.12,2,3,,,,-9,'KPDC 041735Z AUTO 30005KT 10SM BKN100 M16/M22 A3039 RMK AO2 T11581217'
20180104,1700,VDI,VIDALIA_MUNI_APRT,32.19,-82.37,41,12,22,,22,14,'KVDI 041735Z AUTO 28012G20KT 10SM CLR 06/M10 A3002 RMK AO2'
20180104,1700,GEV,ASHE_COUNTY_ARPT,36.43,-81.42,11,21,38,,38,-3,'KGEV 041650Z AUTO 31018G33KT 10SM SCT022 OVC029 M12/M19 A2975 RMK AO2 T11181194'
20180104,1700,HBI,ASHEBORO_MUNI_ARPT,35.65,-79.90,29,17,31,,31,7,'KHBI 041700Z AUTO 33015G27KT 10SM CLR M02/M14 A2987 RMK AO2 T10191138'
20180104,1700,HRJ,ERWIN/HARNETT_COUNTY_ARPT,35.38,-78.73,32,10,18,,18,9,'KHRJ 041645Z AUTO 31009G16KT 10SM SCT050 00/M13 A2983 RMK AO2 T00001128'
20180104,1700,MMK,MERIDEN/MARKHAM_MUNI_(ASOS),41.51,-72.83,25,18,30,32,32,21,'KMMK 041722Z AUTO 34017G24KT 1/2SM SN FZFG VV008 M03/M05 A2919 RMK AO2 PK WND 01028/1656 P0003 T10331050'
20180104,1700,SRC,SEARCY_MUNI_AIRPORT,35.21,-91.74,29,10,,,,7,'KSRC 041656Z AUTO 02009KT 10SM CLR M02/M14 A3042 RMK AO2 SLP314 T10171139 FZRANO'
20180104,1700,IGX,WILLIAMS_AIRPORT_(ASOS),35.77,-79.06,29,17,29,32,32,5,'KIGX 041656Z AUTO 29015G25KT 10SM CLR M02/M15 A2982 RMK AO2 PK WND 27028/1636 SLP102 T10171150'
20180104,1700,DYL,DOYLESTOWN_AIRPORT_(ASOS),40.33,-75.12,21,16,37,30,37,17,'KDYL 041726Z AUTO 33014G25KT 1SM -SN BR VV015 M06/M08 A2940 RMK AO2 PK WND 32026/1703 P0000 T10611083'
20180104,1700,OXB,OCEAN_CITY_MUNI_(ASOS),38.31,-75.12,23,22,37,43,43,21,'KOXB 041737Z AUTO 31020G32KT 1/2SM FZFG VV015 M05/M06 A2942 RMK AO2 PK WND 31037/1724 T10501061 PWINO FZRANO'
20180104,1700,HWV,BROOKHAVEN_AIRPORT_(ASOS),40.82,-72.87,28,33,47,49,49,27,'KHWV 041656Z AUTO 34029G41KT 1/2SM FZFG VV009 M02/M03 A2910 RMK AO2 PK WND 36043/1623 SNEMM PRESFR SLP856 P0004 T10221028 PWINO FZRANO $'
20180104,1700,MPO,POCONO_MNTS_MUNIL_ARPT_(ASOS),41.14,-75.38,14,24,37,45,45,11,'KMPO 041735Z AUTO 31021G39KT 3/4SM -SN BR VV013 M09/M12 A2937 RMK AO2 PK WND 32039/1733 P0000 T10941117'
20180104,1700,LDM,LUDINGTON/MASON_APRT,43.96,-86.41,11,6,,,,8,'KLDM 041735Z AUTO 05005KT 3/4SM -SN BKN007 OVC014 M11/M13 A3019 RMK AO2 T11101130'
20180104,1700,LKU,LOUISA_COUNTY,38.01,-77.97,26,20,26,,26,6,'KLKU 041735Z AUTO 30016G21KT 10SM OVC050 M03/M15 A2976 RMK AO2 T10351147'
20180104,1700,MOP,MOUNT_PLEASANT_MUNI_APRT,43.62,-84.74,11,14,25,,25,-5,'KMOP 041735Z AUTO 35009G18KT 310V010 10SM SCT036 M12/M21 A3013 RMK AO2 T11171206'
20180104,1700,MZH,MOOSE_LAKE,46.42,-92.80,-8,0,,,,-17,'KMZH 041735Z AUTO 00000KT 10SM CLR M21/M27 A3038 RMK AO2'
20180104,1700,NSE,WHITING_FLD_NAS-N.,30.72,-87.02,38,9,18,,18,12,'KNSE 041656Z 31008G16KT 10SM FEW250 03/M11 A3026 RMK AO2 SLP237 FU DSNT NE T00331111 $'
20180104,1700,PGV,PITT-GREENVILLE_APRT,35.63,-77.40,32,10,17,,17,12,'KPGV 041650Z AUTO 31009G15KT 10SM CLR 00/M11 A2980 RMK AO2 P0002'
20180104,1700,RRL,MERRILL_MUNI_AIRPORT,45.18,-89.70,4,8,,,,-5,'KRRL 041735Z AUTO 02003KT 10SM OVC024 M15/M21 A3027 RMK AO2 T11501209'
20180104,1700,TOI,TROY_MUNICIPAL_(ASOS),31.87,-86.02,35,10,,,,10,'KTOI 041653Z AUTO 33009KT 10SM CLR 02/M12 A3021 RMK AO2 SLP231 T00171122'
20180104,1700,DAW,SKYHAVEN_AIRPORT_(ASOS),43.27,-70.92,23,17,28,33,33,22,'KDAW 041728Z AUTO 36016G29KT 1/2SM SN FZFG VV009 M04/M05 A2923 RMK AO2 PK WND 35029/1711 PRESFR P0000 T10441050 $'
20180104,1700,ELZ,WELLSVILLE_MUNI_AIRPORT_(ASOS),42.11,-77.98,16,15,,37,37,7,'KELZ 041725Z AUTO 33014G32KT 4SM UP SCT016 BKN026 OVC033 M10/M17 A2967 RMK AO2 PK WND 30032/1720 UPB24SNE20 P0000 T11001167'
20180104,1700,FIG,CLEARFIELD-LAWRENCE_ARPT_(ASOS),41.04,-78.41,18,14,,,,10,'KFIG 041722Z AUTO 32012G23KT 1/2SM SN BKN015 OVC025 M08/M12 A2971 RMK AO2 P0000T10831122'
20180104,1700,W99,GRANT_COUNTY_AIRPORT,38.98,-79.13,22,16,24,,24,5,'KW99 041710Z AUTO 32011G21KT 280V360 10SM SCT025 BKN034 OVC043 M06/M15 A2981 RMK AO2 T10591147'
20180104,1700,RUQ,ROWAN_COUNTY_AIRPORT,35.65,-80.52,29,12,22,,22,2,'KRUQ 041645Z AUTO 33010G19KT 300V360 10SM CLR M02/M16 A2988 RMK AO2 T10191165'
20180104,1700,DSV,DANSVILLE_MUNI_AIRPORT_(ASOS),42.57,-77.71,19,18,22,,22,8,'KDSV 041734Z AUTO 31013G22KT 10SM BKN030 OVC036 M07/M14 A2975 RMK AO2 T10721139'
20180104,1700,CEU,OCONEE_COUNTY_REGL_ARPT_(ASOS),34.67,-82.88,35,15,23,,23,1,'KCEU 041654Z AUTO 31013G20KT 10SM CLR 02/M17 A2993 RMK AO2 SLP142 T00171172'
20180104,1700,BVE,BOOTHVILLE_(ASOS),29.33,-89.40,41,9,,,,22,'KBVE 041651Z AUTO 34008KT 10SM CLR 05/M06 A3036 RMK AO2 SLP280 T00501056'
20180104,1700,VPC,CARTERSVILLE_AIRPORT_(ASOS),34.13,-84.85,29,7,,,,9,'KVPC 041653Z AUTO VRB06KT 10SM CLR M02/M13 A3013 RMK AO2 SLP206 T10171128'
20180104,1700,MRH,SMITH_FIELD/BEAUFORT_(ASOS),34.73,-76.66,31,18,28,30,30,21,'KMRH 041658Z AUTO 30016G24KT 10SM UP CLR M01/M06 A2978 RMK AO2 PK WND 29026/1621 SLP084 P0000 I1004 T10061061 TSNO'
20180104,1700,HBG,CHAIN_MUNICIPAL_AIRPORT_(ASOS),31.27,-89.26,37,,,,,16,'KHBG 041653Z AUTO 10SM CLR 03/M09 A3034 RMK AO2 SLP275 T00281089 $'
20180104,1700,EXX,LEXINGTON_DAVIDSON_COUNTY_AIRP,35.78,-80.30,30,7,18,,18,4,'KEXX 041645Z AUTO 29006G16KT 220V070 10SM CLR M01/M16 A2987 RMK AO2 T10111156'
20180104,1700,GRD,GREENWOOD_COUNTY_AIRPORT_(ASOS),34.25,-82.16,35,12,,,,10,'KGRD 041656Z AUTO 28010KT 10SM -RA CLR 02/M12 A2995 RMK AO2 UPE20RAB20 SLP149 P0000 T00171122'
20180104,1700,HKS,HAWKINS_FIELD_(ASOS),32.34,-90.22,34,10,,,,14,'KHKS 041653Z 31009KT 10SM CLR 01/M10 A3035 RMK AO2 SLP276 T00111100 $'
20180104,1700,IER,NATTCHITOCHES_REGIONAL_AIRPORT,31.74,-93.10,37,3,,,,19,'KIER 041735Z AUTO 01003KT 10SM CLR 05/M07 A3040 RMK AO2 T00521074'
20180104,1700,LGC,LA_GRANGE,33.00,-85.00,35,14,18,,18,9,'KLGC 041735Z AUTO 30015G19KT 10SM CLR 02/M13 A3012 RMK AO2 T00221134'
20180104,1700,OMH,ORANGE_COUNTY_AIRPORT,38.25,-78.05,27,21,25,,25,5,'KOMH 041735Z AUTO 33015G23KT 300V360 10SM BKN049 M03/M15 A2972 RMK AO2'
20180104,1700,TNB,WATAUGA_CNTY_HOSP_HELIP,36.20,-81.65,11,28,38,,38,1,'KTNB 041735Z AUTO 30022G31KT 3SM HZ M11/M17 A2977 RMK AO2 SKY OBSCURED T11101171'
20180104,1700,UDG,DARLINGTON,34.45,-79.88,35,16,22,,22,13,'KUDG 041656Z AUTO 29014G19KT 10SM CLR 02/M11 A2989 RMK AO2 SLP127 T00171106 FZRANO'
20180104,1700,AYS,WAYCROSS/WARE_CO.,31.25,-82.40,38,14,20,,20,13,'KAYS 041735Z AUTO 29008G19KT 10SM CLR 04/M11 A3006 RMK AO2 T00411114'
20180104,1700,FWN,SUSSEX_AIRPORT_(ASOS),41.18,-74.62,21,6,21,,21,16,'KFWN 041735Z AUTO 03006G19KT 1/2SM SN VV013 M06/M09 A2939 RMK AO2 P0000 T10611089'
20180104,1700,IPJ,LINCOLNTON,35.48,-81.16,30,12,21,,21,3,'KIPJ 041650Z AUTO 32010G18KT 290V360 10SM CLR M01/M16 A2990 RMK AO2 T10121160'
20180104,1700,JNX,SMITHFIELD,35.54,-78.38,32,8,23,,23,9,'KJNX 041700Z AUTO 32007G20KT 240V010 10SM CLR 00/M13 A2982 RMK AO2'
20180104,1700,LZU,LAWRENCEVILLE,33.98,-83.96,29,10,22,,22,8,'KLZU 041656Z 28009G19KT 250V320 10SM CLR M02/M13 A3004 RMK AO2 SLP181 T10171133 $'
20180104,1700,MHSC,SOTO_CANO_AB,14.38,-87.62,72,20,25,,25,63,'MHSC 041658Z AUTO 35017G22KT 9999 OVC060 22/17 A3016 RMK AO2 SLP189 T02200171 $'
20180104,1700,MSSA,SANTA_ANA/EL_PALMAR,13.98,-89.57,79,6,,,,55,'MSSA 041650Z 29005KT CAVOK 26/13 Q1022 A3020'
20180104,1700,MSSS,ILOPANGO/S.SALVADOR,13.70,-89.12,79,14,,,,55,'MSSS 041650Z 03012KT CAVOK 26/13 Q1019 A3010'
20180104,1700,OPN,THOMASTON,32.95,-84.27,34,10,,,,0,'KOPN 041715Z AUTO 31016G20KT 10SM CLR 01/M18 A3009 RMK AO2'
20180104,1700,RNH,NEW_RICHMOND,45.15,-92.54,-6,8,,,,-12,'KRNH 041735Z AUTO 01004KT 10SM CLR M20/M23 A3040 RMK AO2 T11981230'
20180104,1700,RYY,MARIETTA,34.01,-84.60,28,12,22,30,30,10,'KRYY 041648Z 29010G19KT 10SM CLR M02/M12 A3009 RMK AO2 PK WND 33026/1602 SLP914 T10221122'
20180104,1700,TDF,ROXBORO,36.28,-78.98,28,16,28,,28,3,'KTDF 041645Z AUTO 29014G24KT 10SM CLR M02/M16 A2982 RMK AO2'
20180104,1700,VUJ,ALBEMARLE,35.42,-80.15,31,12,23,,23,4,'KVUJ 041645Z AUTO 33010G20KT 10SM CLR 00/M16 A2991 RMK AO2 T10041156'
20180104,1700,WDR,WINDER,33.98,-83.67,34,15,20,,20,9,'KWDR 041735Z AUTO 30013G18KT 10SM CLR 01/M14 A3003 RMK AO1'
20180104,1700,WST,WESTERLY_STATE_ARPT_(ASOS),41.35,-71.80,30,24,37,38,38,30,'KWST 041653Z AUTO 35021G32KT 1/4SM SN FZFG VV007 M01/M01 A2903 RMK AO2 PK WND 01033/1606 SNEMMB43 SLP831 P0003 T10111011 $'
20180104,1700,BCT,BOCA_RATON_AIRPORT,26.38,-80.11,52,18,,,,27,'KBCT 041648Z 32016KT 10SM CLR 11/-3 A3015'
20180104,1700,BUU,BURLINGTON_MUNI_ARPT,42.68,-88.30,6,8,,,,-7,'KBUU 041735Z AUTO 34010KT 10SM CLR M14/M21 A3029 RMK AO2 T11401211'
20180104,1700,CKV,CLARKSVILLE/OUTLAW_FIELD,36.62,-87.42,16,10,,,,2,'KCKV 041652Z AUTO 34009KT 10SM CLR M09/M17 A3034 RMK AO2 SLP283 T10891167'
20180104,1700,CMY,MCCOY_(USA-AF),43.97,-90.73,1,5,,,,-6,'KCMY 041735Z AUTO 31004KT 10SM CLR M15/M20 A3038 RMK AO2 T11541201'
20180104,1700,CVX,CHARLEVOIX_MUNI_AIRPORT,45.30,-85.27,1,14,20,,20,-6,'KCVX 041735Z AUTO 01010G16KT 340V060 5SM HZ BKN017 OVC023 M17/M20 A3025 RMK AO2T11701203'
20180104,1700,HYX,SAGINAW_CNTY_HW_BROWNE_AIRPORT,43.43,-83.86,5,13,18,,18,-6,'KHYX 041735Z AUTO 34012KT 10SM CLR M14/M21 A3013 RMK AO2'
20180104,1700,ISM,KISSIMMEE_MUNI_AIRPORT,28.29,-81.44,48,14,,,,25,'KISM 041656Z 28012KT 10SM CLR 09/M04 A3015 RMK AO2 SLP213 T00891039'
20180104,1700,JQF,CONCORD,35.38,-80.71,34,20,28,,28,3,'KJQF 041650Z 33017G24KT 10SM CLR 01/M16 A2992'
20180104,1700,MDLR,LA_ROMANA_INTL_ARPT,18.42,-68.95,86,14,,,,75,'MDLR 041700Z 18012KT 9999 SCT022 SCT300 30/24 Q1015'
20180104,1700,OLV,OLIVE_BRANCH_AIRPORT,34.98,-89.79,21,10,,,,5,'KOLV 041650Z 01009KT 10SM SKC M06/M15 A3038'
20180104,1700,RZN,SIREN/BURNETT_CTY_ARPT,45.82,-92.37,-5,0,,,,-10,'KRZN 041715Z AUTO 00000KT 10SM OVC008 M20/M23 A3041 RMK AO2 T12021227'
20180104,1700,SUA,STUART/WITHAM_FIELD_AIRPORT,27.18,-80.22,52,9,18,,18,28,'KSUA 041647Z 30008G16KT 7SM SKC 11/M02 A3016'
20180104,1700,TTA,SANFORD-LEE_COUNTY_RGNL_AIRPORT,35.58,-79.10,29,20,28,,28,8,'KTTA 041650Z AUTO 31017G24KT 10SM -RA CLR M01/M13 A2984 RMK AO2 T10151135'
20180104,1700,VDF,TAMPA/VANDENBURG_AIRPORT,28.02,-82.35,52,8,20,,20,34,'KVDF 041735Z AUTO 30009G18KT 10SM SCT040 12/01 A3016 RMK AO2'
20180104,1700,VQQ,CECIL_FIELD_NAS,30.22,-81.88,43,15,,,,18,'KVQQ 041650Z 30013KT 10SM CLR 06/M08 A3009'
20180104,1700,VVG,THE_VILLAGES,28.96,-81.97,45,13,20,,20,19,'KVVG 041710Z AUTO 13011G17KT 10SM 08/M07 A3004 RMK A01'
20180104,1700,CTZ,CLINTON,34.98,-78.37,32,12,24,,24,12,'KCTZ 041645Z AUTO 30010G21KT 260V330 10SM CLR 00/M11 A2983 RMK AO2 T00001109'
20180104,1700,IKK,KANKAKEE,41.06,-87.85,4,10,,,,-6,'KIKK 041735Z AUTO 30010KT 10SM CLR M15/M21 A3030 RMK AO2 T11511208'
20180104,1700,TBR,STATESBORO,32.48,-81.73,38,15,22,,22,8,'KTBR 041735Z AUTO 29013G22KT 10SM CLR 05/M14 A2999 RMK AO2 T00461137'
20180104,1700,1H2,EFFINGHAM,39.07,-88.53,11,8,,,,1,'K1H2 041735Z AUTO 32009G15KT 10SM CLR M11/M17 A3036 RMK AO2 T11061175'
20180104,1700,AAA,LINCOLN/LOGAN_CO,40.16,-89.33,3,6,,,,-5,'KAAA 041735Z AUTO 31005KT 10SM CLR M15/M20 A3038 RMK AO2 T11551201'
20180104,1700,C09,MORRIS,41.43,-88.42,2,10,,,,-7,'KC09 041735Z AUTO 31008KT 10SM CLR M16/M21 A3031 RMK AO2 T11601208'
20180104,1700,C75,LACON/MARSHALL_CO,41.02,-89.39,1,6,,,,-8,'KC75 041715Z AUTO 32004KT 10SM CLR M16/M22 A3038 RMK AO2 T11651218'
20180104,1700,DKB,DE_KALB,41.93,-88.72,0,9,,,,-7,'KDKB 041735Z AUTO 32006KT 10SM CLR M17/M21 A3030 RMK AO2 T11691211'
20180104,1700,DNV,DANVILLE/VERMILION,40.20,-87.60,1,12,,,,-7,'KDNV 041735Z AUTO 30008KT 10SM CLR M16/M21 A3027 RMK AO2 T11651209'
20180104,1700,ENL,CENTRALIA,38.52,-89.08,12,12,,,,1,'KENL 041735Z AUTO 30010KT 10SM CLR M10/M17 A3038 RMK AO2 T11031174'
20180104,1700,FDK,FREDERICK_MUNI_APT,39.41,-77.37,27,23,35,,35,9,'KFDK 041647Z 34020G30KT 10SM OVC040 M03/M13 A2971'
20180104,1700,FEP,FREEPORT,42.25,-89.58,1,7,,,,-7,'KFEP 041735Z AUTO 32005KT 10SM CLR M16/M21 A3035 RMK AO2 T11601210'
20180104,1700,FOA,FLORA,38.67,-88.45,13,13,16,,16,1,'KFOA 041735Z AUTO 32009KT 10SM CLR M10/M18 A3037 RMK AO2 T10971176'
20180104,1700,FWC,FAIRFIELD,38.38,-88.42,13,6,,,,1,'KFWC 041735Z AUTO 32004KT 10SM CLR M09/M17 A3036 RMK AO1 T10951175'
20180104,1700,GBG,GALESBURG,40.94,-90.43,1,0,,,,-5,'KGBG 041735Z AUTO 28004KT 10SM OVC120 M16/M20 A3039 RMK AO2 T11631199'
20180104,1700,HSB,HARRISBURG,37.82,-88.55,13,5,,,,2,'KHSB 041735Z AUTO 32009KT 10SM CLR M09/M17 A3040 RMK AO2 T10921169'
20180104,1700,IGQ,CHICAGO_(LANSING),41.54,-87.53,10,10,,,,1,'KIGQ 041735Z AUTO 31009KT 10SM CLR M12/M17 A3027 RMK AO2 T11161174'
20180104,1700,IJX,JACKSONVILLE,39.78,-90.23,5,5,,,,-4,'KIJX 041735Z AUTO 30005KT 10SM BKN120 M14/M19 A3040 RMK AO2 T11371194'
20180104,1700,JOT,JOLIET_PARK_DISTRICT,41.52,-88.18,6,5,,,,-4,'KJOT 041735Z AUTO 30006KT 10SM CLR M14/M20 A3031 RMK AO2 T11371200'
20180104,1700,LOT,CHICAGO/ROMEOVILLE,41.61,-88.09,6,10,,,,-4,'KLOT 041735Z AUTO 32008KT 10SM CLR M14/M20 A3029 RMK AO2 T11381197'
20180104,1700,MQB,MACOMB,40.52,-90.65,2,8,,,,-4,'KMQB 041735Z AUTO 33006KT 10SM OVC120 M16/M19 A3042 RMK AO2 T11581194'
20180104,1700,MSAC,ACAJUTLA/SONSONATE,13.57,-89.83,88,5,,,,66,'MSAC 041650Z 25004KT CAVOK 31/19 Q1010 A2983'
20180104,1700,NAK,ANNAPOLIS,38.98,-76.48,26,24,38,,38,18,'KNAK 041734Z AUTO 31018G29KT 1 1/2SM -SN BKN028 OVC034 M04/M07 A2959 RMK AO2 PKWND 30031/1701 SNB1655 P0000 T10391072 $'
20180104,1700,OLY,OLNEY-NOBLE,38.73,-88.18,12,8,,,,-3,'KOLY 041735Z AUTO 32011G16KT 10SM CLR M10/M20 A3036 RMK AO2 T11011197'
20180104,1700,PNT,PONTIAC,40.92,-88.63,1,10,,,,-6,'KPNT 041735Z AUTO 30008KT 10SM CLR M17/M21 A3034 RMK AO2 T11681206'
20180104,1700,PPQ,PITTSFIELD,39.63,-90.78,8,3,,,,-1,'KPPQ 041735Z AUTO 32007KT 10SM OVC120 M12/M19 A3040 RMK AO2 T11251186'
20180104,1700,PRG,PARIS,39.70,-87.67,2,9,,,,-4,'KPRG 041735Z AUTO 29010KT 7SM CLR M16/M20 A3032 RMK AO2 T11581196'
20180104,1700,SAR,SPARTA,38.15,-89.70,12,3,,,,2,'KSAR 041735Z AUTO 30005KT 10SM CLR M11/M17 A3040 RMK AO2 T11061169'
20180104,1700,SJX,BEAVER_ISLAND,45.69,-85.57,2,13,18,,18,-9,'KSJX 041735Z AUTO 02010G15KT 10SM BKN024 M16/M22 A3023 RMK AO2 T11631221'
20180104,1700,SLO,SALEM-LECKRONE,38.65,-88.97,12,8,,,,0,'KSLO 041735Z AUTO 32010G15KT 10SM CLR M10/M18 A3037 RMK AO2 T10981180'
20180104,1700,SUT,SOUTHPORT/BRUNSWICK,33.93,-78.07,33,7,,,,19,'KSUT 041645Z AUTO 30006KT 10SM CLR 01/M07 A2985 RMK AO2 T00051075'
20180104,1700,TAZ,TAYLORVILLE,39.53,-89.33,7,8,,,,-3,'KTAZ 041735Z AUTO 33009KT 10SM CLR M13/M19 A3037 RMK AO2 T11301194'
20180104,1700,TIP,RANTOUL/FRANK_ELLIOT_FLD,40.29,-88.14,2,12,,,,-6,'KTIP 041735Z AUTO 30012KT 10SM CLR M16/M20 A3031 RMK AO2 T11591199'
20180104,1700,TNCE,FDR_ARPT/ORANJESTAD,17.48,-62.98,84,12,,,,73,'TNCE 041655Z AUTO 11010KT 060V160 //// // ///////// 29/23 Q1016 RE//'
20180104,1700,VYS,PERU,41.35,-89.15,-1,7,,,,-9,'KVYS 041735Z AUTO 31009KT 10SM CLR M18/M22 A3036 RMK AO2 T11771222'
20180104,1700,KACQ,WASECA_MUNI_AIRPORT,44.07,-93.55,3,0,,,,-6,'KACQ 041735Z AUTO 00000KT 10SM OVC080 M16/M21 A3038 RMK AO2'
20180104,1700,DUH,TOLEDO_SUBURBAN_ARPT,41.74,-83.66,12,7,17,,17,1,'KDUH 041735Z AUTO 33009G15KT 10SM OVC034 M11/M17 RMK AO2 T11131171'
20180104,1700,FPK,FITCH_BEACH_AIRPORT,42.57,-84.81,13,12,20,,20,1,'KFPK 041735Z AUTO 34009KT 7SM SCT035 M11/M18 A3010 RMK AO2 T11081182'
20180104,1700,GOV,GRAYLING_AAF_AIRPORT,44.68,-84.73,-1,13,17,,17,-13,'KGOV 041735Z AUTO 32013G17KT 10SM CLR M18/M25 A3014 RMK AO2 T11841251'
20180104,1700,HDC,HAMMOND_MUNI_ARPT,30.52,-90.42,37,3,,,,18,'KHDC 041735Z AUTO 02005KT 10SM CLR 05/M08 A3035 RMK AO2'
20180104,1700,MGN,HARBOR_SPRINGS_AIRPORT,45.43,-84.91,-3,9,,,,-15,'KMGN 041735Z AUTO 34008KT 10SM CLR M18/M26 A3022 RMK AO2 T11901264'
20180104,1700,MHNO,GUANAJA,16.47,-86.07,70,23,,,,-9999,'MHNO 041700Z 35020KT 9999 SCT040 21//5 HZ'
20180104,1700,MTPP,PORT-AU-PRINCE_ARPT,18.57,-72.30,81,6,,,,73,'MTPP 041700Z 08005KT 9000 SCT020 OVC050 27/23 Q1014 A2996'
20180104,1700,MUCF,CIENFUEGOS(CIV/MIL),22.15,-80.40,73,10,,,,61,'MUCF 041650Z 01009KT 9999 BKN020 23/16 Q1019'
20180104,1700,RPJ,ROCHELLE_MUNI_ARPT/KORITZ_FIELD,41.89,-89.08,1,9,,,,-7,'KRPJ 041735Z AUTO 32008KT 10SM CLR M17/M21 A3033 RMK AO2 T11661211'
20180104,1700,TUPJ,BEEF_ISL/ROADTOWN,18.45,-64.53,84,9,,,,72,'TUPJ 041700Z 18008KT 9999 SCT019 29/22 Q1016 RMK A3001'
20180104,1700,BGE,BAINBRIDGE/DECATUR_CO_INDUS,30.97,-84.64,41,9,16,,16,19,'KBGE 041735Z AUTO 30010G16KT 10SM CLR 06/M07 A3017 RMK AO2'
20180104,1700,CPC,COLUMBUS_CNTY_MUNI_ARPT,34.27,-78.71,33,7,17,,17,11,'KCPC 041645Z AUTO 29006G15KT 10SM CLR 01/M12 A2986 RMK AO2 T00081119'
20180104,1700,EMV,EMPORIA-GREENSVILLE_RGNL_ARPT,36.69,-77.48,30,15,24,,24,10,'KEMV 041735Z AUTO 29011G17KT 10SM OVC049 M01/M12 A2975 RMK AO2'
20180104,1700,FKA,PRESTON/FILLMORE_CO_ARPT,43.68,-92.18,-1,5,,,,-7,'KFKA 041735Z AUTO 36004KT 10SM OVC090 M18/M21 A3034 RMK AO2 T11771215'
20180104,1700,GWW,GOLDSBORO-WAYNE_MUNI_ARPT,35.46,-77.96,31,14,21,,21,11,'KGWW 041650Z AUTO 29012G18KT 10SM CLR M01/M11 A2980 RMK AO2 T10071115'
20180104,1700,HNZ,HENDERSON-OXFORD_ARPT,36.36,-78.53,26,15,24,,24,2,'KHNZ 041645Z AUTO 33013G21KT 290V350 10SM CLR M03/M17 A2978 RMK AO2 T10311168'
20180104,1700,MDQ,MADISON_CNTY_EXEC_ARPT,34.86,-86.56,23,14,,,,7,'KMDQ 041735Z AUTO 35013G19KT 10SM CLR M05/M15 A3025 RMK AO2'
20180104,1700,MPZ,MOUNT_PLEASANT_MUNI_AIRPORT,40.95,-91.51,5,5,,,,-6,'KMPZ 041735Z AUTO 32005KT 10SM SCT095 OVC120 M14/M20 A3041 RMK AO2'
20180104,1700,OKK,KOKOMO(AWOS),40.53,-86.07,13,10,,,,3,'KOKK 041656Z AUTO 28009KT 10SM BKN046 M11/M16 A3022 RMK AO2 SLP252 T11061161 FZRANO'
20180104,1700,PEA,PELLA_MUNI_AIRPORT,41.40,-92.95,6,0,,,,-4,'KPEA 041735Z AUTO 00000KT 10SM CLR M14/M20 A3041 RMK AO2 T11401198'
20180104,1700,SLH,CHEBOYGAN_CNTY_ARPT,45.65,-84.52,-5,10,16,,16,-13,'KSLH 041735Z AUTO 33013G18KT 10SM CLR M20/M26 A3021 RMK AO2 T12001259'
20180104,1700,MSSM,SAN_MIGUEL/PAPALON,13.45,-88.12,88,3,,,,57,'MSSM 041650Z 02003KT CAVOK 31/14 Q1013 A2993'
20180104,1700,AWM,WEST_MEMPHIS_MUNI,35.13,-90.23,22,16,22,,22,9,'KAWM 041653Z AUTO 03014G19KT 10SM CLR M06/M13 A3041 RMK AO2 SLP300 T10561128'
20180104,1700,IIB,INDEPENDENCE_MUNICIPAL_AIRPORT,42.45,-91.95,3,3,,,,-6,'KIIB 041735Z AUTO 32004KT 10SM OVC110 M15/M20 A3038 RMK AO2 T11551205'
20180104,1700,LOM,PHILADELPHIA/WINGS_FIELD,40.14,-75.27,21,14,28,,28,18,'KLOM 041735Z AUTO 32009G21KT 300V010 1SM OVC010 M06/M07 A2944 RMK AO1'
20180104,1700,VTI,VINTON_VETERANS_MEMORIAL_AIRPARK,42.22,-92.03,4,0,,,,-5,'KVTI 041735Z AUTO 00000KT CLR M15/M20 A3040 RMK AO2 T11461203 PWINO'
20180104,1700,ALX,ALEXANDER_CITY,32.90,-85.95,32,16,21,,21,14,'KALX 041735Z AUTO 34007KT 310V020 10SM CLR 00/M10 A3016 RMK AO2 T00001098'
20180104,1700,JGG,WILLIAMSBURG,37.23,-76.72,25,21,28,,28,19,'KJGG 041735Z AUTO 32019G28KT 1SM VV007 M04/M07 A2969 RMK AO1'
20180104,1700,LHZ,LOUISBURG/FRANKLIN_CNTY_ARPT,36.02,-78.33,30,10,23,,23,7,'KLHZ 041645Z AUTO 33009G20KT 300V360 10SM CLR M01/M14 A2981 RMK AO2'
20180104,1700,NEL,LAKEHURST_NAS,40.03,-74.35,23,13,28,30,30,21,'KNEL 041700Z AUTO 32011G24KT 1/4SM FZFG VV006 M05/M06 A2927 RMK AO2 PK WND 33026/1618 SLP911 T10501061 PWINO FZRANO PNO $'
20180104,1700,ONZ,DETROIT/GROSSE_ILE,42.10,-83.16,11,16,,,,1,'KONZ 041735Z AUTO 33012G21KT 10SM OVC031 M12/M18 A3009 RMK AO2 T11201180'
20180104,1700,W22,BUCKHANNON,39.00,-80.27,14,8,15,,15,7,'KW22 041735Z AUTO VRB05G11KT 3SM -SN BKN023 BKN030 OVC035 M10/M14 A2987 RMK AO2'
20180104,1700,MWCB,GERRARD_SMITH,19.68,-79.88,79,12,,,,64,'MWCB 041700Z 01010KT 9999 FEW018 26/18 Q1017'
20180104,1700,HQU,THOMSON,33.53,-82.52,35,16,24,,24,8,'KHQU 041735Z AUTO 35014G22KT 10SM CLR 02/M14 A3003 RMK AO2 T00221136'
20180104,1700,RHP,ANDREWS-MURPHY_AIRPORT,35.19,-83.86,25,12,18,,18,7,'KRHP 041645Z AUTO 35010G16KT 320V020 10SM SCT039 M04/M14 A3001 RMK AO2 T10411140'
20180104,1700,ASW,WARSAW_MUNI,41.27,-85.83,14,7,,,,7,'KASW 041735Z AUTO 29005KT 2 1/2SM -SN SCT018 OVC025 M10/M13 A3017 RMK AO2'
20180104,1700,MUCC,CANAGUA,22.47,-78.33,72,16,,,,59,'MUCC 041652Z 01014KT 9000 SCT020 22/15 Q1018'
20180104,1700,1A5,FRANKLIN,35.22,-83.42,24,12,29,,29,4,'K1A5 041645Z AUTO 31010G25KT 280V340 10SM CLR M04/M16 A2994 RMK AO2 T10441158'
20180104,1700,CUL,CARMI_MUNI_ARPT,38.09,-88.12,13,12,16,,16,2,'KCUL 041735Z AUTO 30013KT 10SM CLR M10/M17 A3037 RMK AO2 T10971169'
20180104,1700,DQH,DOUGLAS_MUNI_ARPT,31.48,-82.86,37,14,22,,22,12,'KDQH 041735Z AUTO 28013G17KT 10SM CLR 04/M11 A3008 RMK AO2'
20180104,1700,EHO,SHELBY_MUNI_ARPT,35.25,-81.60,30,18,26,,26,2,'KEHO 041645Z AUTO 34016G23KT 10SM CLR M01/M17 A2992 RMK AO2 T10131167'
20180104,1700,FYJ,WEST_POINT,37.52,-76.76,24,15,32,,32,19,'KFYJ 041735Z AUTO 30014G21KT 2 1/2SM SCT009 BKN015 OVC021 M04/M07 A2970 RMK AO2T10441073'
20180104,1700,HZX,MC_GREGOR,46.62,-93.31,-8,0,,,,-13,'KHZX 041735Z AUTO 33003KT 10SM CLR M20/M23 A3038 RMK AO2'
20180104,1700,JYL,SYLVANIA,32.65,-81.60,38,17,24,,24,18,'KJYL 041715Z AUTO 30011KT 10SM CLR 04/M08 A2999 RMK AO2 T00391082'
20180104,1700,LUM,MENOMONIE,44.89,-91.86,-1,3,,,,-8,'KLUM 041735Z AUTO 00000KT 10SM CLR M17/M22 A3040 RMK AO2 T11731217'
20180104,1700,MBPV,PROVIDENCIALES,21.77,-72.27,75,10,,,,-9999,'MBPV 041700Z 33009KT 9000 SCT012 BKN030 24/// Q1015'
20180104,1700,MDBH,BARAHONA,18.22,-71.10,77,0,,,,75,'MDBH 041700Z 00000KT 8000 -RA BKN016 BKN300 25/24 Q1016'
20180104,1700,MGR,MOULTRIE,31.08,-83.80,37,10,18,,18,14,'KMGR 041715Z AUTO 27009G18KT 10SM CLR 03/M10 A3013 RMK AO2'
20180104,1700,RMN,STAFFORD,38.40,-77.46,25,28,38,,38,15,'KRMN 041735Z AUTO 32019G33KT 7SM BKN026 OVC034 M04/M10 A2974 RMK AO2 T10361104'
20180104,1700,RSV,ROBINSON_MUNI_ARPT,39.02,-87.65,10,12,17,,17,1,'KRSV 041735Z AUTO 34009KT 10SM CLR M11/M17 A3035 RMK AO2 T11081167'
20180104,1700,SFY,SAVANNA/TRI-TOWNSHIP_ARPT,42.05,-90.11,4,0,,,,-6,'KSFY 041735Z AUTO 29006KT 10SM CLR M15/M21 A3037 RMK AO2 T11481207'
20180104,1700,TLPC,CASTRIES/VIGIE,14.02,-61.00,84,8,,,,70,'TLPC 041700Z 11007KT 9999 FEW032 29/21 Q1015 NOSIG'
20180104,1700,TLPL,HEWANORRA_INTL_ARPT,13.75,-60.95,84,12,,,,72,'TLPL 041700Z 11010KT 9999 FEW029 29/22 Q1015 NOSIG'
20180104,1700,UKT,QUAKERTOWN_ARPT,40.44,-75.38,21,15,25,,25,18,'KUKT 041735Z AUTO 34014G25KT 1/2SM OVC001 M06/M08 A2944 RMK AO1'
20180104,1700,4A9,FORT_PAYNE,34.47,-85.72,25,,,,,3,'K4A9 041735Z AUTO 00000KT 10SM CLR M02/M17 A3016 RMK AO2'
20180104,1700,M30,METROPOLIS_MUNICIPAL_ARPT,37.19,-88.75,15,7,,,,1,'KM30 041735Z AUTO 35008KT 10SM CLR M08/M17 A3038 RMK AO2 T10821172'
20180104,1700,AJG,MOUNT_CARMEL,38.61,-87.73,12,12,16,,16,0,'KAJG 041735Z AUTO 32010KT 290V350 10SM CLR M10/M17 A3035 RMK AO2 T10991175'
20180104,1700,1P1,PLYMOUTH,43.78,-71.75,18,9,,,,16,'K1P1 041735Z AUTO 29009KT 3/4SM -SN OVC005 M07/M08 A2941 RMK AO2 T10701080'
20180104,1700,CIR,CAIRO,37.06,-89.22,15,5,,,,2,'KCIR 041735Z AUTO 31005KT 10SM CLR M08/M17 A3039 RMK AO2 T10841169'
20180104,1700,EZM,EASTMAN,32.21,-83.13,40,14,20,,20,-13,'KEZM 041715Z AUTO 30013G20KT 10SM CLR 04/M26 A3009 RMK AO2 T00431265'
20180104,1700,FKS,FRANKFORT,44.63,-86.20,12,14,21,,21,4,'KFKS 041735Z AUTO 35010G15KT 4SM HZ SCT013 BKN028 OVC037 M11/M17 A3020 RMK AO2 T11121167'
20180104,1700,HSA,BAY_ST._LOUIS,30.37,-89.45,39,7,,,,16,'KHSA 041650Z 34006KT 10SM CLR 04/M09 A3035'
20180104,1700,I16,PINEVILLE,37.60,-81.56,16,,,,,6,'KI16 041735Z AUTO 4SM -SN M09/M14 A3000 RMK AO2 T10921141'
20180104,1700,HXD,HILTON_HEAD_(AWOS),32.22,-80.70,32,0,,,,21,'KHXD 041650Z 00000KT 10SM SKC 00/M06 A2998 RMK HXD AIRPORT CLOSED. NOTAM 01/009.'
20180104,1700,LNL,LAND_O_LAKES,46.15,-89.21,2,9,,,,-6,'KLNL 041735Z AUTO 01007KT 7SM OVC024 M16/M21 A3023 RMK AO2 T11631209'
20180104,1700,PCZ,WAUPACA,44.33,-89.01,9,6,,,,-4,'KPCZ 041735Z AUTO 31006KT 10SM CLR M12/M21 A3031 RMK AO2 T11211206'
20180104,1700,RCX,LADYSMITH,45.50,-91.00,0,6,,,,-4,'KRCX 041735Z AUTO 33003KT 10SM OVC020 M17/M20 A3034 RMK AO2 T11661197'
20180104,1700,7N0,N.O_DOWNTOWN_HELIPORT,29.95,-90.08,40,6,,,,16,'K7N0 041656Z AUTO VRB05KT 10SM CLR 04/M09 A3037 RMK AO2 SLP283 T00441089'
20180104,1700,RME,GRIFFISS_AFB/ROME,43.23,-75.40,16,7,,,,13,'KRME 041728Z 31005KT 2SM -SN BR BKN030 OVC036 M08/M10 A2967 RMK AO2 P0000 T10831100'
20180104,1700,CGS,COLLEGE_PARK,39.00,-76.92,23,16,25,,25,14,'KCGS 041646Z AUTO 24014G22KT 3SM BKN014 OVC020 M05/M10 A2965 RMK AO1 T10501098'
20180104,1700,GAI,GAITHERSBURG,39.17,-77.17,23,23,33,33,33,12,'KGAI 041656Z AUTO 31020G29KT 9SM -SN FEW024 OVC029 M05/M11 A2963 RMK AO2 PK WND 30029/1656 SLP065 P0000 T10501111 FZRANO'
20180104,1700,2W6,LEONARDTOWN,38.30,-76.55,23,12,26,,26,18,'K2W6 041646Z AUTO 29010G23KT 2 1/2SM SCT019 BKN026 OVC038 M05/M08 A2963 RMK AO1'
20180104,1700,FME,ODENTON/TIPTON,39.06,-76.69,25,22,29,,29,18,'KFME 041645Z AUTO 31019G25KT 4SM SCT023 BKN030 OVC035 M04/M08 A2965 RMK AO1'
20180104,1700,2G4,ACCIDENT/OAKLAND,39.63,-79.32,9,13,24,,24,3,'K2G4 041655Z AUTO 30011G21KT 3/4SM OVC005 M13/M16 A2964 RMK AO1'
20180104,1700,CGE,CAMBRIDGE,38.56,-76.07,25,21,40,,40,18,'KCGE 041645Z AUTO 32018G35KT 1 1/2SM HZ SCT021 SCT029 M04/M08 A2955 RMK A01'
20180104,1700,ESN,EASTON,38.80,-76.07,27,32,39,,39,16,'KESN 041659Z 32028G34KT 2 1/2SM -SN OVC007 M03/M09 A2958'
20180104,1700,W29,STEVENSVILLE,38.97,-76.34,25,,,,,16,'KW29 041645Z AUTO 1 3/4SM -SN SCT029 BKN060 OVC070 M04/M09 A2959 RMK AO2 VIS 1V4'
20180104,1700,CBE,CUMBERLAND,39.62,-78.77,,9,22,,22,-9999,'KCBE 041646Z AUTO 32008G19KT 291V351 10SM SCT007 BKN012 BKN017 A2986 RMK AO1'
20180104,1700,3I2,POINT_PLEASANT,38.85,-82.12,19,12,18,,18,7,'K3I2 041735Z AUTO 27009G15KT 240V310 10SM SCT002 BKN009 BKN036 M07/M14 A3009 RMK AO2 T10741137'
20180104,1700,DBN,DUBLIN,32.54,-82.89,37,14,17,,17,9,'KDBN 041735Z AUTO 30011G20KT 10SM CLR 03/M14 A3006 RMK AO2'
20180104,1700,3J7,GREENSBORO,33.56,-83.08,34,12,21,,21,10,'K3J7 041735Z AUTO 28008G15KT 250V310 10SM CLR 02/M12 A2997 RMK AO2'
20180104,1700,MLJ,MILLEDGEVILLE,33.05,-83.23,37,16,23,,23,12,'KMLJ 041735Z AUTO 33010G19KT 300V020 10SM CLR 03/M12 A3004 RMK AO2'
20180104,1700,BQP,BASTROP,32.78,-91.90,36,7,,,,13,'KBQP 041735Z AUTO 34003KT 10SM CLR 03/M11 A3040 RMK AO2 T00341106'
20180104,1700,DRI,DE_RIDDER,30.83,-93.28,40,5,,,,15,'KDRI 041735Z AUTO 00000KT 10SM CLR 06/M10 A3039 RMK AO2 T00551099'
20180104,1700,GAO,GALLIANO,29.43,-90.29,42,5,,,,15,'KGAO 041735Z AUTO 34005KT 10SM CLR 06/M09 A3035 RMK AO2 T00601088'
20180104,1700,ACP,OAKDALE,30.82,-92.67,41,5,,,,16,'KACP 041735Z AUTO 35003KT 10SM CLR 06/M09 A3038 RMK AO2 T00611089'
20180104,1700,UTA,TUNICA,34.68,-90.35,27,13,21,,21,9,'KUTA 041735Z AUTO 01009KT 10SM M03/M13 A3041 RMK AO2 TSNO'
20180104,1700,8A0,ALBERTVILLE,34.26,-86.20,23,10,20,,20,12,'K8A0 041735Z AUTO 34011G18KT 10SM CLR M04/M12 A3017 RMK AO2'
20180104,1700,JKA,GULF_SHORES,30.29,-87.67,39,7,,,,13,'KJKA 041735Z AUTO 31008KT 10SM CLR 05/M11 A3026 RMK AO2 T00501112'
20180104,1700,1M4,HALEYVILLE,34.23,-87.63,25,9,,,,9,'K1M4 041656Z AUTO 33008KT 300V040 10SM CLR M04/M13 A3027 RMK AO2 SLP276 T10391128'
20180104,1700,M19,NEWPORT,35.60,-91.28,23,9,,,,8,'KVLL 041655Z AUTO 32014G19KT 7SM BKN028 M12/M19 A3011 RMK AO2 T11251187'
20180104,1700,GYH,GREENVILLE,34.76,-82.38,34,5,,,,5,'KGYH 041647Z 25004KT 10SM SKC 01/M15 A2992'
20180104,1700,GLW,GLASGOW,36.98,-85.90,19,8,,,,4,'KGLW 041715Z AUTO 32005KT 10SM CLR M07/M16 A3026 RMK AO2 T10741158'
20180104,1700,1A6,MIDDLESBORO,36.61,-83.71,19,9,20,,20,9,'K1A6 041735Z AUTO 36007KT 10SM BKN031 OVC039 M07/M13 A3013 RMK AO2 T10711134'
20180104,1700,EKQ,MONTICELLO,36.87,-84.83,18,15,20,,20,7,'KEKQ 041656Z AUTO 02013G17KT 10SM BKN024 M08/M14 A3023 RMK AO2 SLP265 T10781139'
20180104,1700,UNI,ALBANY,39.20,-82.22,17,12,21,,21,8,'KUNI 041735Z AUTO 30010G17KT 10SM SCT015 SCT020 OVC035 M09/M15 A3007 RMK AO2 T10861148'
20180104,1700,4I3,MOUNT_VERNON,40.33,-82.52,12,16,24,,24,3,'K4I3 041735Z AUTO 31014G21KT 10SM OVC028 M11/M16 A3004 RMK AO2'
20180104,1700,SGH,SPRINGFIELD,39.94,-83.81,13,17,,,,4,'KSGH 041656Z AUTO 32015KT 10SM OVC040 M11/M16 A3012 RMK AO2 SLP221 T11061156'
20180104,1700,CFS,CARO,43.45,-83.40,3,16,,,,-7,'KCFS 041735Z AUTO 34011KT 10SM CLR M16/M21 A3012 RMK AO2 T11621215'
20180104,1700,DRM,DRUMMOND_ISLAND,46.01,-83.74,-10,6,,,,-20,'KDRM 041735Z AUTO 35006KT 10SM CLR M23/M29 A3020 RMK AO2 T12271287'
20180104,1700,RNP,OWOSSO,42.93,-84.16,9,10,16,,16,-1,'KRNP 041735Z AUTO 34009KT 10SM SCT029 OVC035 M13/M19 A3012 RMK AO2 T11261192'
20180104,1700,PZQ,ROGERS/PRESQUE_ISLE,45.42,-83.80,0,13,20,,20,-6,'KPZQ 041735Z AUTO 35009G18KT 1SM -SN OVC016 M18/M21 A3018 RMK AO2 T11801212'
20180104,1700,LWA,SOUTH_HAVEN,42.35,-86.25,15,7,,,,9,'KLWA 041735Z AUTO 04006KT 1 1/4SM -SN OVC007 M09/M12 A3017 RMK AO2 T10951124'
20180104,1700,HAI,THREE_RIVERS,41.94,-85.62,16,9,,,,5,'KHAI 041735Z AUTO 36008KT 10SM SCT038 SCT044 BKN050 M08/M15 A3015 RMK AO2 T10841149'
20180104,1700,VLL,TROY/OAKLAND,42.58,-83.13,10,16,22,,22,-2,'KVLL 041735Z AUTO 31016G22KT 10SM SCT030 M13/M20 A3011 RMK AO2 T11271204'
20180104,1700,MJX,TOMS_RIVER,39.93,-74.18,23,24,33,38,38,21,'KMJX 041736Z AUTO 32020G27KT 1/4SM +SN FZFG OVC007 M05/M06 A2926 RMK AO2 PK WND33033/1658 CIG 003V010 P0000 FZRANO'
20180104,1700,KGBK,MAGNOLIA_(AWOS-3),27.20,-92.20,54,0,15,,15,36,'KGBK 041735Z AUTO VRB06G12KT 10SM BKN037 13/03 A3034 RMK A01'
20180104,1700,KSPR,SHIP_SHOAL_(AWOS-3),28.60,-91.21,43,14,,,,21,'KSPR 041735Z AUTO 02009KT 10SM CLR 06/M06 A3035 RMK A01'
20180104,1700,KGUL,GUNNISON_(AWOS-3),27.30,-93.53,57,0,,,,37,'KGUL 041735Z AUTO 00000KT 10SM FEW041 15/03 A3035 RMK A01'
20180104,1700,KDLP,WEST_DELTA_(AWOS-3),29.12,-89.55,39,12,,,,19,'KDLP 041735Z AUTO 36012KT 10SM CLR 04/M07 A3033 RMK A01'
20180104,1700,KEHC,EAST_CAMERON_(AWOS-3),28.43,-92.88,57,6,,,,39,'KEHC 041735Z AUTO 07005KT 10SM CLR 13/01 A3034 RMK A01'
20180104,1700,KSCF,SOUTH_MARSH_(AWOS-3),29.12,-91.87,41,10,,,,21,'KSCF 041735Z AUTO 08008KT 10SM CLR 05/M07 A3038 RMK A01'
20180104,1700,KEIR,EUGENE_ISLAND_(AWOS-3),28.63,-91.49,43,12,17,,17,21,'KEIR 041735Z AUTO 08009KT 10SM 05/M06 A3037 RMK A01'
20180104,1700,KATP,GREEN_CANYON_787_(AWOS-3),27.20,-90.03,54,13,20,,20,37,'KATP 041735Z AUTO 35011G17KT 10SM BKN035 12/03 A3030 RMK A01'
