YMD,HHNN,STN,ID,LAT,LON,TMPF,SUSMPH,GUSTMPH,PKWNDMPH,MAXMPH,DWPF,'RAWOB'
20180104,1600,CAHR,HARRINGTON_CDA_CS,46.35,-63.17,33,20,29,33,33,29,'CAHR 041600Z AUTO 11017G25KT 01/M02 RMK AO1 PRESFR SOG 06 8069 PK WND 12029/1546 SLP137 T00051015 50002'
20180104,1600,CTCK,MOOSE_CREEK,45.25,-74.97,15,2,,,,11,'CTCK 041600Z AUTO 04002KT M10/M11 RMK AO1 SOG 27 6019 SLP104 T10971114'
20180104,1600,CWAF,ILE_ROUGE(MAPS),48.08,-69.55,19,10,,,,16,'CWAF 041600Z AUTO 06009KT M07/M09 RMK AO1 T10721091'
20180104,1600,CWAJ,ERIEAU_(MAPS),42.25,-81.90,,,,,,-9999,'CWAJ 041600Z AUTO RMK AO1'
20180104,1600,CWBA,BARRAGE_TEMISCAMINGUE,46.71,-79.10,-7,15,23,23,23,-11,'CWBA 041600Z AUTO 34013G20KT M22/M24 RMK AO1 SOG 26 PK WND 35020/1552 T12161237'
20180104,1600,CWBE,KILLARNEY_(MAPS),45.97,-81.48,-8,13,20,23,23,-20,'CWBE 041600Z AUTO 36011G17KT M22/M29 RMK AO1 PK WND 02020/1546 SLP226 T12231287 50001'
20180104,1600,CWBS,LAC_ST_PIERRE,46.18,-72.92,17,14,,,,14,'CWBS 041600Z AUTO 04012KT M08/M10 RMK AO1 T10811099'
20180104,1600,CWBT,LONGUE_PT_DE_MONGUE,50.27,-64.23,18,8,,,,17,'CWBT 041600Z AUTO 06007KT M08/M08 RMK AO1 4PAST HR 8036 SLP209 P0005 T10761084 50024'
20180104,1600,CWBY,PORT_MENIER_(MARS),49.83,-64.30,23,10,,,,21,'CWBY 041600Z AUTO 09009KT M05/M06 RMK AO1 SOG 22 8035 SLP192 T10521062 50004'
20180104,1600,CWCJ,PUKASKWA_PARK,48.60,-86.30,-18,7,,,,-25,'CWCJ 041600Z AUTO 04006KT M28/M32 RMK AO1 SOG 22 0003 SLP308 T12761316'
20180104,1600,CWCO,COLLINGWOOD_(AUT8),44.50,-80.22,8,22,30,30,30,5,'CWCO 041600Z AUTO 33019G26KT M13/M15 RMK AO1 3PAST HR 8002 PK WND 32026/1546 SLP155 P0001 T11311148 50003'
20180104,1600,CWDQ,LA_TUQUE,47.42,-72.80,12,6,,,,9,'CWDQ 041600Z AUTO 34005KT M11/M13 RMK AO1 0PAST HR SOG 35 8019 SLP128 P0004 T11121129 50010'
20180104,1600,CWDT,CHUTE_DES_PASSES,49.83,-71.16,4,5,,,,-1,'CWDT 041600Z AUTO 10004KT M15/M18 RMK AO1 SLP168 T11531184 58014'
20180104,1600,CWDV,UPSALA_(MARS),49.03,-90.47,-20,2,,,,-26,'CWDV 041600Z AUTO 33002KT M29/M32 RMK AO1 7PAST HR SOG 21 3005 SLP332 P0003 T12891324 50007'
20180104,1600,CWEF,ST._PAUL_ISL(MAPS),47.23,-60.13,32,38,46,46,46,29,'CWEF 041600Z AUTO 12033G40KT 00/M02 RMK AO1 PRESFR PK WND 13040/1556 SLP198 T00001015 58075'
20180104,1600,CWEP,EAST_POINT_(MARS),46.45,-61.97,34,25,31,31,31,30,'CWEP 041600Z AUTO 11022G27KT 01/M01 RMK AO1 PRESFR SOG 05 6066 PK WND 11027/1558 SLP166 T00131013'
20180104,1600,CWER,ILE_D'ORLEANS(AUT),47.00,-70.82,,25,31,31,31,-9999,'CWER 041600Z AUTO 05022G27KT RMK AO1 PK WND 04027/1556'
20180104,1600,CWEW,L'ASSOMPTION,45.82,-73.43,15,7,,,,10,'CWEW 041600Z AUTO 02006KT M09/M12 RMK AO1 SOG 22 6033 SLP113 T10931124'
20180104,1600,CWFQ,FRELIGHSBURG,45.05,-72.83,18,5,,,,5,'CWFQ 041600Z AUTO 32004KT M08/M15 RMK AO1 SOG 19 8029 SLP071 T10801151'
20180104,1600,CWGD,GODERICH_(AUTO8),43.77,-81.72,10,16,23,24,24,6,'CWGD 041600Z AUTO 35014G20KT M12/M14 RMK AO1 SOG 07 0002 PK WND 01021/1500 SLP164 T11221142 50002'
20180104,1600,CWGL,LAGOON_CITY,44.53,-79.22,2,13,,21,21,-6,'CWGL 041600Z AUTO 33011KT M17/M21 RMK AO1 PK WND 33018/1540 SLP133 T11691209 55003'
20180104,1600,CWGR,ILES-DE-LA-MADELEINE,47.43,-61.76,31,25,31,33,33,27,'CWGR 041600Z AUTO 11022G27KT M00/M03 RMK AO1 2PAST HR PRESFR 8066 PK WND 11029/1533 SLP185 P0001 T10041026 50006'
20180104,1600,CWHP,HEATH_POINT_(MAPS),49.08,-61.70,30,24,30,30,30,26,'CWHP 041600Z AUTO 15021G26KT M01/M03 RMK AO1 PK WND 15026/1534 SLP218 T10111032 58042'
20180104,1600,CWHQ,DESCHAMBAULT,46.68,-71.96,17,5,,,,13,'CWHQ 041600Z AUTO 06004KT M08/M11 RMK AO1 T10831108'
20180104,1600,CWHV,BEAUCEVILLE,46.20,-70.78,9,0,,,,6,'CWHV 041600Z AUTO 00000KT M13/M15 RMK AO1 SLP096 T11281146 58041'
20180104,1600,CWIG,ILE_AUX_GRUES,47.07,-70.53,,18,,24,24,-9999,'CWIG 041600Z AUTO 05016KT RMK AO1 PK WND 05021/1551'
20180104,1600,CWIP,POINTE_NOIRE,50.17,-66.43,18,10,,,,-9999,'CWIP 041600Z AUTO 04009KT M08/ RMK AO1 T1080'
20180104,1600,CWIS,CHARLEVOIX_(MRX),47.28,-70.63,9,10,54,58,58,8,'CWIS 041600Z AUTO 02009G47KT M13/M14 RMK AO1 SOG 57 8031 PK WND 03050/1518 SLP108 T11291136'
20180104,1600,CWIT,ST._CLOTHILDE_(AUT),45.17,-73.68,15,5,,,,11,'CWIT 041600Z AUTO 36004KT M09/M12 RMK AO1 3PAST HR SOG 22 6027 SLP089 P0001 T10941115 50008'
20180104,1600,CWIX,MISTOOK_(AUT),48.60,-71.71,2,6,,,,-3,'CWIX 041600Z AUTO 24005KT M17/M20 RMK AO1 SLP145 T11661197 56019'
20180104,1600,CWIZ,L'ACADIE,45.30,-73.35,13,6,,,,7,'CWIZ 041600Z AUTO 36005KT M11/M14 RMK AO1 SOG 25 T11081141'
20180104,1600,CWJB,STE_FOY_CS,46.78,-71.28,18,10,,22,22,-9999,'CWJB 041600Z AUTO 04009KT M08/ RMK AO1 SOG 11 PK WND 04019/1531 T1082'
20180104,1600,CWJO,JONQUIERE(AUTO),48.41,-71.15,13,7,,,,7,'CWJO 041600Z AUTO 11006KT M10/M14 RMK AO1 SLP150 T11041139 58025'
20180104,1600,CWJT,ST_JOVITE_(AUTO8),46.07,-74.53,17,0,,,,13,'CWJT 041600Z AUTO 00000KT M09/M11 RMK AO1 SLP111 T10861108 58017'
20180104,1600,CWKG,KEJIMKUJIK_1,44.43,-65.20,36,13,23,26,26,35,'CWKG 041600Z AUTO 09011G20KT 02/02 RMK AO1 9PAST HR PRESFR SOG 07 8119 PK WND 09023/1507 SLP018 P0011 T00210015 50035'
20180104,1600,CWLS,MOUNT_FOREST,43.98,-80.75,2,10,,,,-2,'CWLS 041600Z AUTO 33009KT M16/M19 RMK AO1 SOG 24 8005 SLP151 T11641187'
20180104,1600,CWMJ,MANIWAKI,46.28,-76.00,15,2,,,,13,'CWMJ 041600Z AUTO 01002KT M09/M11 RMK AO1 SOG 24 5007 SLP113 T10931107'
20180104,1600,CWNC,COBOURG_(MARS),43.95,-78.17,14,8,,,,6,'CWNC 041600Z AUTO 34007KT M10/M14 RMK AO1 SOG 02 5002 SLP109 T10991144'
20180104,1600,CWNE,NORTH_CAPE,47.05,-64.00,,23,,26,26,-9999,'CWNE 041600Z AUTO 10020KT RMK AO1 PRESFR PK WND 10023/1555 58061'
20180104,1600,CWNH,RIVIERE_DU_LOUP,47.80,-69.55,12,3,,,,7,'CWNH 041600Z AUTO 01003KT M11/M14 RMK AO1 SOG 29 7036 SLP142 T11091140'
20180104,1600,CWNL,GREAT_DUCK_ISLAND,45.63,-82.97,-4,9,18,21,21,-11,'CWNL 041600Z AUTO 01008G16KT M20/M24 RMK AO1 PK WND 00018/1547 SLP233 T12011239 51008'
20180104,1600,CWNQ,NICOLET_(AUTO8),46.22,-72.65,17,8,,,,15,'CWNQ 041600Z AUTO 04007KT M08/M10 RMK AO1 SLP102 T10831095 56036'
20180104,1600,CWNZ,NAGAGAMI_(MARS),49.75,-84.16,-23,6,,,,-30,'CWNZ 041600Z AUTO 33005KT M31/M34 RMK AO1 SOG 30 0006 SLP307 T13051343'
20180104,1600,CWOC,NEW_CARLISLE1,48.02,-65.33,25,6,,,,22,'CWOC 041600Z AUTO 05005KT M04/M05 RMK AO1 PRESFR 8050 SLP164 T10391054 50010'
20180104,1600,CWOD,NORMANDIN,48.83,-72.55,3,5,,,,-2,'CWOD 041600Z AUTO 30004KT M16/M19 RMK AO1 SOG 19 8018 SLP138 T11601188'
20180104,1600,CWPC,PORT_COLBORNE(AUT),42.87,-79.25,17,16,,24,24,5,'CWPC 041600Z AUTO 34011G17KT M11/M17 RMK AO1 PK WND 34021/1512 SLP135 T11121168'
20180104,1600,CWPD,L'ETAPE,47.56,-71.23,9,2,,,,6,'CWPD 041600Z AUTO 03002KT M13/M15 RMK AO1 SLP110 T11291146 58028'
20180104,1600,CWPE,POINT_LEPREAU,45.06,-66.45,36,15,28,,28,35,'CWPE 041600Z AUTO 06013G24KT 02/01 RMK AO1 26 PRESFR SOG 06 8095 SLP045 T00200014'
20180104,1600,CWPK,PARENT_(MARS),47.92,-74.62,10,3,,,,5,'CWPK 041600Z AUTO 06003KT M12/M15 RMK AO1 3PAST HR SOG 38 6010 SLP122 P0001 T11211148 50008'
20180104,1600,CWPS,LONG_POINT_(MAPS),42.57,-80.05,13,30,,39,39,5,'CWPS 041600Z AUTO 27026KT M10/M15 RMK AO1 PK WND 28034/1515 SLP135 T11041151 55006'
20180104,1600,CWQH,LENNOXVILLE,45.37,-71.82,13,6,,,,8,'CWQH 041600Z AUTO 05005KT M10/M13 RMK AO1 SOG 23 T11031131'
20180104,1600,CWQO,ILE_BICQUETTE,48.41,-68.90,18,9,,,,12,'CWQO 041600Z AUTO 04008KT M08/M11 RMK AO1 T10781112'
20180104,1600,CWQP,POINT_PETRE_(MARS),43.83,-77.15,17,12,,,,12,'CWQP 041600Z AUTO 33010KT M08/M11 RMK AO1 SOG 19 8009 SLP099 T10811110 50006'
20180104,1600,CWQR,ICE_AUX_PERROQUETS,50.22,-64.22,21,24,30,31,31,-9999,'CWQR 041600Z AUTO 07021G26KT M06/ RMK AO1 PK WND 07027/1547 T1055'
20180104,1600,CWRK,BANCROFT_AUTO8,45.07,-77.87,8,8,,,,1,'CWRK 041600Z AUTO 04007KT M13/M17 RMK AO1 SOG 29 5000 SLP118 T11341170'
20180104,1600,CWRN,HART_ISLAND_(MAPS),45.35,-60.98,36,25,35,40,40,33,'CWRN 041600Z AUTO 09022G30KT 02/01 RMK AO1 PRESFR PK WND 09035/1530 SLP157 T00230008 58077'
20180104,1600,CWRZ,CAP_D'ESPOIR_(MAPS),48.42,-64.32,25,7,,,,26,'CWRZ 041600Z AUTO 01006KT M04/M04 RMK AO1 PRESFR SLP171 T10401035 58049'
20180104,1600,CWSA,SABLE_ISLAND,43.93,-60.01,41,29,38,,38,39,'CWSA 041640Z AUTO 10030G38KT 5SM -RA BR OVC025 06/04 A2980 RMK PRESFR TS/LTNG TEMPO UNAVBL SLP094'
20180104,1600,CWSD,SUMMERSIDE_(AUTO8),46.43,-63.83,33,15,,20,20,30,'CWSD 041600Z AUTO 10013KT 01/M01 RMK AO1 PRESFR SOG 03 8070 PK WND 09017/1550 SLP129 T00061009'
20180104,1600,CWSF,CAP_MADELEINE(MAPS),49.25,-65.33,23,12,,,,18,'CWSF 041600Z AUTO 10010KT M05/M08 RMK AO1 SOG 14 8037 SLP178 T10491076'
20180104,1600,CWSG,CAP_CHAT_(MAPS),49.11,-66.65,20,6,,,,17,'CWSG 041600Z AUTO 06005KT M07/M09 RMK AO1 SLP167 T10671086 58043'
20180104,1600,CWSS,ST._STEPHEN_(MARS),45.20,-67.25,28,10,17,21,21,26,'CWSS 041600Z AUTO 04009G15KT M02/M03 RMK AO1 3PAST HR PRESFR SOG 07 8083 PK WND 05018/1531 SLP052 P0001 T10221034 50003'
20180104,1600,CWST,LA_POCATIERE,47.35,-70.03,15,9,,,,8,'CWST 041600Z AUTO 04008KT M10/M14 RMK AO1 SOG 05 8037 SLP128 T10951136'
20180104,1600,CWTA,MC_TAVISH_(AUT),45.50,-73.58,14,6,,,,9,'CWTA 041600Z AUTO 01005KT M10/M13 RMK AO1 SOG 42 6034 SLP099 T11001126'
20180104,1600,CWTG,POINTE_DES_MONTS,49.32,-67.38,15,12,,,,11,'CWTG 041600Z AUTO 03010KT M10/M11 RMK AO1 SLP173 T10951114 58039'
20180104,1600,CWTN,CAP_TOURMENTE,47.07,-70.80,19,10,21,21,21,12,'CWTN 041600Z AUTO 09009G18KT M07/M11 RMK AO1 PK WND 09018/1557 SLP126 T10721113 58039'
20180104,1600,CWTY,TROIS_RIVIERES,46.35,-72.52,16,8,,,,15,'CWTY 041600Z AUTO 02007KT M09/M10 RMK AO1 SLP108 T10881096 56034'
20180104,1600,CWUX,LA_BAIE,48.30,-70.91,11,3,,,,6,'CWUX 041600Z AUTO 06003KT M12/M14 RMK AO1 SLP136 T11151143 58029'
20180104,1600,CWVU,BRIER_ISLAND,44.28,-66.34,38,25,33,37,37,36,'CWVU 041600Z AUTO 06022G29KT 03/02 RMK AO1 7PAST HR PRESFR 8119 PK WND 07032/1511 SLP008 P0003 T00330024 50007'
20180104,1600,CWWB,BURLINGTON_PIERS,43.30,-79.80,14,,,,,2,'CWWB 041600Z AUTO M10/M17 RMK AO1 17 5008 SLP141 T11021168'
20180104,1600,CWWE,WESTERN_HEAD_(MARS),43.98,-64.67,40,32,40,43,43,39,'CWWE 041600Z AUTO 08028G35KT 05/04 RMK AO1 4PAST HR PRESFR SOG 51 8125 PK WND 08037/1516 SLP007 P0009 T00450040 50024'
20180104,1600,CWWX,COVE_ISLAND_(MAPS),45.33,-81.73,1,21,26,28,28,-2,'CWWX 041600Z AUTO 05018G23KT M18/M19 RMK AO1 PK WND 05024/1542 SLP195 T11751190 51005'
20180104,1600,CWWZ,PORT_WELLER_(MARS),43.25,-79.22,19,21,28,29,29,12,'CWWZ 041600Z AUTO 32018G24KT M07/M11 RMK AO1 SOG 08 5005 PK WND 32025/1501 SLP134 T10711111'
20180104,1600,CWXC,ONATCHIWAY,48.88,-71.03,8,3,,,,4,'CWXC 041600Z AUTO 35003KT M13/M15 RMK AO1 6025 SLP132 T11321153 50002'
20180104,1600,CWZS,AMQUI,48.47,-67.43,8,2,,,,3,'CWZS 041600Z AUTO 15002KT M13/M16 RMK AO1 0PAST HR PRESFR 8052 SLP151 P0004 T11331161 50010'
20180104,1600,CXBO,BEAUPORT_CS,46.84,-71.20,,18,25,26,26,-9999,'CXBO 041600Z AUTO 07016G22KT RMK AO1 1PAST HR M PK WND 06023/1538 P0004 50011'
20180104,1600,CXCA,CAMERON_FALLS_(AUT),49.15,-88.35,-15,7,,,,-20,'CXCA 041600Z AUTO 36006KT M26/M29 RMK AO1 SOG 13 0000 SLP340 T12591289 50002'
20180104,1600,CXCH,CHETICAMP,46.65,-60.95,34,,,,,27,'CXCH 041600Z AUTO 01/M03 RMK AO1 SOG 24 T00091027'
20180104,1600,CXDI,DELHI_CS,42.87,-80.55,11,12,17,20,20,0,'CXDI 041600Z AUTO 33010G15KT M12/M18 RMK AO1 6006 PK WND 12017/1533 SLP147 T11151177 50002'
20180104,1600,CXEA,EAR_FALLS_(AUT),50.63,-93.21,-26,1,,,,-31,'CXEA 041600Z AUTO 19001KT M32/M35 RMK AO1 SOG 36 3009 SLP359 T13201350 50002'
20180104,1600,CXET,EGBERT_CS,44.23,-79.78,8,13,21,24,24,3,'CXET 041600Z AUTO 33011G18KT M14/M16 RMK AO1 SOG 13 5013 PK WND 30021/1513 SLP132 T11361161'
20180104,1600,CXHA,HARROW_CDA_AUTO,42.03,-82.90,11,7,,,,4,'CXHA 041600Z AUTO 36006KT M12/M16 RMK AO1 SOG 23 1008 SLP205 T11181158'
20180104,1600,CXIB,INGONISH_BEACH_CS,46.67,-60.40,34,7,17,22,22,27,'CXIB 041600Z AUTO 14006G15KT 01/M03 RMK AO1 PRESFR SOG 10 8063 PK WND 11019/1513 SLP217 T00091029'
20180104,1600,CXKA,KAPUKASING_CDA,49.41,-82.44,-22,6,,,,-28,'CXKA 041600Z AUTO 31005KT M30/M34 RMK AO1 2PAST HR SOG 18 0006 SLP295 P0001 T12981335 50004'
20180104,1600,CXKE,KEMPTVILLE_CS,45.00,-75.63,17,3,,,,13,'CXKE 041600Z AUTO 36003KT M09/M10 RMK AO1 SOG 22 6012 SLP098 T10861103'
20180104,1600,CXKI,KIRKLAND_LAKE_CS,48.15,-80.00,-17,,,,,-23,'CXKI 041600Z AUTO M27/M30 RMK AO1 SOG 23 0005 SLP235 T12711304'
20180104,1600,CXKT,KENTVILLE,45.07,-64.48,32,6,,,,32,'CXKT 041600Z AUTO 05005KT M00/M00 RMK AO1 6PAST HR PRESFR SOG 10 8100 SLP070 P0002 T10011001 50006'
20180104,1600,CXLB,LUNENBERG,44.35,-64.30,39,33,44,44,44,39,'CXLB 041600Z AUTO 06029G38KT 04/04 RMK AO1 PRESFR PK WND 06038/1557 SLP029 T00400040 58115'
20180104,1600,CXMY,MALAY_FALLS,44.98,-62.48,37,,,,,35,'CXMY 041600Z AUTO 03/02 RMK AO1 8PAST HR M P0007 T00260016 50018'
20180104,1600,CXNM,NORTH_MOUNTAIN,46.82,-60.67,26,14,24,26,26,26,'CXNM 041600Z AUTO 12012G21KT M04/M04 RMK AO1 8PAST HR SOG 64 M PK WND 11023/1549 P0003 T10361035 50014'
20180104,1600,CXNP,NAPPAN_AUTO,45.75,-64.23,31,8,,,,30,'CXNP 041600Z AUTO 07007KT M00/M01 RMK AO1 PRESFR SOG 09 8083 SLP109 T10041010'
20180104,1600,CXPC,PARRY_SOUND_CCG,45.34,-80.04,-1,,,,,-10,'CXPC 041600Z AUTO M19/M23 RMK AO1 SOG 28 8006 SLP156 T11851233'
20180104,1600,CXSH,SHAWINIGAN_CS,46.56,-72.73,15,6,,,,11,'CXSH 041600Z AUTO 05005KT M09/M12 RMK AO1 SLP109 T10921116 56030'
20180104,1600,CXTD,TRACADIE,45.61,-61.68,34,15,23,30,30,31,'CXTD 041600Z AUTO 09013G20KT 01/M00 RMK AO1 3PAST HR PRESFR SOG 00 8079 PK WND 10026/1514 SLP157 P0001 T00091003 50003'
20180104,1600,CXTO,TORONTO,43.67,-79.40,13,,,,,2,'CXTO 041600Z AUTO M11/M17 RMK AO1 SOG 10 5004 SLP131 T11061166'
20180104,1600,CXVN,VINELAND_STATION_RCS,43.18,-79.40,15,14,20,22,22,5,'CXVN 041600Z AUTO 33012G17KT M09/M15 RMK AO1 SOG 08 5005 PK WND 33019/1519 SLP132 T10931151'
20180104,1600,CXZV,SEPT-ILES,50.22,-66.25,12,7,,,,10,'CXZV 041600Z AUTO 03006KT M11/M12 RMK AO1 SOG 72 8036 SLP189 T11091122'
20180104,1600,CYAH,LA_GRANDE_IV_ARPT,53.76,-73.68,-27,0,,,,-33,'CYAH 041600Z AUTO 00000KT 9SM CLR M33/M36 A3011 RMK SLP251'
20180104,1600,CYAM,SAULT_STE_MARIE,46.48,-84.51,-11,7,,,,-24,'CYAM 041600Z 01006KT 320V030 15SM FEW025 M24/M31 A3027 RMK CU1 CU TR SLP274'
20180104,1600,CYBC,BAIE-COMEAU_AIRPORT,49.13,-68.20,18,12,,,,12,'CYBC 041640Z AUTO 08009G17KT 9SM -SN OVC012 M07/M10 A2998 RMK SLP156'
20180104,1600,CYBG,BAGOTVILLE(CAN-MIL),48.33,-71.00,12,9,,,,7,'CYBG 041600Z 09008KT 20SM BKN080 OVC120 M11/M14 A2991 RMK AC5AC3 SLP144'
20180104,1600,CYBN,BORDEN,44.27,-79.91,7,20,31,,31,1,'CYBN 041640Z AUTO 33013G22KT 300V360 2 1/2SM OVC016 OVC052 M14/M17 A2990 RMK VSBY VRBL 1.4V5.0'
20180104,1600,CYCX,GAGETOWN__(CAN-MIL),45.83,-66.43,25,8,,,,23,'CYCX 041625Z 05009KT 1 3/4SM -SN VV005 M03/M05 A2974 RMK SN8 DA-1785FT PRESFR SLP076'
20180104,1600,CYFC,FREDERICTON_AIRPORT,45.87,-66.53,25,8,,,,23,'CYFC 041633Z AUTO 03011KT 3/4SM R09/P6000FT/U -SN VV015 M03/M04 A2973 RMK PRESFR SLP072'
20180104,1600,CYGK,KINGSTON_ARPT_(MAN),44.22,-76.60,19,10,,,,12,'CYGK 041600Z 36009KT 15SM FEW055 BKN078 OVC250 M07/M11 A2980 RMK SC1AC6CI1 SLP099'
20180104,1600,CYGL,LA_GRANDE_RIVIERE,53.63,-77.70,-20,3,,,,-27,'CYGL 041600Z 01003KT 15SM IC FEW220 M29/M33 A3021 RMK CI1 SLP262'
20180104,1600,CYGP,GASPE_AIRPORT,48.78,-64.48,12,3,,,,9,'CYGP 041625Z 26003KT 3SM -SN OVC010 M10/M12 A3004 RMK SN2SC6 SLP178'
20180104,1600,CYGQ,GERALDTON_AIRPORT,49.78,-86.93,-22,5,,,,-27,'CYGQ 041600Z 34004KT 15SM FEW250 M30/M33 A3033 RMK CI2 SLP325'
20180104,1600,CYGR,ILES_DE_LA_MADELEINE,47.42,-61.78,32,25,33,,33,28,'CYGR 041600Z 11022G29KT 15SM -SN OVC038 M00/M02 A3009 RMK SC8 SLP191'
20180104,1600,CYGV,HAVRE_ST_PIERRE,50.28,-63.60,16,16,,,,14,'CYGV 041641Z AUTO 06013KT 1 3/4SM -SN OVC013 M08/M09 A3012 RMK PRESFR SLP206'
20180104,1600,CYHD,DRYDEN_AIRPORT,49.83,-92.75,-24,2,,,,-31,'CYHD 041613Z AUTO 00000KT 9SM BKN020 M30/M33 A3038 RMK SLP353'
20180104,1600,CYHM,HAMILTON_AIRPORT,43.17,-79.93,10,14,22,,22,0,'CYHM 041600Z 31012G19KT 15SM DRSN FEW018 FEW080 M12/M18 A2988 RMK CU1AC1 CU TR SLP138'
20180104,1600,CYHU,SAINT_HUBERT_ARPT,45.52,-73.42,12,9,,,,9,'CYHU 041600Z AUTO 36008KT 8SM OVC075 M11/M13 A2981 RMK PRESFR SLP100'
20180104,1600,CYHZ,HALIFAX_INTL_ARPT,44.88,-63.52,37,24,35,,35,36,'CYHZ 041600Z 10021G30KT 6SM -RA BR OVC010 03/02 A2974 RMK NS8 PRESFR SLP080'
20180104,1600,CYKF,WATERLOO_WELLINGTON_ARPT,43.46,-80.38,7,16,26,,26,0,'CYKF 041600Z AUTO 31014G23KT 9SM CLR M14/M18 A2988 RMK SLP143'
20180104,1600,CYKL,SCHEFFERVILLE_ARPT,54.80,-66.82,-17,2,,,,-22,'CYKL 041600Z AUTO VRB02KT 9SM FEW050 M27/M30 A3003 RMK PRESFR SLP241'
20180104,1600,CYKZ,TORONTO_BUTTONVILLE,43.87,-79.37,9,15,25,,25,1,'CYKZ 041623Z 34019KT 10SM IC -SHSN DRSN FEW013 FEW170 FEW260 M13/M18 A2988 RMK CU1AC1CI1 AC TR CU S - N SLP134'
20180104,1600,CYLD,CHAPLEAU_ARPT(SAWR),47.82,-83.35,-20,12,,,,-27,'CYLD 041600Z 01010KT 15SM FEW140 M29/M33 A3015 RMK AC1 ACSL ASOCTD SLP278'
20180104,1600,CYMO,MOOSONEE_A,51.28,-80.60,-11,8,,,,-17,'CYMO 041600Z AUTO 32007KT 9SM CLR M24/M27 A3034 RMK SLP276'
20180104,1600,CYMT,CHIBOUGAMAU-CHAPAIS,49.77,-74.53,-6,6,,,,-11,'CYMT 041600Z AUTO 35005KT 9SM CLR M21/M24 A2987 RMK SLP160'
20180104,1600,CYMX,MONTREAL/MIRABEL,45.67,-74.03,16,3,,,,10,'CYMX 041600Z 02003KT 350V060 15SM -SN FEW030 BKN052 OVC110 M09/M12 A2982 RMK SC2SC4AC2 SLP106'
20180104,1600,CYNA,NATASHQUAN_AIRPORT,50.18,-61.82,18,15,,,,16,'CYNA 041600Z AUTO 07011G16KT 9SM -SN SCT023 BKN027 OVC035 M08/M09 A3022 RMK SLP237'
20180104,1600,CYND,GATINEAU_AIRPORT,45.52,-75.57,16,3,,,,12,'CYND 041630Z 00000KT 3SM -SN OVC030 M09/M11 A2982 RMK SC8 PRESFR SLP103'
20180104,1600,CYNM,MATAGAMI_AIRPORT,49.77,-77.80,-17,12,,,,-20,'CYNM 041635Z AUTO 33010KT 7SM SCT035 M26/M29 A3004 RMK ICG SLP212'
20180104,1600,CYOW,OTTAWA_INTL_AIRPORT,45.32,-75.67,14,6,,,,10,'CYOW 041600Z 03005KT 4SM -SN SCT011 OVC028 M10/M12 A2982 RMK ST3SC5 SLP108'
20180104,1600,CYOY,VALCARTIER_AIRPORT,46.90,-71.50,14,0,,,,10,'CYOY 041600Z AUTO 00000KT 9SM FEW068 SCT081 BKN095 M10/M12 A2983 RMK SLP116'
20180104,1600,CYPL,PICKLE_LAKE(MAN),51.45,-90.22,-27,3,,,,-33,'CYPL 041600Z 30003KT 12SM IC FEW020 SCT200 M33/M36 A3036 RMK SC2CI1 SLP344'
20180104,1600,CYPQ,PETERBOROUGH_ARPT,44.23,-78.37,9,9,,,,3,'CYPQ 041613Z AUTO 30008KT 9SM -SN OVC038 M13/M16 A2985 RMK SLP123'
20180104,1600,CYQA,MUSKOKA_AIRPORT,44.97,-79.30,0,12,17,,17,-8,'CYQA 041635Z AUTO 34009KT 9SM M17/M21 A2988 RMK ICG CLD MISG SLP142'
20180104,1600,CYQB,QUEBEC_AIRPORT,46.80,-71.38,18,18,24,,24,12,'CYQB 041631Z 06019KT 30SM FEW015 OVC075 M08/M11 A2983 RMK SC1AC7 PRESFR SLP110'
20180104,1600,CYQG,WINDSOR_AIRPORT,42.27,-82.97,9,20,,,,-2,'CYQG 041600Z 34016KT 12SM BKN028 M13/M19 A3009 RMK CU6 SLP204'
20180104,1600,CYQI,YARMOUTH_AIRPORT,43.83,-66.09,39,25,37,,37,37,'CYQI 041624Z 08020G30KT 3SM -RA BR OVC009 04/03 A2934 RMK SF8 PRESFR SLP938'
20180104,1600,CYQM,MONCTON_AIRPORT,46.10,-64.69,28,13,18,,18,28,'CYQM 041631Z 07015G20KT 1SM R06/P6000FT/N R29/P6000FT/N -SN OVC004 M01/M02 A2979 RMK SF8 PRESFR SLP095'
20180104,1600,CYQT,THUNDER_BAY_AIRPORT,48.37,-89.33,-15,7,,,,-24,'CYQT 041600Z 27006KT 20SM SKC M26/M31 A3044 RMK SLP337'
20180104,1600,CYQY,SYDNEY_AIRPORT,46.17,-60.05,34,26,37,,37,28,'CYQY 041600Z 11023G32KT 10SM -SN BKN014 OVC036 01/M02 A3013 RMK SC7SC1 SN VRY LGT PRESFR SLP207'
20180104,1600,CYRJ,ROBERVAL_AIRPORT,48.52,-72.27,1,5,,,,-4,'CYRJ 041600Z 32004KT 3SM -SN OVC032 M17/M20 A2991 RMK SC8 SLP151'
20180104,1600,CYSB,SUDBURY_AIRPORT,46.62,-80.80,-13,20,26,,26,-22,'CYSB 041600Z 01017G23KT 20SM FEW036 SCT180 M25/M30 A3002 RMK SC1CI3 SLP206'
20180104,1600,CYSC,SHERBROOKE_AIRPORT,45.43,-71.68,12,7,,,,7,'CYSC 041600Z AUTO 06007KT 9SM SCT030 BKN036 BKN250 M11/M14 A2972 RMK SLP083'
20180104,1600,CYSJ,SAINT_JOHN_AIRPORT,45.30,-65.87,32,16,26,,26,32,'CYSJ 041600Z 08015G20KT 3/4SM R05/5000FT/N -SN DRSN VV006 00/M00 A2970 RMK SN8 PRESFR SLP065'
20180104,1600,CYSN,ST._CATHARINES_ARPT,43.20,-79.17,16,16,26,,26,7,'CYSN 041600Z 33014G23KT 15SM DRSN BKN020 BKN250 M09/M14 A2990 RMK SC6CI1 CI TR SLP134'
20180104,1600,CYTL,BIG_TROUT_LAKE,53.82,-89.90,-27,8,,,,-35,'CYTL 041622Z AUTO 31009KT 9SM CLR M33/M36 A3045 RMK SLP352'
20180104,1600,CYTR,TRENTON_(CAN-MIL),44.12,-77.53,18,7,,,,12,'CYTR 041600Z 36006KT 15SM FEW056 SCT074 OVC220 M08/M11 A2985 RMK SC2AC2CI5 SLP114'
20180104,1600,CYTS,TIMMINS_AIRPORT,48.57,-81.38,-20,5,,,,-27,'CYTS 041600Z 33004KT 290V040 15SM FEW010 FEW040 BKN060 M29/M33 A3018 RMK SF1SC1SC3 SLP264'
20180104,1600,CYTZ,TORONTO_IL_ARPT_AUT,43.63,-79.40,14,14,25,,25,1,'CYTZ 041600Z AUTO 32012G22KT 9SM CLR M10/M17 A2990 RMK SLP132'
20180104,1600,CYUL,MONTREAL/DORVAL,45.47,-73.75,14,12,,,,9,'CYUL 041600Z 02010KT 15SM BKN050 OVC080 M10/M13 A2982 RMK SC5AC3 PRESFR SLP103'
20180104,1600,CYUY,ROUYN_AIRPORT,48.22,-78.83,-13,15,,,,-20,'CYUY 041628Z 36011KT 6SM IC DRSN BKN270 M24/M28 A3004 RMK IC3CS4 SLP210'
20180104,1600,CYVO,VAL_D'OR_AIRPORT,48.05,-77.78,-8,16,22,,22,-15,'CYVO 041600Z 35014G19KT 10SM -SN SCT034 BKN260 M22/M26 A2994 RMK SC3CI3 SLP178'
20180104,1600,CYVV,WIARTON_AIRPORT,44.75,-81.10,3,10,17,,17,-2,'CYVV 041600Z 31009G15KT 270V020 5/8SM -SN BLSN BKN006 M16/M19 A2999 RMK SN2ST4 SLP175'
20180104,1600,CYWA,PETAWAWA_ARPT,45.95,-77.32,3,13,,,,-2,'CYWA 041600Z AUTO 30011KT 9SM BKN040 M16/M19 A2991 RMK SLP142'
20180104,1600,CYWK,WABUSH_LAKE_AIRPORT,52.93,-66.87,-15,0,,,,-22,'CYWK 041600Z 00000KT 4SM -SN BKN044 OVC055 M26/M30 A3002 RMK SC5SC3 SLP240'
20180104,1600,CYXL,SIOUX_LOOKOUT_ARPT,50.11,-91.90,-24,0,,,,-31,'CYXL 041600Z 00000KT 15SM IC BKN018 M31/M35 A3039 RMK ST7 SLP357'
20180104,1600,CYXR,EARLTON_AIRPORT,47.70,-79.85,-15,17,23,,23,-22,'CYXR 041600Z AUTO 33015G20KT 9SM SCT028 M26/M30 A3010 RMK ICG PRESFR SLP226'
20180104,1600,CYXU,LONDON_AIRPORT,43.03,-81.15,10,9,,,,0,'CYXU 041600Z 34008KT 15SM FEW040 M12/M18 A2995 RMK SC2 SLP163'
20180104,1600,CYXZ,WAWA_AIRPORT,47.97,-84.78,-18,5,,,,-27,'CYXZ 041600Z VRB04KT 15SM FEW025 M28/M33 A3028 RMK SC1 SC TR SLP295'
20180104,1600,CYYB,NORTH_BAY_AIRPORT,46.36,-79.42,-11,12,21,,21,-17,'CYYB 041600Z 36010G18KT 5SM IC BLSN BKN042 M24/M27 A2992 RMK IC2SC3 SLP169'
20180104,1600,CYYG,CHARLOTTETOWN_ARPT,46.29,-63.13,34,17,29,,29,30,'CYYG 041636Z 10017G29KT 2SM -SN DRSN OVC009 00/M01 A2988 RMK SC8 PRESFR SLP123'
20180104,1600,CYYR,GOOSE_BAY_AIRPORT,53.32,-60.42,7,8,,,,-4,'CYYR 041600Z 25007KT 15SM FEW030 SCT160 BKN250 M14/M20 A3031 RMK CF1AC3CS3 SLP269'
20180104,1600,CYYU,KAPUSKASING_AIRPORT,49.42,-82.47,-20,9,,,,-27,'CYYU 041600Z 33008KT 15SM FEW080 FEW250 M29/M33 A3028 RMK AC1CI1 AC TR SLP289'
20180104,1600,CYYY,MONT_JOLI_AIRPORT,48.60,-68.22,12,5,,,,7,'CYYY 041600Z 11004KT 15SM FEW032 OVC110 M11/M14 A2997 RMK SC2AC6 SLP154'
20180104,1600,CYYZ,TORONTO/PEARSON,43.67,-79.60,12,25,,,,0,'CYYZ 041600Z 34022KT 15SM FEW025 SCT230 M11/M18 A2988 RMK CU2CI1 SLP132'
20180104,1600,CYZE,GORE_BAY_AIRPORT,45.88,-82.57,-11,12,18,,18,-18,'CYZE 041600Z AUTO 36010G16KT 9SM BKN045 M24/M28 A3016 RMK SLP236'
20180104,1600,CYZR,SARNIA_AIRPORT,43.00,-82.31,7,16,29,,29,-2,'CYZR 041600Z AUTO 30014G25KT 9SM CLR M14/M19 A3005 RMK ICG SLP192'
20180104,1600,CYZV,SEPT-ILES_AIRPORT,50.22,-66.27,14,10,,,,9,'CYZV 041600Z 03009KT 15SM -SN BKN008 BKN016 OVC095 M10/M13 A3008 RMK SC6SC1AC1 PRESFR SLP192'
20180104,1600,CYZX,GREENWOOD_(CAN-MIL),44.98,-64.92,28,17,,,,28,'CYZX 041628Z 06019KT 3/8SM SN BKN005 OVC011 M02/M02 A2963 RMK SF7SF1 PRESFR WNDY HILL UNAVBL SLP034'
20180104,1600,CZBF,BATHURST_ARPT(AWRS),47.63,-65.75,19,5,,,,16,'CZBF 041600Z 35004KT 7SM -SG OVC010 M07/M09 A2997 RMK ST8 PRESFR SLP157'
20180104,1600,CZCR,CHARLO_AUTO,47.98,-66.33,18,6,,,,16,'CZCR 041600Z AUTO 10005KT M08/M09 RMK AO1 PRESFR SOG 28 8051 SLP161 T10761088'
20180104,1600,CZDB,DEBERT,45.42,-63.47,35,14,21,21,21,31,'CZDB 041600Z AUTO 08012G18KT 02/M00 RMK AO1 PRESFR SOG 03 8088 PK WND 08018/1550 SLP105 T00181003'
20180104,1600,CZTB,THUNDER_BAY,48.37,-89.33,-15,6,,,,-25,'CZTB 041600Z AUTO 26005KT M26/M32 RMK AO1 SOG 04 5000 SLP334 T12621317'
20180104,1600,CZUM,CHURCHILL_FALLS,53.56,-64.09,-9,3,,,,-17,'CZUM 041600Z AUTO 18003KT 120V250 9SM CLR M23/M27 A3013 RMK SLP255'
20180104,1600,CXHF,HIGH_FALLS,45.84,-75.65,17,,,,,13,'CXHF 041600Z AUTO M09/M10 RMK AO1 T10861104'
20180104,1600,CYKQ,WASKAGANISH_AIRPORT,51.48,-78.75,-11,5,,,,-17,'CYKQ 041600Z 35004KT 10SM FEW015 FEW050 M24/M27 A3026 RMK ST1SC1 SLP252'
20180104,1600,CMGB,GRANBY,45.37,-72.77,15,2,,,,9,'CMGB 041630Z AUTO 36002KT M09/M13 RMK AO1 SOG 24 8031 SLP086 T10921128'
20180104,1600,EYW,KEY_WEST_INTL_ARPT_(ASOS),24.55,-81.75,54,13,,,,46,'KEYW 041553Z 03011KT 10SM OVC025 12/08 A3019 RMK AO2 SLP221 T01220078'
20180104,1600,NQX,KEY_WEST_NAS,24.57,-81.68,55,14,,,,47,'KNQX 041618Z 02013G17KT 10SM BKN030 OVC045 13/08 A3018 RMK AO2 T01330083 $'
20180104,1600,MTH,MARATHON_AIRPORT_(ASOS),24.73,-81.05,55,14,,,,39,'KMTH 041553Z AUTO 36012KT 10SM CLR 13/04 A3018 RMK AO2 SLP218 T01280039'
20180104,1600,MIA,MIAMI_INTL_AIRPORT_(ASOS),25.82,-80.28,53,10,21,,21,30,'KMIA 041553Z 34009G18KT 10SM CLR 12/M01 A3017 RMK AO2 SLP216 T01171011'
20180104,1600,OPF,MIAMI/OPA_LOCKA_(ASOS),25.90,-80.28,52,16,23,,23,29,'KOPF 041553Z 33014G20KT 10SM CLR 11/M02 A3017 RMK AO2 SLP217 T01111017'
20180104,1600,FLL,FT_LAUDERDALE/HOLLY_(ASOS),26.07,-80.15,50,16,,,,29,'KFLL 041553Z 31014KT 10SM CLR 10/M02 A3015 RMK AO2 SLP209 T01001017'
20180104,1600,HST,HOMESTEAD_AFB,25.48,-80.38,53,14,22,,22,34,'KHST 041556Z AUTO 34012G19KT 10SM CLR 12/01 A3015 RMK AO2 SLP213 T01150009'
20180104,1600,TMB,MIAMI/KENDALL-TAMIA_(ASOS),25.65,-80.43,52,21,,,,31,'KTMB 041553Z 34018KT 10SM CLR 11/M01 A3016 RMK AO2 SLP213 T01111006'
20180104,1600,PBI,WEST_PALM_BEACH_(ASOS),26.68,-80.12,47,14,,,,17,'KPBI 041553Z 34012KT 10SM CLR 08/M08 A3017 RMK AO2 SLP214 T00831083 $'
20180104,1600,APF,NAPLES_MUNICIPAL,26.15,-81.77,51,8,,,,29,'KAPF 041553Z 01007KT 340V040 10SM CLR 11/M02 A3018 RMK AO2 SLP219 T01061017 $'
20180104,1600,FXE,FORT_LAUDERDALE_(ASOS),26.20,-80.17,49,15,23,,23,26,'KFXE 041553Z 34013G20KT 10SM CLR 09/M03 A3016 RMK AO2 SLP214 T00941033 $'
20180104,1600,MLB,MELBOURNE_REGIONAL_(ASOS),28.10,-80.65,47,17,,,,20,'KMLB 041553Z 28015KT 10SM CLR 08/M07 A3014 RMK AO2 SLP204 T00831067'
20180104,1600,GIF,WINTER_HAVEN_(ASOS),28.05,-81.75,45,12,,,,23,'KGIF 041553Z AUTO 29010KT 10SM CLR 07/M05 A3018 RMK AO2 SLP220 T00721050'
20180104,1600,VRB,VERO_BEACH_MUNI_(ASOS),27.65,-80.42,47,9,,,,21,'KVRB 041553Z 30008KT 10SM CLR 08/M06 A3015 RMK AO2 SLP207 T00831061'
20180104,1600,TIX,TITUSVILLE,28.52,-80.80,48,12,,,,16,'KTIX 041547Z 228010KT 7SM SKC 09/M09 A3014'
20180104,1600,MCO,ORLANDO_JETPORT___(ASOS),28.43,-81.32,44,16,,,,18,'KMCO 041553Z 30014KT 10SM CLR 07/M08 A3016 RMK AO2 SLP212 T00671078'
20180104,1600,ORL,ORLANDO/HERNDON___(ASOS),28.55,-81.33,45,15,,,,17,'KORL 041553Z 29013KT 10SM CLR 07/M08 A3015 RMK AO2 SLP216 T00721083'
20180104,1600,BKV,BROOKSVILLE_(ASOS),28.47,-82.45,45,15,,,,25,'KBKV 041553Z 29013KT 10SM CLR 07/M04 A3019 RMK AO2 SLP224 T00721039'
20180104,1600,OCF,OCALA_MUNI_(AWOS),29.17,-82.22,39,10,17,,17,14,'KOCF 041551Z 28009G15KT 10SM CLR 04/M10 A3018 RMK AO2 SLP224 T00391100'
20180104,1600,DAB,DAYTONA_BEACH_RGNL_(ASOS),29.18,-81.05,43,15,,,,21,'KDAB 041553Z 28013KT 10SM CLR 06/M06 A3013 RMK AO2 SLP200 T00611061'
20180104,1600,SFB,SANFORD/ORLANDO_(ASOS),28.78,-81.23,43,13,,,,17,'KSFB 041553Z 28011KT 10SM CLR 06/M08 A3015 RMK AO2 SLP209 T00611083'
20180104,1600,JAX,JACKSONVILLE_INTL_(ASOS),30.50,-81.70,40,15,24,,24,19,'KJAX 041556Z 27013G21KT 10SM CLR 04/M07 A3009 RMK AO2 SLP190 T00441072'
20180104,1600,NIP,JACKSONVILLE_NAS,30.23,-81.68,39,16,23,,23,14,'KNIP 041553Z 27014G20KT 10SM CLR 04/M10 A3011 RMK AO2 SLP192 T00391100 $'
20180104,1600,NRB,MAYPORT_NS,30.40,-81.42,38,14,21,,21,17,'KNRB 041552Z 27012G18KT 10SM CLR 03/M08 A3009 RMK AO2 SLP187 T00331083 $'
20180104,1600,CRG,JACKSONVILLE/CRAIG_(ASOS),30.33,-81.52,39,14,23,,23,13,'KCRG 041553Z 28012G20KT 10SM CLR 04/M11 A3009 RMK AO2 SLP190 T00391106'
20180104,1600,SAV,SAVANNAH_MUNICIPAL_(ASOS),32.13,-81.20,34,17,22,,22,20,'KSAV 041553Z 28015G19KT 10SM CLR 01/M07 A3001 RMK AO2 SLP162 T00111067'
20180104,1600,CHS,CHARLESTOWN_MUNI_(ASOS),32.90,-80.03,33,9,,,,20,'KCHS 041556Z 29008KT 10SM CLR 00/M07 A2995 RMK AO2 SLP142 T00061067 $'
20180104,1600,NBC,BEAUFORT_MCAS,32.48,-80.72,33,13,,,,19,'KNBC 041556Z AUTO 29011KT 10SM CLR 01/M07 A2999 RMK AO2 SLP155 T00061072 $'
20180104,1600,LHW,FT_STEWART/WRIGHT_&,31.88,-81.57,33,10,,,,19,'KLHW 041556Z AUTO 27009KT 10SM CLR 00/M07 A3001 RMK AO2 SLP166 T00031072 $'
20180104,1600,FPR,FT_PIERCE/ST_LUCIE_(ASOS),27.50,-80.37,47,14,,,,24,'KFPR 041553Z 29012KT 10SM CLR 08/M04 A3015 RMK AO2 SLP207 T00831044'
20180104,1600,SPG,SAINT_PETERSBURG_(ASOS),27.77,-82.63,49,7,,,,34,'KSPG 041553Z 32006KT 10SM CLR 09/01 A3017 RMK AO2 SLP216 T00940011'
20180104,1600,FMY,FORT_MYERS/PAGE_FLD_(ASOS),26.58,-81.87,52,9,,,,29,'KFMY 041553Z 02008KT 10SM CLR 11/M02 A3018 RMK AO2 SLP221 T01111017'
20180104,1600,RSW,FT_MYERS/SW_FLORIDA_(ASOS),26.53,-81.75,51,8,,,,30,'KRSW 041553Z AUTO 33007KT 10SM CLR 11/M01 A3019 RMK AO2 SLP220 T01061011'
20180104,1600,TPA,TAMPA_INTL_AIRPORT_(ASOS),27.97,-82.53,51,8,,,,33,'KTPA 041553Z 28007KT 10SM FEW045 11/01 A3018 RMK AO2 SLP220 T01060006'
20180104,1600,SRQ,SARASOTA-BRADENTON_(ASOS),27.40,-82.55,50,9,,,,33,'KSRQ 041553Z 36008KT 10SM SCT042 10/01 A3018 RMK AO2 SLP218 T01000006'
20180104,1600,PIE,SAINT_PETERSBURG_(ASOS),27.92,-82.68,51,17,,,,35,'KPIE 041553Z 33015KT 10SM BKN038 11/02 A3018 RMK AO2 SLP221 T01060017'
20180104,1600,LAL,LAKELAND_REGIONAL,27.98,-82.02,45,14,20,,20,25,'KLAL 041550Z 32012G17KT 10SM SKC 07/M04 A3017'
20180104,1600,BOW,BARTOW_MUNICIPAL__&,27.95,-81.78,43,13,,,,21,'KBOW 041545Z 29011KT 10SM SKC 06/M06 A3018'
20180104,1600,AMG,ALMA/BACON_CO._(ASOS),31.53,-82.50,35,13,,,,13,'KAMG 041553Z AUTO 30011KT 10SM CLR 02/M11 A3007 RMK AO2 SLP183 T00171106'
20180104,1600,BQK,BRUNSWICK/GLYNCO,31.25,-81.47,32,7,,,,27,'KBQK 041635Z AUTO 26005KT 10SM CLR 01/M02 A3006 RMK AO2'
20180104,1600,SSI,BRUNSWICK/MALCOLM_(ASOS),31.15,-81.38,35,14,,,,21,'KSSI 041553Z AUTO 28012KT CLR 02/M06 A3005 RMK AO2 SLP177 T00171061 TSNO $'
20180104,1600,TLH,TALLAHASSEE_RGNL_(ASOS),30.38,-84.37,37,9,,,,13,'KTLH 041553Z 30008KT 280V340 10SM CLR 03/M11 A3018 RMK AO2 SLP221 T00281106'
20180104,1600,GNV,GAINESVILLE_RGNL_(ASOS),29.68,-82.27,39,13,,,,16,'KGNV 041553Z 30011KT 10SM CLR 04/M09 A3018 RMK AO2 SLP220 T00391089'
20180104,1600,ABY,ALBANY_MUNICIPAL,31.53,-84.18,37,9,,,,12,'KABY 041553Z 30008KT 10SM CLR 03/M11 A3018 RMK AO2 SLP222 T00281111'
20180104,1600,VLD,VALDOSTA_REGIONAL_(ASOS),30.78,-83.28,37,3,,,,16,'KVLD 041553Z VRB03KT 10SM CLR 03/M09 A3014 RMK AO2 SLP217 T00281089'
20180104,1600,MCN,MACON/LEWIS_WILSON_(ASOS),32.70,-83.65,34,16,23,,23,10,'KMCN 041553Z 28014G20KT 10SM CLR 01/M12 A3010 RMK AO2 SLP193 T00111122'
20180104,1600,WRB,WARNER_ROBINS_AFB,32.63,-83.60,35,16,21,,21,11,'KWRB 041556Z 30014G18KT 10SM CLR 02/M12 A3009 RMK AO2A SLP195 T00161119'
20180104,1600,AGS,AUGUSTA/BUSH_FIELD_(ASOS),33.37,-81.97,36,18,25,,25,11,'KAGS 041553Z 27016G22KT 10SM CLR 02/M12 A2999 RMK AO2 SLP156 T00221117'
20180104,1600,ATL,ATLANTA_INTL_ARPT_(ASOS),33.65,-84.42,28,22,32,32,32,9,'KATL 041552Z 31019G28KT 10SM FEW200 FEW250 M02/M13 A3007 RMK AO2 PK WND 31028/1550 SLP194 T10221128'
20180104,1600,FTY,ATLANTA/FULTON_CO._(ASOS),33.78,-84.52,27,12,22,,22,10,'KFTY 041553Z 32010G19KT 280V340 10SM CLR M03/M12 A3009 RMK AO2 SLP197 T10281122'
20180104,1600,PDK,ATLANTA/DEKALB_(ASOS),33.88,-84.30,26,21,28,30,30,7,'KPDK 041553Z 32018G24KT 10SM CLR M03/M14 A3006 RMK AO2 PK WND 31026/1536 SLP199 T10331139'
20180104,1600,VPS,EGLIN_AFB/VALPARAIS,30.48,-86.53,37,13,18,,18,11,'KVPS 041555Z COR 36011G16KT 10SM CLR 03/M12 A3025 RMK AO2A SLP250 T00251118 $ COR 1645'
20180104,1600,CEW,CRESTVIEW/BOB_SIKES_(ASOS),30.78,-86.52,36,14,20,,20,11,'KCEW 041553Z AUTO 34012G17KT 10SM CLR 02/M12 A3027 RMK AO2 SLP252 T00221117'
20180104,1600,PNS,PENSACOLA_REGIONAL(ASOS),30.47,-87.18,37,13,,,,15,'KPNS 041553Z 34011KT 10SM CLR 03/M09 A3028 RMK AO2 SLP257 T00281094'
20180104,1600,NPA,PENSACOLA_NAS,30.35,-87.32,37,9,17,,17,14,'KNPA 041556Z 33008G15KT 300V010 10SM CLR 03/M10 A3028 RMK AO2 SLP255 T00281100 $'
20180104,1600,MOB,MOBILE/BATES_FIELD_(ASOS),30.68,-88.25,36,12,,,,14,'KMOB 041556Z 35010KT 10SM FEW060 FEW250 02/M10 A3031 RMK AO2 SLP264 T00221100'
20180104,1600,BFM,MOBILE_DOWNTOWN_(ASOS),30.63,-88.07,38,12,,,,15,'KBFM 041553Z 34010KT 10SM CLR 03/M09 A3032 RMK AO2 SLP267 T00331094'
20180104,1600,ECP,PANAMA_CITY,30.36,-85.80,37,8,,,,14,'KECP 041553Z 30007KT 280V350 10SM CLR 03/M10 A3022 RMK AO2 SLP246 T00281100'
20180104,1600,LSF,FORT_BENNING,32.33,-85.00,33,14,,,,10,'KLSF 041556Z AUTO 28012KT 10SM CLR 01/M12 A3017 RMK AO2 SLP224 T00071120'
20180104,1600,CSG,COLUMBUS_METRO_ARPT_(ASOS),32.52,-84.93,33,13,,,,9,'KCSG 041551Z 33011KT 10SM CLR 01/M13 A3016 RMK AO2 SLP215 T00061128'
20180104,1600,MGM,MONTGOMERY/DANNELLY_(ASOS),32.30,-86.40,32,13,18,,18,11,'KMGM 041553Z 33011G16KT 10SM CLR 00/M12 A3025 RMK AO2 SLP244 T00001117'
20180104,1600,MXF,MAXWELL_AFB/MONTGOM,32.38,-86.37,33,12,,,,12,'KMXF 041556Z AUTO 32010KT 10SM CLR 01/M11 A3022 RMK AO2 SLP238 T00051109 $'
20180104,1600,DHN,DOTHAN_MUNICIPAL,31.32,-85.45,34,,,,,13,'KDHN 041553Z 10SM CLR 01/M11 A3022 RMK AO2 SLPNO T00111106 $'
20180104,1600,OZR,CAIRNS_AAF/OZARK,31.28,-85.72,33,8,,,,10,'KOZR 041556Z AUTO 32007KT 10SM CLR 01/M12 A3020 RMK AO2 SLP232 T00061121'
20180104,1600,MGE,DOBBINS_AFB/MARIETT,33.92,-84.52,27,16,25,30,30,8,'KMGE 041556Z 31014G22KT 10SM CLR M03/M13 A3005 RMK AO2A PK WND 29026/03 SLP188 T10291132 $'
20180104,1600,BHM,BIRMINGHAM_MUNI_(ASOS),33.57,-86.75,28,10,,,,11,'KBHM 041553Z 32009KT 10SM FEW250 M02/M12 A3025 RMK AO2 SLP249 T10221117'
20180104,1600,AUO,AUBURN-OPELIKA_APT,32.62,-85.43,30,17,23,,23,12,'KAUO 041556Z AUTO 32015G20KT 10SM CLR M01/M11 A3016 RMK AO2 SLP240 T10111111 FZRANO'
20180104,1600,GAD,GADSEN_MUNI_(AWOS),33.97,-86.08,27,12,18,,18,12,'KGAD 041556Z AUTO 34010G16KT 10SM CLR M03/M11 A3022 RMK AO2 SLP244 T10281111 FZRANO'
20180104,1600,TCL,TUSCALOOSA_MUNI_(ASOS),33.22,-87.62,30,10,,,,11,'KTCL 041553Z 35009KT 10SM CLR M01/M12 A3029 RMK AO2 SLP258 T10111117'
20180104,1600,ANB,ANNISTON/CALHOUN_CO_(ASOS),33.58,-85.85,28,14,20,,20,11,'KANB 041553Z AUTO 27012G17KT 10SM CLR M02/M12 A3019 RMK AO2 SLP238 T10221117'
20180104,1600,MSY,NEW_ORLEANS/MOISANT_(ASOS),29.98,-90.25,39,8,,,,18,'KMSY 041553Z 01007KT 10SM FEW250 04/M08 A3037 RMK AO2 SLP288 T00391078'
20180104,1600,ARA,NEW_IBERIA/ACADIANA_(ASOS),30.03,-91.88,39,7,,,,18,'KARA 041553Z 04006KT 10SM CLR 04/M08 A3041 RMK AO2 SLP296 T00391078'
20180104,1600,NEW,NEW_ORLEANS/LAKEFRO_(ASOS),30.05,-90.03,39,10,,,,18,'KNEW 041553Z 03009KT 10SM CLR 04/M08 A3038 RMK AO2 SLP279 T00391078'
20180104,1600,NBG,NEW_ORLEANS_NAS,29.83,-90.03,39,8,,,,18,'KNBG 041555Z 02007KT 340V040 10SM FEW250 04/M08 A3037 RMK AO2 SLP282 T00391078 PNO $'
20180104,1600,BTR,BATON_ROUGE/RYAN_(ASOS),30.53,-91.15,38,8,,,,16,'KBTR 041553Z 05007KT 040V100 10SM CLR 03/M09 A3039 RMK AO2 SLP290 T00331089'
20180104,1600,PTN,PATTERSON_MEMORIAL,29.72,-91.33,39,6,,,,19,'KPTN 041556Z AUTO 07005KT 10SM CLR 04/M07 A3040 RMK AO2 SLP294 T00391072'
20180104,1600,MEI,MERIDIAN/KEY_FIELD_(ASOS),32.33,-88.75,34,8,,,,15,'KMEI 041558Z 35007KT 10SM CLR 01/M09 A3032 RMK AO2 SLP270 T00111094'
20180104,1600,NMM,MERIDIAN_NAS/MCCAIN,32.55,-88.57,32,10,,,,13,'KNMM 041556Z 32009KT 10SM FEW250 00/M11 A3032 RMK AO2 SLP283 T00001106 $'
20180104,1600,PIB,PINE_BELT_RGNL_AWOS,31.47,-89.33,34,14,,,,16,'KPIB 041556Z AUTO 01012KT 10SM CLR 01/M09 A3034 RMK AO2 SLP278 T00111089 FZRANO'
20180104,1600,JAN,JACKSON/THOMPSON_(ASOS),32.32,-90.08,32,10,,,,15,'KJAN 041554Z 34009KT 10SM CLR 00/M09 A3034 RMK AO2 SLP278 T00001094'
20180104,1600,GLH,GREENVILLE_MUNI,33.48,-90.98,30,12,,,,12,'KGLH 041553Z 01010KT 10SM CLR M01/M11 A3039 RMK AO2 SLP302 T10111111'
20180104,1600,MCB,MCCOMB/LEWIS_FIELD,31.18,-90.47,36,7,,,,14,'KMCB 041553Z AUTO 01006KT 10SM CLR 02/M10 A3034 RMK AO2 SLP277 T00221100'
20180104,1600,GWO,GREENWOOD/LEFLORE_(ASOS),33.50,-90.08,29,8,,,,14,'KGWO 041553Z AUTO 34007KT 10SM CLR M02/M10 A3039 RMK AO2 SLP291 T10171100'
20180104,1600,POE,FORT_POLK_(ARMY),31.05,-93.20,36,8,,,,16,'KPOE 041558Z AUTO 06007KT 9SM CLR 02/M09 A3039 RMK AO2 SLP296 T00241087'
20180104,1600,LCH,LAKE_CHARLES_MUNI_(ASOS),30.12,-93.22,37,9,,,,21,'KLCH 041553Z 07008KT 10SM CLR 03/M06 A3040 RMK AO2 SLP301 T00281061'
20180104,1600,LFT,LAFAYETTE_REGIONAL_(ASOS),30.20,-91.98,38,5,,,,19,'KLFT 041553Z 07004KT 10SM CLR 03/M07 A3040 RMK AO2 SLP294 T00331072 $'
20180104,1600,MLU,MONROE_REGIONAL_(ASOS),32.52,-92.03,34,9,,,,17,'KMLU 041553Z 06008KT 10SM CLR 01/M08 A3042 RMK AO2 SLP300 T00111083'
20180104,1600,ESF,ALEXANDRIA/ESLER_(ASOS),31.40,-92.30,36,7,,,,17,'KESF 041553Z AUTO VRB06KT 10SM CLR 02/M08 A3040 RMK AO2 SLP294 T00221083'
20180104,1600,ILM,WILMINGTON/NEW_HAN_(ASOS),34.27,-77.90,31,13,,,,16,'KILM 041553Z 28011KT 10SM CLR M01/M09 A2985 RMK AO2 SLP108 T10061089'
20180104,1600,POB,POPE_AFB,35.17,-79.02,31,20,24,,24,11,'KPOB 041610Z AUTO 30017G25KT 10SM CLR M01/M11 A2984 RMK AO2 WSHFT 05 SLP110 $'
20180104,1600,MQI,MANTEO/DARE_CO_RGNL,35.92,-75.70,26,22,33,,33,23,'KMQI 041625Z AUTO 32019G32KT OVC013 M03/M05 A2966 RMK AO2 T10301051 PWINO'
20180104,1600,RDU,RALEIGH-DURHAM_(ASOS),35.87,-78.78,28,15,29,30,30,7,'KRDU 041551Z 33013G25KT 280V360 10SM FEW045 M02/M14 A2982 RMK AO2 PK WND 28026/1539 SLP102 T10221139'
20180104,1600,GSB,SEYMOUR-JOHNSON_AFB,35.33,-77.97,31,14,23,,23,10,'KGSB 041556Z AUTO 30012G20KT 10SM CLR 00/M12 A2979 RMK AO2 SLPNO T10051122 $'
20180104,1600,ISO,KINSTON/STALLINGS,35.33,-77.61,32,12,21,,21,12,'KISO 041556Z 30010G18KT 10SM CLR M00/M11 A2980 RMK AO2'
20180104,1600,RWI,ROCKY_MOUNT-WILSON_(ASOS),35.85,-77.90,29,20,30,30,30,11,'KRWI 041553Z AUTO 29017G26KT 10SM CLR M02/M12 A2979 RMK AO2 PK WND 30026/1552 SLP089 T10171117'
20180104,1600,OAJ,JACKSONVILLE_(AWOS),34.83,-77.62,33,9,16,,16,18,'KOAJ 041556Z AUTO 29008G14KT 250V320 10SM CLR 01/M08 A2982 RMK AO2 SLP102 T00061078 FZRANO'
20180104,1600,NTU,OCEANA_NAS/SOUCEK,36.82,-76.03,23,20,31,31,31,19,'KNTU 041556Z AUTO 31017G27KT 1/2SM SN FZFG VV011 M05/M07 A2962 RMK AO2 PK WND 31027/1510 SLP034 P0000 T10501072 $'
20180104,1600,ORF,NORFOLK_INTL_ARPT_(ASOS),36.90,-76.20,24,10,22,,22,24,'KORF 041551Z 31009G19KT 280V340 1/2SM R05/2600V3500FT FZFG VV010 M04/M04 A2965 RMK AO2 SLP041 T10441044'
20180104,1600,FKN,FRANKLIN/J_B_ROSE,36.70,-76.90,25,16,21,,21,20,'KFKN 041635Z AUTO 30014G19KT 5SM -SN SCT018 BKN023 OVC045 M03/M07 A2973 RMK AO2T10331071'
20180104,1600,NGU,NORFOLK_NAS/CHAMBER,36.93,-76.28,25,23,33,40,40,20,'KNGU 041643Z AUTO 30029G35KT 1/2SM HZ BKN016 OVC025 M04/M07 A2967 RMK AO2 PK WND 30035/1643 T10391067 PWINO FZRANO $'
20180104,1600,PHF,NEWPORT_NEWS_(ASOS),37.13,-76.50,24,20,28,35,35,18,'KPHF 041554Z 30017G24KT 3/4SM -SN VV016 M04/M08 A2967 RMK AO2 PK WND 29030/1526 SLP047 P0000 T10441078'
20180104,1600,FAF,FORT_EUSTIS/FELKER,37.13,-76.62,25,26,33,,33,18,'KFAF 041636Z AUTO 32020G26KT 1 1/8SM -SN OVC015 M04/M07 A2965 RMK AO2 UPE15SNB15E30UPB30E35SNB35 SLP044 $'
20180104,1600,NKT,CHERRY_POINT_MCAS,34.90,-76.88,39,14,,,,-9999,'KNKT 041554Z 28012KT 10SM -RA CLR 04/ A2979 RMK AO2 UPE09RAB09 SLP085 T0039 PNO $'
20180104,1600,EWN,NEW_BERN/CRAVEN_CO_(ASOS),35.07,-77.05,29,13,21,,21,20,'KEWN 041554Z AUTO 28011G18KT 10SM CLR M02/M07 A2979 RMK AO2 SLP088 T10171067'
20180104,1600,NCA,NEW_RIVER_MCAS,34.72,-77.45,30,18,25,,25,17,'KNCA 041556Z AUTO 30016G22KT 10SM CLR M01/M08 A2982 RMK AO2 SLP099 T10111083 PWINO FZRANO $'
20180104,1600,CAE,COLUMBIA_METRO_(ASOS),33.95,-81.12,36,12,,,,14,'KCAE 041556Z 30010KT 10SM CLR 02/M10 A2994 RMK AO2 SLP140 T00221100'
20180104,1600,MMT,MCENTIRE_ANG_BASE,33.92,-80.80,35,18,24,,24,12,'KMMT 041556Z AUTO 30016G21KT 10SM CLR 02/M11 A2992 RMK AO2 SLP137 T00171111 $'
20180104,1600,FLO,FLORENCE_REGIONAL_(ASOS),34.18,-79.72,30,8,,,,13,'KFLO 041553Z 29007KT 10SM CLR M01/M11 A2991 RMK AO2 SLP127 T10111106'
20180104,1600,AHN,ATHENS_MUNICIPAL_(ASOS),33.95,-83.32,31,13,25,,25,10,'KAHN 041551Z 31011G22KT 10SM CLR M01/M12 A3000 RMK AO2 SLP169 T10061122'
20180104,1600,GMU,GREENVILLE_DOWNTOWN_(ASOS),34.85,-82.35,33,6,,,,6,'KGMU 041553Z 30005KT 10SM CLR 01/M14 A2992 RMK AO2 SLP142 T00061144'
20180104,1600,GSP,GREENVILLE/SPARTANB_(ASOS),34.90,-82.22,30,12,,,,8,'KGSP 041553Z 36010KT 10SM CLR M01/M13 A2993 RMK AO2 SLP142 T10111133'
20180104,1600,AND,ANDERSON_CO_AIRPORT_(ASOS),34.50,-82.72,33,9,20,,20,9,'KAND 041556Z AUTO 27008G17KT 240V300 10SM CLR 01/M13 A2995 RMK AO2 SLP147 T00061128'
20180104,1600,HSE,HATTERAS_(ASOS),35.22,-75.62,30,22,35,37,37,25,'KHSE 041622Z AUTO 30017G29KT 10SM SCT027 M01/M04 A2971 RMK AO2 PK WND 30032/1600 T10111039 TSNO'
20180104,1600,CLT,CHARLOTTE/DOUGLAS_(ASOS),35.22,-80.95,32,15,23,,23,6,'KCLT 041552Z 29013G20KT 10SM FEW030 00/M14 A2990 RMK AO2 SLP130 T00001144'
20180104,1600,SOP,SOUTHERN_PINES_AWOS,35.23,-79.40,32,8,18,,18,11,'KSOP 041556Z AUTO 31007G16KT 280V350 10SM CLR 00/M12 A2985 RMK AO2 UPB00E51 SLP127 P0000 T00001117 FZRANO'
20180104,1600,HKY,HICKORY_REGIONAL_(ASOS),35.73,-81.38,27,10,23,,23,4,'KHKY 041553Z 34009G20KT 300V010 10SM BKN050 M03/M16 A2989 RMK AO2 SLP126 T10281156'
20180104,1600,AVL,ASHEVILLE_MUNICIPAL_(ASOS),35.43,-82.55,21,20,37,35,37,7,'KAVL 041603Z 35019G30KT 10SM FEW027 M06/M14 A2988 RMK AO2 PK WND 35030/1558 T10611144'
20180104,1600,GSO,GREENSBORO/PIEDMONT_(ASOS),36.08,-79.95,27,25,31,39,39,3,'KGSO 041554Z 32022G27KT 10SM FEW055 M03/M16 A2982 RMK AO2 PK WND 32034/1457 SLP107 T10281161'
20180104,1600,TRI,BRISTOL/TRI-CITY__(ASOS),36.48,-82.40,21,16,26,,26,4,'KTRI 041553Z 30014G23KT 10SM BKN047 M06/M16 A3003 RMK AO2 SLP175 T10611156'
20180104,1600,INT,WINSTON-SALEM/SMITH_(ASOS),36.13,-80.22,26,16,29,35,35,2,'KINT 041554Z 31014G25KT 280V340 10SM FEW049 M03/M17 A2986 RMK AO2 PK WND 32030/1511 SLP120 T10331167'
20180104,1600,RMG,ROME/RUSSELL_(ASOS),34.35,-85.17,28,15,23,,23,7,'KRMG 041553Z AUTO 35013G20KT 10SM CLR M02/M14 A3015 RMK AO2 SLP212 T10221139'
20180104,1600,HSV,HUNTSVILLE/MADISON_(ASOS),34.65,-86.77,24,10,,,,10,'KHSV 041553Z 35009KT 10SM CLR M04/M12 A3027 RMK AO2 SLP255 T10441122'
20180104,1600,MSL,MUSCLE_SHOALS_RGNL_(ASOS),34.75,-87.62,23,8,,,,8,'KMSL 041553Z AUTO 35007KT 10SM CLR M05/M13 A3032 RMK AO2 SLP271 T10501133'
20180104,1600,CHA,CHATTANOOGA/LOVELL_(ASOS),35.03,-85.20,23,14,18,,18,6,'KCHA 041553Z 35012G16KT 10SM SCT035 M05/M14 A3019 RMK AO2 SLP228 T10501144'
20180104,1600,TYS,KNOXVILLE_MUNICIPAL_(ASOS),35.82,-83.98,22,13,,,,11,'KTYS 041553Z 35011KT 10SM BKN034 BKN042 M06/M12 A3013 RMK AO2 SLP212 T10561117'
20180104,1600,CSV,CROSSVILLE_MEMORIAL,35.95,-85.08,13,13,,,,4,'KCSV 041601Z AUTO 34010KT 5SM -SN OVC020 M11/M16 A3011 RMK AO2 P0000 T11061161'
20180104,1600,BNA,NASHVILLE_METRO_(ASOS),36.13,-86.68,16,10,,,,4,'KBNA 041553Z 35009KT 10SM SCT022 M09/M16 A3032 RMK AO2 SNE19 SLP275 P0000 T10891156'
20180104,1600,MQY,SMYRNA,36.02,-86.52,14,13,,,,4,'KMQY 041556Z 33011KT 10SM SCT022 M10/M16 A3032 RMK AO2 SLP329 T11001156'
20180104,1600,CBM,COLUMBUS_AFB,33.65,-88.45,27,13,,,,12,'KCBM 041556Z AUTO 35011KT 10SM CLR M03/M11 A3032 RMK AO2 SLP273 T10271110 $'
20180104,1600,GTR,GOLDEN_TRI(AWOS),33.45,-88.58,28,15,,,,13,'KGTR 041556Z 33013KT 10SM CLR M02/M11 A3033 RMK AO2 SLP276 T10221106'
20180104,1600,TUP,TUPELO/C.D._LEMONS_(ASOS),34.27,-88.77,24,12,20,,20,7,'KTUP 041553Z 32010G17KT 10SM CLR M04/M14 A3035 RMK AO2 SLP279 T10441139'
20180104,1600,MEM,MEMPHIS_INTL_ARPT_(ASOS),35.05,-90.00,22,14,,,,5,'KMEM 041554Z 01012KT 10SM FEW150 FEW250 M06/M15 A3040 RMK AO2 SLP297 T10561150 $'
20180104,1600,NQA,MEMPHIS_NAS,35.35,-89.87,19,14,,,,5,'KNQA 041550Z 34012KT 10SM FEW150 M07/M15 A3040'
20180104,1600,MKL,JACKSON/MCKELLAR_(ASOS),35.60,-88.92,17,10,,,,5,'KMKL 041553Z 34009KT 10SM CLR M08/M15 A3040 RMK AO2 SLP300 T10831150'
20180104,1600,DYR,DYERSBURG(AWOS),36.00,-89.40,16,13,,,,4,'KDYR 041556Z AUTO 34011KT 10SM CLR M09/M16 A3042 RMK AO2 SLPNO T10891156 FZRANO'
20180104,1600,LIT,LITTLE_ROCK/ADAMS_(ASOS),34.73,-92.23,28,5,,,,11,'KLIT 041553Z VRB04KT 10SM SCT250 M02/M12 A3043 RMK AO2 SLP310 T10221117'
20180104,1600,LRF,LITTLE_ROCK_AFB,34.92,-92.15,27,8,,,,9,'KLRF 041556Z AUTO 01007KT 10SM CLR M03/M13 A3041 RMK AO2 SLP305 T10261126'
20180104,1600,ARG,WALNUT_RIDGE_(AWOS),36.13,-90.92,19,9,,,,6,'KARG 041556Z AUTO 34008KT 10SM CLR M07/M14 A3043 RMK AO2 SLP312 T10721144 FZRANO'
20180104,1600,JBR,JONESBORO_MUNICIPAL_(ASOS),35.83,-90.65,20,9,,,,6,'KJBR 041553Z AUTO 35008KT 10SM CLR M07/M14 A3043 RMK AO2 SLP306 T10671144 $'
20180104,1600,HOT,HOT_SPRINGS_(ASOS),34.48,-93.10,33,6,,,,12,'KHOT 041553Z AUTO 34005KT 10SM CLR 01/M11 A3039 RMK AO2 SLP296 T00061111'
20180104,1600,SGT,STUTTGART_(AWOS),34.60,-91.57,26,10,,,,12,'KSGT 041556Z AUTO 02009KT 10SM CLR M03/M11 A3043 RMK AO2 SLP308 T10331111 FZRANO'
20180104,1600,PBF,PINE_BLUFF/GRIDER_(ASOS),34.18,-91.93,29,10,,,,14,'KPBF 041553Z AUTO 01009KT 10SM CLR M02/M10 A3043 RMK AO2 SLP304 T10171100'
20180104,1600,ELD,EL_DORADO/GOODWIN_(ASOS),33.22,-92.80,32,10,,,,16,'KELD 041553Z AUTO 04009KT 10SM CLR 00/M09 A3041 RMK AO2 SLP300 T00001089'
20180104,1600,HRO,HARRISON/BOONE_CO_(ASOS),36.27,-93.15,19,7,,,,4,'MHRO 041600Z 30010KT 9999 BKN020TCU 25/20 Q1020 A3012 NOSIG'
20180104,1600,BVX,BATESVILLE_(AWOS),35.73,-91.65,21,7,,,,6,'KBVX 041556Z AUTO VRB06KT 10SM CLR M06/M14 A3042 RMK AO2 SLP308 T10611144 FZRANO'
20180104,1600,CGI,CAPE_GIRARDEAU_MUNI_(ASOS),37.23,-89.57,13,9,,,,0,'KCGI 041553Z 35008KT 10SM CLR M11/M18 A3042 RMK AO2 SLP307 T11061178'
20180104,1600,RIC,RICHMOND/BYRD_FIELD_(ASOS),37.50,-77.33,24,22,28,31,31,16,'KRIC 041611Z 34015KT 2 1/2SM BLSN BR BKN041 OVC049 M04/M09 A2973 RMK AO2 PK WND32027/1557 T10441089'
20180104,1600,PTB,PETERSBURG_(AWOS),37.18,-77.52,27,10,,,,18,'KPTB 041642Z AUTO 35010KT 10SM OVC043 M03/M09 A2974 RMK AO2'
20180104,1600,FVX,FARMVILLE,37.35,-78.43,30,8,21,,21,9,'KFVX 041635Z AUTO 35007KT 290V040 10SM SCT050 M01/M12 A2977 RMK AO2 T10081121'
20180104,1600,WAL,WALLOPS_ISLAND_STN_(ASOS),37.93,-75.48,24,29,41,45,45,21,'KWAL 041631Z AUTO 31024G35KT 1/2SM FZFG VV014 M04/M06 A2948 RMK AO2 PK WND 29039/1600 T10441061 PWINO FZRANO'
20180104,1600,MFV,MELFA/ACCOMACK_ARPT,37.65,-75.77,25,29,44,,44,22,'KMFV 041635Z AUTO 31021G41KT 1/2SM -SN OVC011 M04/M06 A2956 RMK AO2 T10381057'
20180104,1600,OFP,RICHMOND_(ASOS),37.70,-77.43,24,16,28,,28,15,'KOFP 041639Z AUTO 31015G19KT 1 1/4SM -SN BKN029 OVC036 M05/M08 A2974 RMK AO2 P0000 T10501083'
20180104,1600,IAD,WASHINGTON/DULLES_(ASOS),38.95,-77.45,23,24,32,37,37,13,'KIAD 041605Z 33023G32KT 7SM -SN BKN029 OVC040 M05/M11 A2970 RMK AO2 PK WND 32032/1600 P0000 T10501111'
20180104,1600,EZF,SHANNON_ARPT,38.27,-77.45,23,14,30,,30,18,'KEZF 041635Z AUTO 31017G22KT 290V350 3SM -SN BKN007 BKN012 OVC017 M04/M08 A2972RMK AO2 T10441083'
20180104,1600,NYG,QUANTICO_MCAF,38.50,-77.30,25,17,39,,39,16,'KNYG 041637Z 33016G24KT 3SM -SN BKN028 OVC037 M04/M09 A2973 RMK AO2 SFC VIS 4 P0000 T10391094'
20180104,1600,HEF,MANASSAS_MUNI(AWOS),38.72,-77.52,24,28,37,38,38,12,'KHEF 041556Z 33024G32KT 9SM -SN BKN037 OVC045 M04/M11 A2974 RMK AO2 PK WND 32033/1531 SLP082 T10441111 FZRANO PNO $'
20180104,1600,DAA,FORT_BELVOIR/DAVISO,38.72,-77.18,23,18,29,,29,14,'KDAA 041641Z AUTO 31017G25KT 2 3/4SM -SN OVC015 M05/M09 A2968 RMK AO2 VIS 2V2 3/4 SLP055 $'
20180104,1600,NHK,PATUXENT_RIVER_NAS,38.28,-76.40,24,29,39,43,43,18,'KNHK 041634Z AUTO 31026G34KT 1SM HZ BKN036 OVC045 M05/M08 A2960 RMK AO2 PK WND 31037/1558 T10501078 PWINO FZRANO $'
20180104,1600,SBY,SALISBURY_REGIONAL_(ASOS),38.33,-75.52,23,22,39,41,41,20,'KSBY 041618Z 30021G29KT 1/2SM FZFG VV014 M05/M07 A2949 RMK AO2 PK WND 32036/1601 T10501067'
20180104,1600,DCA,WASHINGTON/NATIONAL_(ASOS),38.85,-77.03,24,21,30,40,40,16,'KDCA 041630Z 32018G24KT 3SM -SN BKN023 OVC033 M04/M08 A2969 RMK AO2 PK WND 32035/1610 T10441083 PNO $'
20180104,1600,OKV,WINCHESTER_RGNL,39.15,-78.15,21,22,32,,32,10,'KOKV 041635Z AUTO 31017G21KT 10SM SCT035 OVC044 M06/M13 A2975 RMK AO2'
20180104,1600,JYO,LEESBURG/GODFREY,39.08,-77.57,27,24,35,,35,14,'KJYO 041635Z AUTO 33021G34KT 10SM SCT036 SCT060 OVC070 M03/M10 A2971 RMK AO2'
20180104,1600,MKJ,MARION_/_WYTHEVILLE,36.90,-81.35,15,17,28,,28,0,'KMKJ 041635Z AUTO 29022G29KT 10SM OVC032 M10/M18 A2985 RMK AO2 T10961180'
20180104,1600,VJI,ABINGTON,36.68,-82.03,17,15,21,,21,6,'KVJI 041635Z AUTO 33009G16KT 10SM BKN029 OVC036 M08/M14 A2995 RMK AO2 T10791145'
20180104,1600,BWI,BALTIMORE/WASH_INTL_(ASOS),39.18,-76.67,24,21,36,39,39,14,'KBWI 041554Z 31018G31KT 6SM -SN BR FEW039 OVC060 M04/M10 A2962 RMK AO2 PK WND 32034/1542 SLP032 P0053 T10441100'
20180104,1600,HGR,HAGERSTOWN_REGIONAL_(ASOS),39.70,-77.73,23,25,32,33,33,10,'KHGR 041553Z 31022G28KT 10SM SCT038 BKN080 OVC090 M05/M12 A2971 RMK AO2 PK WND 34029/1542 SLP081 T10501122'
20180104,1600,MTN,BALTIMORE/MARTIN,39.33,-76.42,27,24,35,,35,18,'KMTN 041545Z 30021G30KT 7SM OVC050 M03/M08 A2961'
20180104,1600,ACY,ATLANTIC_CITY_INTL_(ASOS),39.45,-74.57,25,31,44,48,48,23,'KACY 041554Z 33027G38KT 1/8SM FZFG VV005 M04/M05 A2932 RMK AO2 PK WND 33042/1533 SFC VIS 1/4 SNEMM SLP930 P0002 T10391050 $'
20180104,1600,MIV,MILLVILLE_MUNICIPAL_(ASOS),39.37,-75.07,23,20,38,38,38,22,'KMIV 041554Z AUTO 32017G33KT 1/4SM FZFG VV009 M05/M06 A2942 RMK AO2 PK WND 32033/1546 SLP962 T10501056 PWINO FZRANO $'
20180104,1600,PHL,PHILADELPHIA_INTL_(ASOS),39.88,-75.25,23,21,,39,39,19,'KPHL 041554Z 33018KT 3/4SM R09R/3500V4000FT -SN BLSN OVC014 M05/M07 A2947 RMK AO2 PK WND 32034/1532 SLP980 P0002 T10501072'
20180104,1600,BLM,BELMAR-FARMDALE,40.18,-74.13,23,21,38,44,44,22,'KBLM 041556Z AUTO 33018G33KT 1/4SM +SN FZFG OVC004 M05/M06 A2933 RMK AO2 PK WND 34038/1542 SLP936 P0000 T10501056 FZRANO RVRNO'
20180104,1600,PNE,PHILADELPHIA_NE_(ASOS),40.08,-75.02,24,23,33,38,38,19,'KPNE 041621Z 33021G33KT 1/4SM HZ VV009 M04/M07 A2945 RMK AO2 PK WND 33033/1616 T10441072 RVRNO $'
20180104,1600,DOV,DOVER_AFB,39.13,-75.47,22,23,33,,33,22,'KDOV 041611Z 30020G32KT 3/4SM R19/4000V4500FT -SN BR VV014 M06/M06 A2946 RMK AO2A TWR VIS 1/2 CIG 010 RWY01 SLP980 $'
20180104,1600,ILG,WILMINGTON_AIRPORT_(ASOS),39.68,-75.60,22,22,32,36,36,18,'KILG 041602Z 32021G31KT 3/4SM R01/5000V6000FT -SN BR OVC021 M06/M08 A2950 RMK AO2 PK WND 32031/1602 P0009 T10561078'
20180104,1600,TTN,TRENTON/MERCER_CO._(ASOS),40.28,-74.82,23,20,35,39,39,20,'KTTN 041639Z 34017G34KT 1/4SM BLSN FZFG VV010 M05/M07 A2938 RMK AO2 PK WND 33034/1637 T10501072 $'
20180104,1600,WRI,MCGUIRE_AFB,40.02,-74.60,23,28,38,,38,21,'KWRI 041626Z 31028G35KT 1/4SM BLSN VV005 M05/M06 A2932 RMK AO2A CIG 004 RWY24 PRESFR SLP930 $'
20180104,1600,MMU,MORRISTOWN_MUNI,40.80,-74.42,23,18,32,,32,21,'KMMU 041545Z 36016G28KT 1/4SM +SN BLSN VV008 M05/M06 A2944'
20180104,1600,LYH,LYNCHBURG/P._GLENN_(ASOS),37.33,-79.20,25,12,26,,26,0,'KLYH 041554Z 34010G23KT 270V020 10SM CLR M04/M18 A2977 RMK AO2 SLP092 T10391178'
20180104,1600,SHD,STAUNTON/SHENANDOAH,38.27,-78.90,23,15,22,,22,2,'KSHD 041635Z AUTO 34019G27KT 10SM OVC049 M05/M17 A2977 RMK AO2 T10511174'
20180104,1600,ROA,ROANOKE_MUNICIPAL_(ASOS),37.32,-79.97,21,21,36,45,45,2,'KROA 041554Z 32018G31KT 10SM SCT049 M06/M17 A2983 RMK AO2 PK WND 32039/1515 SLP117 T10611167'
20180104,1600,BCB,VIRGINIA_TECH_ARPT,37.22,-80.42,17,22,35,,35,2,'KBCB 041635Z AUTO 31019G30KT 10SM OVC036 M08/M16 A2982 RMK AO2 T10791165'
20180104,1600,HSP,HOT_SPRINGS/INGALLS,37.95,-79.83,10,23,38,,38,-2,'KHSP 041640Z AUTO 30024G36KT 10SM OVC022 M12/M19 A2957 RMK AO2 T11251191'
20180104,1600,PSK,DUBLIN/NEW_RIV_VLLY,37.13,-80.68,19,16,28,,28,3,'KPSK 041635Z AUTO 30016G26KT 10SM OVC040 M07/M17 A2983 RMK AO2 T10711170'
20180104,1600,LNP,WISE/LONESOME_PINE,36.98,-82.53,12,8,16,,16,9,'KLNP 041635Z AUTO 33006G16KT 5SM SCT017 BKN022 OVC041 M10/M13 A2995 RMK AO2 PWINO'
20180104,1600,BKW,BECKLEY_MEMORIAL_(ASOS),37.78,-81.12,10,18,28,,28,5,'KBKW 041642Z AUTO 29011G20KT 1/2SM SN VV014 M12/M16 A2985 RMK AO2 P0000 T11221156 TSNO'
20180104,1600,BLF,BLUEFIELD/MERCER_CO,37.30,-81.20,9,14,26,30,30,2,'KBLF 041630Z AUTO 29012G25KT 1SM -SN BKN019 OVC029 M13/M17 A2983 RMK AO2 PK WND32026/1556 P0000 T11281167'
20180104,1600,LWB,LEWISBURG/GREENBRIE,37.87,-80.40,14,17,25,,25,5,'KLWB 041635Z AUTO 32016G22KT 4SM HZ SCT016 BKN021 OVC027 M10/M16 A2982 RMK AO2 T11001159'
20180104,1600,CRW,CHARLESTON/KANAWHA_(ASOS),38.37,-81.60,16,12,,,,8,'KCRW 041623Z 28009G18KT 2 1/2SM -SN BKN018 OVC027 M08/M13 A3004 RMK AO2 P0000 BINOVC T10831128'
20180104,1600,EKN,ELKINS/RANDOLPH_FLD_(ASOS),38.88,-79.85,12,14,23,,23,5,'KEKN 041629Z AUTO 30011G16KT 1SM -SN BKN016 OVC026 M11/M15 A2983 RMK AO2 P0024 T11061150 TSNO'
20180104,1600,CKB,CLARKSBURG/BENEDUM_(ASOS),39.30,-80.23,17,15,,,,7,'KCKB 041553Z 31013KT 3SM -SN BKN020 OVC026 M08/M14 A2992 RMK AO2 SLP144 P0000 T10831139'
20180104,1600,MGW,MORGANTOWN/HART_FLD_(ASOS),39.65,-79.92,17,7,,,,8,'KMGW 041621Z VRB06G20KT 10SM BKN028 OVC034 M09/M15 A2990 RMK AO2 T10891150'
20180104,1600,MRB,MARTINSBURG_RGNL,39.40,-77.98,22,18,26,,26,9,'KMRB 041553Z 31016G23KT 10SM SCT036 BKN085 OVC100 M06/M13 A2975 RMK AO2 SLP083 T10561128'
20180104,1600,CVG,CINCINNATI/COVINGTO_(ASOS),39.05,-84.67,12,8,,,,6,'KCVG 041552Z 29007KT 8SM OVC044 M11/M14 A3018 RMK AO2 SLP232 T11111144'
20180104,1600,LEX,LEXINGTON/BLUEGRASS_(ASOS),38.03,-84.60,14,10,,,,6,'KLEX 041554Z 32009KT 10SM OVC048 M10/M14 A3019 RMK AO2 SLP237 T11001144'
20180104,1600,SDF,LOUISVILLE/STANDIFO_(ASOS),38.18,-85.73,14,8,,,,2,'KSDF 041556Z 29007KT 10SM FEW040 FEW250 M10/M17 A3027 RMK AO2 SLP259 T11001167'
20180104,1600,LOU,LOUISVILLE/BOWMAN_(ASOS),38.23,-85.67,14,6,,,,4,'KLOU 041628Z 27008KT 10SM BKN021 M09/M16 A3027 RMK AO2 T10941156'
20180104,1600,JKL,JACKSON/J._CARROLL_(ASOS),37.60,-83.32,14,8,,,,6,'KJKL 041642Z AUTO 33009KT 9SM FEW018 OVC047 M09/M14 A3010 RMK AO2 SNE25 P0000 T10941144'
20180104,1600,OWB,OWENSBORO/DAVIESS,37.73,-87.17,11,9,,,,3,'KOWB 041556Z 31008KT 10SM CLR M12/M16 A3036 RMK AO2 SLP295 T11171161'
20180104,1600,FTK,FORT_KNOX/GODMAN__&,37.90,-85.97,11,8,,,,2,'KFTK 041556Z AUTO 28007KT 10SM CLR M11/M16 A3025 RMK AO2 SNB1456E54 SLP260 P0000 T11141165'
20180104,1600,LOZ,LONDON-CORBIN_ARPT_(ASOS),37.09,-84.07,15,9,,,,7,'KLOZ 041553Z AUTO 30008KT 9SM OVC025 M09/M14 A3015 RMK AO2 SNE1458 SLP226 P0000 T10941139'
20180104,1600,HTS,HUNTINGTON/TRI_STAT_(ASOS),38.37,-82.55,16,9,,,,8,'KHTS 041558Z 30007KT 4SM -SN FEW022 SCT027 OVC049 M08/M13 A3011 RMK AO2 P0000 T10831133'
20180104,1600,PKB,PARKERSBURG/WILSON&,39.35,-81.43,17,13,,,,9,'KPKB 041638Z 29016G21KT 4SM -SN BKN022 BKN030 OVC044 M08/M13 A3005 RMK AO2 P0000 T10781133'
20180104,1600,HLG,WHEELING/OHIO_CO._(ASOS),40.18,-80.65,14,22,29,31,31,0,'KHLG 041643Z 29016G23KT 10SM OVC029 M11/M17 A2994 RMK AO2 PK WND 30027/1556 T11061172'
20180104,1600,CMH,PORT_COLUMBUS_INTL_(ASOS),40.00,-82.88,13,12,,,,4,'KCMH 041551Z 33010KT 10SM FEW021 SCT034 M11/M16 A3009 RMK AO2 SNE38 SLP204 P0000 T11061156'
20180104,1600,LCK,RICKENBACKER_ANGB,39.82,-82.93,13,13,18,,18,4,'KLCK 041635Z AUTO 31013G17KT 10SM SCT032 BKN037 M10/M16 A3011 RMK AO2 T11011156'
20180104,1600,ZZV,ZANESVILLE_MUNI_(ASOS),39.95,-81.90,15,17,,,,5,'KZZV 041642Z AUTO 31011KT 1SM -SN SCT015 BKN026 OVC032 M10/M14 A3003 RMK AO2 SNE03B22 P0000 T11001139'
20180104,1600,OSU,OHIO_ST_U/COLUMBUS_(ASOS),40.08,-83.07,12,14,,,,4,'KOSU 041553Z 33012KT 10SM BKN040 M11/M16 A3009 RMK AO2 SLP208 T11111156'
20180104,1600,DAY,DAYTON/JAMES_M_COX_(ASOS),39.90,-84.20,13,16,,,,4,'KDAY 041556Z 33014KT 10SM FEW025 BKN041 M11/M16 A3015 RMK AO2 SLP227 T11061156'
20180104,1600,LUK,CINCINNATI/LUNKIN_(ASOS),39.10,-84.42,15,6,,,,6,'KLUK 041553Z 30005KT 10SM BR OVC050 M09/M14 A3023 RMK AO2 SLP244 T10941144'
20180104,1600,EVV,EVANSVILLE_REGIONAL_(ASOS),38.05,-87.53,7,9,,,,1,'KEVV 041554Z 31008KT 10SM CLR M14/M17 A3034 RMK AO2 SLP283 T11391172 $'
20180104,1600,MVN,MOUNT_VERNON_(AWOS),38.32,-88.87,13,7,,,,2,'KMVN 041556Z AUTO VRB06KT 10SM CLR M11/M17 A3040 RMK AO2 SLP303 T11061167 FZRANO'
20180104,1600,MDH,CARBONDALE/MURPHYSB_(ASOS),37.78,-89.25,10,7,,,,1,'KMDH 041552Z 33006KT 10SM CLR M12/M17 A3041 RMK AO2 SLP303 T11221172'
20180104,1600,BLV,SCOTT_AFB/BELLEVILL,38.55,-89.85,9,8,,,,-2,'KBLV 041556Z AUTO 31007KT 10SM CLR M13/M19 A3041 RMK AO2 SLP311 T11261190 $'
20180104,1600,MWA,MARION_REGIONAL,37.75,-89.02,10,12,,,,0,'KMWA 041547Z 28010KT 10SM SKC M12/M18 A3040'
20180104,1600,STL,ST._LOUIS/LAMBERT_(ASOS),38.75,-90.37,8,8,,,,0,'KSTL 041551Z 33007KT 10SM CLR M13/M18 A3042 RMK AO2 SLP322 T11331178'
20180104,1600,SUS,SPIRIT_OF_ST_LOUIS_(ASOS),38.67,-90.65,8,7,,,,-1,'KSUS 041554Z 33006KT 10SM CLR M13/M18 A3043 RMK AO2 SLP323 T11331183'
20180104,1600,PAH,PADUCAH/BARKLEY___(ASOS),37.07,-88.77,13,6,,,,0,'KPAH 041553Z 34005KT 10SM CLR M11/M18 A3039 RMK AO2 SLP296 T11061178'
20180104,1600,SME,SOMERSET(AWOS),37.06,-84.61,16,10,20,,20,7,'KSME 041635Z AUTO 36006KT 10SM BKN023 M09/M14 A3022 RMK AO2'
20180104,1600,BAK,COLUMBUS/BALKALAR_&,39.27,-85.90,9,6,,,,0,'KBAK 041545Z 31005KT 10SM BKN050 M13/M18 A3026'
20180104,1600,HNB,HUNTINGBURG,38.25,-86.95,11,7,,,,2,'KHNB 041556Z AUTO 32006KT 10SM CLR M12/M17 A3033 RMK AO2 SLP281 T11171167 FZRANO'
20180104,1600,HUF,TERRE_HAUTE/HULMAN_(ASOS),39.45,-87.32,3,8,,,,-6,'KHUF 041553Z 33007KT 10SM CLR M16/M21 A3032 RMK AO2 SLP282 T11611211'
20180104,1600,BMG,BLOOMINGTON/MONROE_(ASOS),39.15,-86.62,7,5,,,,-3,'KBMG 041553Z 33004KT 10SM CLR M14/M19 A3026 RMK AO2 SLP263 T11391194'
20180104,1600,IND,INDIANAPOLIS_INTL_(ASOS),39.73,-86.27,7,8,,,,0,'KIND 041554Z 30007KT 10SM FEW011 FEW040 M14/M18 A3024 RMK AO2 SLP255 T11391178'
20180104,1600,AID,ANDERSON_MUNICIPAL,40.12,-85.62,3,12,,,,0,'KAID 041554Z 31010KT 10SM SCT040 M16/M18 A3021'
20180104,1600,LAF,LAFAYETTE/PURDUE_U_(ASOS),40.42,-86.93,3,7,,,,-3,'KLAF 041554Z VRB06KT 10SM CLR M16/M19 A3028 RMK AO2 SLP266 T11611194'
20180104,1600,SPI,SPRINGFIELD/CAPITAL_(ASOS),39.85,-89.67,4,6,,,,-5,'KSPI 041552Z 33005KT 10SM CLR M16/M21 A3040 RMK AO2 SLP309 T11561206 $'
20180104,1600,ALN,ALTON/ST_LOUIS_RGNL,38.90,-90.05,7,6,,,,0,'KALN 041550Z 33005KT 10SM SKC M14/M18 A3042'
20180104,1600,UIN,QUINCY_MUNI/BALDWIN_(ASOS),39.95,-91.20,2,5,,,,-5,'KUIN 041554Z AUTO 32004KT 10SM FEW110 M17/M21 A3042 RMK AO2 SLP319 T11671206'
20180104,1600,BMI,BLOOMINGTON/NORMAL,40.48,-88.92,1,14,,,,-7,'KBMI 041556Z 34012KT 10SM CLR M17/M22 A3034 RMK AO2 SNB02E10 SLP307 P0000 T11721217'
20180104,1600,SGF,SPRINGFLD_MUNI_(ASOS),37.23,-93.38,16,0,,,,5,'KSGF 041552Z 00000KT 10SM CLR M09/M15 A3037 RMK AO2 SLP304 T10891150'
20180104,1600,COU,COLUMBIA_REGIONAL_(ASOS),38.82,-92.22,9,7,,,,-1,'KCOU 041554Z 34006KT 10SM CLR M13/M18 A3041 RMK AO2 SLP315 T11281183'
20180104,1600,FAM,FARMINGTON_AIRPORT,37.77,-90.43,11,6,,,,1,'KFAM 041556Z AUTO 31005KT 10SM CLR M12/M17 A3037 RMK AO2 SLP303 T11171172 FZRANO'
20180104,1600,IRK,KIRKSVILLE_REGIONAL_(ASOS),40.10,-92.55,4,7,,,,-3,'KIRK 041555Z AUTO 34006KT 10SM BKN110 M16/M19 A3042 RMK AO2 SLP327 T11561194'
20180104,1600,VIH,ROLLA/VICHY_AIRPORT_(ASOS),38.13,-91.77,8,5,,,,0,'KVIH 041553Z AUTO VRB04KT 10SM CLR M13/M18 A3037 RMK AO2 SLP307 T11331178'
20180104,1600,TBN,FORT_LEONARD_WOOD,37.73,-92.13,11,3,,,,0,'KTBN 041556Z AUTO 28003KT 10SM CLR M11/M18 A3036 RMK AO2 SLP305 T11151176'
20180104,1600,JEF,JEFFERSON_CITY_ARPT_(ASOS),38.59,-92.16,8,6,,,,-1,'KJEF 041553Z 27005KT 10SM CLR M13/M18 A3045 RMK AO2 SLP310 T11331183'
20180104,1600,SZL,WHITEMAN_AFB,38.73,-93.55,8,3,,,,-2,'KSZL 041556Z 31003KT 10SM SCT100 M13/M19 A3039 RMK AO2A SLP312 T11311191 $'
20180104,1600,EWR,NEWARK_INTL_AIRPORT_(ASOS),40.70,-74.17,23,28,41,43,43,21,'KEWR 041609Z 34027G37KT 1/4SM R04R/1600V2000FT SN BLSN VV006 M05/M06 A2938 RMK AO2 PK WND 34037/1601 P0001 T10501061 $'
20180104,1600,TEB,TETERBORO_AIRPORT_(ASOS),40.85,-74.07,23,15,30,32,32,20,'KTEB 041551Z 35013G26KT 1/8SM R06/2000V2800FT +SN FZFG VV007 M05/M07 A2942 RMK AO2 PK WND 36028/1452 SLP961 P0006 T10501067 $'
20180104,1600,OXC,OXFORD_(AWOS),41.48,-73.13,23,23,35,,35,21,'KOXC 041551Z 36020G30KT 1/8SM +SN FG VV001 M05/M06 A2933 RMK AO2 SLP954 P0001 T10501061'
20180104,1600,LGA,NEW_YORK/LA_GUARDIA_(ASOS),40.77,-73.90,24,26,37,47,47,21,'KLGA 041633Z 34026G41KT 1/4SM R04/1000V1200FT SN BLSN FZFG VV005 M04/M06 A2930 RMK AO2 PK WND 33041/1632 P0002 T10441061'
20180104,1600,ISP,ISLIP/MACARTHUR_(ASOS),40.80,-73.10,26,29,,,,26,'KISP 041556Z 36025KT 1/8SM R06/1000V1200FT +SN FZFG VV003 M03/M03 A2922 RMK AO2 SLP896 SNINCR 2/9 T10331033 PNO $'
20180104,1600,POU,POUGHKEEPSIE,41.63,-73.88,20,20,30,35,35,16,'KPOU 041553Z 35017G26KT 1/4SM FZFG VV010 M07/M09 A2950 RMK AO2 PK WND 01030/1519 SLP988 T10671089 $'
20180104,1600,HPN,WHITE_PLAINS,41.07,-73.70,20,29,38,44,44,18,'KHPN 041556Z 34028G37KT 1/4SM R16/1600V2200FT +SN FZFG VV003 M07/M08 A2936 RMK AO2 PK WND 34038/1528 SLP953 P0000 T10671078 $'
20180104,1600,SWF,NEWBURGH/STEWART,41.50,-74.10,19,9,21,,21,19,'KSWF 041545Z 36008G18KT 1/2SM R09/2000FT SN OVC003 M07/M07 A2949 RMK PRESFR'
20180104,1600,BDR,BRIDGEPORT/SIKORSKI_(ASOS),41.17,-73.13,25,18,33,39,39,23,'KBDR 041644Z AUTO 34021G32KT 1/4SM FZFG VV005 M04/M05 A2922 RMK AO2 PK WND 34034/1606 T10391050 PWINO FZRANO $'
20180104,1600,HVN,NEW_HAVEN/TWEED,41.27,-72.88,25,21,37,40,40,22,'KHVN 041633Z 35017G32KT 1/4SM R02/1800V2400FT FZFG VV006 M03/M05 A2921 RMK AO2 PK WND 36035/1615 PRESFR P0001 T10331050 $'
20180104,1600,GON,GROTON/NEW_LONDON,41.33,-72.05,28,28,47,47,47,25,'KGON 041556Z 36024G41KT 1/4SM R05/1400V1800FT SN FZFG VV007 M02/M04 A2914 RMK AO2 PK WND 36041/1551 PRESFR SLP866 P0000 T10221039 $'
20180104,1600,SFZ,PAWTUCKET_(AWOS),41.92,-71.50,23,26,37,33,37,22,'KSFZ 041634Z AUTO 01018G29KT 1/4SM +SN FZFG OVC005 M04/M05 A2915 RMK AO2 PK WND01029/1632 CIG 003V008 P0000 FZRANO'
20180104,1600,BID,BLOCK_ISLAND_(AWOS),41.17,-71.58,29,33,44,51,51,29,'KBID 041556Z AUTO 01029G38KT M1/4SM +SN FZFG OVC003 M02/M02 A2905 RMK AO2 PK WND 02044/1518 PRESFR SLP842 P0004 T10171017 FZRANO'
20180104,1600,ACK,NANTUCKET_MEMORIAL_(ASOS),41.25,-70.07,42,33,46,56,56,42,'KACK 041553Z 03029G40KT 1 1/4SM R24/5000VP6000FT +RA BR OVC007 06/06 A2898 RMK AO2 PK WND 04049/1502 PRESFR SLP814 P0037 T00560056'
20180104,1600,PYM,PLYMOUTH_MUNICIPAL_(ASOS),41.92,-70.73,36,32,53,55,55,34,'KPYM 041617Z AUTO 02029G48KT 3/4SM -SN BR OVC007 02/01 A2912 RMK AO2 PK WND 01048/1614 PRESFR P0011 T00170006'
20180104,1600,EWB,NEW_BEDFORD_MUNI_(ASOS),41.68,-70.97,34,21,38,31,38,-9999,'KEWB 041624Z 01012G26KT 1/4SM R05/1400V1800FT FG VV004 00/ A2906 RMK AO2 PK WND03027/1605 SNEMM PRESFR P0022 I1001 T0000 $'
20180104,1600,MVY,MARTHAS_VINEYARD_(ASOS),41.40,-70.62,37,29,40,49,49,37,'KMVY 041553Z 02025G35KT 1 1/4SM R24/4500VP6000FT -SN BR OVC009 03/03 A2904 RMK AO2 PK WND 02043/1512 RAE13SNB13 PRESFR SLPNO P0035 T00280028 $'
20180104,1600,HYA,HYANNIS/POLANDO_FLD_(ASOS),41.67,-70.28,37,24,39,40,40,37,'KHYA 041611Z 03025G34KT 1 1/4SM +RA BR BKN007 OVC013 04/03 A2903 RMK AO2 PK WND03035/1557 P0007 T00390028'
20180104,1600,CQX,CHATHAM_MUNI_ARPT_(ASOS),41.68,-70.00,41,22,43,,43,39,'KCQX 041636Z AUTO 03017G33KT 1 3/4SM RA BR BKN010 OVC016 05/04 A2898 RMK AO2 PKWND 03043/1603 PRESFR P0010 T00500044 TSNO'
20180104,1600,PVD,PROVIDENCE/GREEN_(ASOS),41.73,-71.43,27,28,39,40,40,26,'KPVD 041622Z 36024G32KT 1/4SM R05/1600V1800FT +SN FZFG VV005 M03/M03 A2916 RMK AO2 PK WND 35035/1609 P0003 T10281033 $'
20180104,1600,PVC,PROVINCETOWN_(AWOS),42.07,-70.22,39,32,46,48,48,37,'KPVC 041632Z AUTO 04033G42KT 2SM -RA BR BKN011 OVC018 04/03 A2908 RMK AO2 PK WND 03042/1625 CIG 008V013 P0008'
20180104,1600,BDL,HARTFORD/BRADLEY_(ASOS),41.93,-72.68,21,23,33,33,33,19,'KBDL 041641Z 36019G28KT 1/4SM R06/2000V2600FT +SN BLSN FZFG VV005 M06/M07 A2931RMK AO2 PK WND 01029/1628 P0005 T10561067'
20180104,1600,IJD,WILLIMANTIC_(ASOS),41.73,-72.18,26,15,25,30,30,23,'KIJD 041552Z AUTO 36013G22KT 1/4SM SN FZFG VV006 M03/M05 A2928 RMK AO2 PK WND 36026/1456 SLP920 P0003 T10331050'
20180104,1600,DXR,DANBURY_MUNICIPAL_(ASOS),41.37,-73.48,21,16,25,,25,18,'KDXR 041600Z 35017G24KT 1/4SM FZFG VV006 M06/M08 A2939 RMK AO2 T10611078 $'
20180104,1600,HFD,HARTFORD/BRAINARD_(ASOS),41.73,-72.65,22,17,33,39,39,19,'KHFD 041553Z 36015G29KT 1/4SM SN FZFG VV009 M06/M07 A2936 RMK AO2 PK WND 36034/1530 SLP942 P0003 T10561072 $'
20180104,1600,BVY,BEVERLY_MUNICIPAL_(ASOS),42.58,-70.92,26,18,29,35,35,24,'KBVY 041628Z 01018G28KT M1/4SM +SN FZFG VV004 M03/M04 A2922 RMK AO2 PK WND 01030/1557 PRESFR P0000 T10281039'
20180104,1600,BOS,BOSTON/LOGAN_INTL_(ASOS),42.37,-71.03,26,29,41,43,43,25,'KBOS 041620Z 36026G37KT 1/8SM R04R/1000V1400FT +SN BLSN FZFG VV003 M03/M03 A2924 RMK AO2 PK WND 36037/1618 P0004 T10281033 $'
20180104,1600,ORH,WORCESTER_(ASOS),42.27,-71.88,23,24,41,45,45,19,'KORH 041630Z 01019G31KT 1/4SM R11/1400V2000FT SN FZFG VV005 M05/M07 A2922 RMK AO2 PK WND 35039/1609 SNB13 P0004 T10501067'
20180104,1600,RDG,READING/SPAATZ_FLD_(ASOS),40.38,-75.97,22,25,33,35,35,17,'KRDG 041625Z 34016G25KT 2 1/2SM -SN BLSN BR BKN031 OVC042 M06/M08 A2956 RMK AO2PK WND 34030/1610 SFC VIS 4 P0000 T10561083'
20180104,1600,MDT,MIDDLETOWN/OLMSTED,40.20,-76.77,23,21,31,32,32,13,'KMDT 041556Z 33018G27KT 8SM OVC041 M05/M11 A2966 RMK AO2 PK WND 33028/1543 SNE37 SLP048 P0000 T10501106'
20180104,1600,LNS,LANCASTER_(ASOS),40.12,-76.30,23,21,29,33,33,14,'KLNS 041553Z 32018G25KT 5SM HZ BKN047 OVC055 M05/M10 A2960 RMK AO2 PK WND 33029/1535 UPB31E45SNE31B36E38B45E46 SLP028 P0000 T10501100'
20180104,1600,AFJ,WASHINGTON_(AWOS),40.13,-80.28,15,17,23,,23,5,'KAFJ 041556Z AUTO 32015G20KT 10SM OVC024 M09/M15 A2994 RMK AO2 SLP160 T10941150 FZRANO'
20180104,1600,CXY,HARRISBURG/CAPITAL_(ASOS),40.22,-76.85,24,13,25,33,33,11,'KCXY 041556Z 33011G22KT 8SM FEW033 OVC045 M04/M12 A2967 RMK AO2 PK WND 33029/1502 SLP053 T10441117'
20180104,1600,BTP,BUTLER_CO._(AWOS),40.78,-79.95,14,10,,,,5,'KBTP 041556Z AUTO 31009KT 270V340 10SM OVC027 M10/M15 A2989 RMK AO2 SNE01 SLP149 P0000 T11001150 FZRANO'
20180104,1600,DUJ,DU_BOIS_(ASOS),41.18,-78.90,14,14,24,,24,5,'KDUJ 041632Z AUTO 30018G23KT 8SM BKN029 OVC035 M10/M16 A2974 RMK AO2 SNE13 P0000 T11001156'
20180104,1600,AOO,ALTOONA/BLAIR_CO_(ASOS),40.30,-78.32,18,16,24,30,30,9,'KAOO 041553Z AUTO 34014G21KT 4SM -SN OVC023 M08/M13 A2974 RMK AO2 PK WND 33026/1540 SLP096 P0000 T10781128'
20180104,1600,JST,JOHNSTOWN/CAMBRIA_(ASOS),40.32,-78.83,12,21,32,33,33,8,'KJST 041644Z AUTO 30017G25KT 3/4SM -SN BKN017 OVC024 M11/M14 A2969 RMK AO2 PK WND 31029/1622 P0000 T11111139'
20180104,1600,UNV,STATE_COLLEGE,40.85,-77.85,18,12,24,,24,9,'KUNV 041553Z 30010G21KT 10SM SCT021 BKN030 BKN110 M08/M13 A2974'
20180104,1600,AVP,WILKES-BARRE/SCRANT_(ASOS),41.33,-75.73,19,9,,,,14,'KAVP 041629Z 36012KT 1SM R04/5000VP6000FT -SN SCT017 BKN022 OVC039 M07/M10 A2958 RMK AO2 PRESFR P0001 T10721100'
20180104,1600,IPT,WILLIAMSPORT_(ASOS),41.25,-76.92,22,13,,,,12,'KIPT 041642Z 32014G23KT 2 1/2SM -SN BKN027 OVC035 M06/M11 A2969 RMK AO2 SNB00 P0000 T10561111'
20180104,1600,MUI,MUIR_AAF/INDIANTOWN,40.43,-76.57,22,15,30,39,39,12,'KMUI 041556Z 34013G26KT 4SM -SN FEW014 OVC075 M06/M11 A2960 RMK AO2A PK WND 34034/00 SNB1541 SLP034 P0000 T10581111 $'
20180104,1600,MSV,MONTICELLO(AWOS),41.70,-74.80,16,15,26,,26,12,'KMSV 041619Z AUTO 33013G21KT 1SM -SN OVC016 M08/M11 A2947 RMK AO2 PRESFR P0001 FZRANO RVRNO'
20180104,1600,BGM,BINGHAMTON/BROOME_(ASOS),42.22,-75.98,16,14,20,,20,10,'KBGM 041641Z 34014G19KT 1SM -SN FEW010 OVC018 M09/M12 A2958 RMK AO2 P0001 T10891117'
20180104,1600,ITH,ITHACA/TOMPKINS_CO.,42.48,-76.45,18,10,,,,14,'KITH 041556Z 32009KT 1 1/2SM R32/5000VP6000FT -SN BR BKN012 BKN025 OVC032 M08/M10 A2971 RMK AO2 SLP079 P0000 T10781100'
20180104,1600,ELM,ELMIRA/CORNING_RGNL_(ASOS),42.17,-76.90,20,3,,,,15,'KELM 041641Z 31013G17KT 1 3/4SM -SN BKN027 OVC041 M06/M10 A2970 RMK AO2 P0000 T10611100'
20180104,1600,RUT,RUTLAND_STATE(AWOS),43.53,-72.95,14,5,,,,10,'KRUT 041556Z AUTO 34005KT 1/2SM SN FZFG OVC012 M10/M12 A2965 RMK AO2 PRESFR SLP061 P0000 T11001117 FZRANO $'
20180104,1600,ABE,ALLENTOWN-BETHLEHEM_(ASOS),40.65,-75.43,22,15,,,,15,'KABE 041601Z 34014KT 2SM -SN FEW022 BKN032 OVC041 M06/M10 A2954 RMK AO2 P0000 T10561100 $'
20180104,1600,ALB,ALBANY_COUNTY_ARPT_(ASOS),42.75,-73.80,17,14,21,,21,12,'KALB 041633Z 33013KT 1/2SM R01/3000V3500FT SN FZFG VV011 M08/M11 A2960 RMK AO2 OCNL DRSN P0002 T10831111'
20180104,1600,GFL,GLEN_FALLS/WARREN_(ASOS),43.33,-73.62,14,5,,,,8,'KGFL 041617Z AUTO 35008KT 1/2SM -SN FZFG VV014 M08/M10 A2965 RMK AO2 PRESFR P0000 T10831100'
20180104,1600,OGS,OGDENSBURG_INTL,44.68,-75.47,21,3,,,,13,'KOGS 041635Z AUTO 02004KT 2 1/2SM -SN SCT006 BKN017 M06/M09 A2977 RMK AO2 T10611095'
20180104,1600,SYR,SYRACUSE/HANCOCK_(ASOS),43.12,-76.12,18,6,,,,16,'KSYR 041638Z 32008KT 1 3/4SM R28/6000VP6000FT -SN BR OVC023 M07/M08 A2973 RMK AO2 P0000 T10721083'
20180104,1600,PIT,PITTSBURGH_INTL_(ASOS),40.50,-80.22,13,23,31,32,32,4,'KPIT 041616Z 30016G22KT 9SM OVC032 M10/M15 A2990 RMK AO2 PK WND 33028/1554 SNE13 P0000 T11001150'
20180104,1600,BVI,BEAVER_FALLS_ARPT,40.77,-80.40,14,12,21,,21,3,'KBVI 041547Z 31010G18KT 10SM SCT027 OVC033 M10/M16 A2990'
20180104,1600,AGC,PITTSBURGH/ALLEGHENY_(ASOS),40.35,-79.93,13,18,32,32,32,2,'KAGC 041553Z 33016G28KT 10SM OVC024 M11/M17 A2988 RMK AO2 PK WND 32028/1549 SLP145 T11061167'
20180104,1600,LBE,LATROBE/WESTMORLAND,40.28,-79.40,16,12,17,,17,7,'KLBE 041550Z 31010G15KT 280V340 10SM BKN026 OVC032 M09/M14 A2988'
20180104,1600,CAK,AKRON-CANTON_RGNL_(ASOS),40.92,-81.43,12,17,26,,26,3,'KCAK 041621Z 30015KT 3SM -SN BKN023 BKN038 M11/M16 A2997 RMK AO2 P0000 T11061161'
20180104,1600,CLE,CLEVELAND/HOPKINS_(ASOS),41.42,-81.87,12,21,24,,24,3,'KCLE 041640Z 32015G23KT 10SM SCT024 OVC034 M11/M16 A3007 RMK AO2 SNE1554 P0000 T11061161 $'
20180104,1600,BKL,CLEVELAND/BURKELAKE_(ASOS),41.52,-81.68,13,23,,35,35,5,'KBKL 041553Z 31020KT 10SM BKN024 BKN029 OVC040 M11/M15 A3004 RMK AO2 PK WND 32030/1529 SNB03E45 SLP182 P0000 T11061150'
20180104,1600,MFD,MANSFIELD/LAHM_MUNI_(ASOS),40.82,-82.52,9,15,24,,24,1,'KMFD 041552Z 31013G21KT 10SM BKN023 M13/M17 A3002 RMK AO2 SLP191 T11281172'
20180104,1600,CGF,CLEVELAND/CUYAHOGA,41.57,-81.48,12,17,,,,5,'KCGF 041545Z 30015KT SM OVC022 M11/M15 A3002'
20180104,1600,YNG,YOUNGSTOWN_MUNI_(ASOS),41.27,-80.67,13,16,25,,25,5,'KYNG 041551Z 31014G22KT 7SM -SN BKN016 OVC039 M11/M15 A2992 RMK AO2 SLP154 BINOVC P0000 T11061150'
20180104,1600,ERI,ERIE_INTL_AIRPORT_(ASOS),42.08,-80.18,16,16,24,,24,6,'KERI 041643Z 30009G17KT 1 3/4SM -SN SCT017 OVC027 M09/M13 A2993 RMK AO2 VIS 1 1/4V4 SNB14 P0000 T10891128'
20180104,1600,BFD,BRADFORD_REGIONAL_(ASOS),41.80,-78.63,13,12,,32,32,8,'KBFD 041642Z AUTO 32014G25KT 2SM -SN BKN020 BKN028 OVC034 M11/M16 A2970 RMK AO2PK WND 32028/1558 SNE04B21 P0000 T11061156'
20180104,1600,FKL,FRANKLIN(AWOS),41.38,-79.87,16,9,18,,18,9,'KFKL 041640Z AUTO 1 3/4SM -SN FEW011 BKN019 OVC024 M09/M14 RMK AO2 VIS 3/4V5 P0000 FZRANO $'
20180104,1600,BUF,BUFFALO_INTL_ARPT_(ASOS),42.93,-78.73,16,13,,,,9,'KBUF 041639Z 32012KT 1/2SM R23/6000VP6000FT SN FEW008 BKN019 OVC035 M09/M12 A2986 RMK AO2 P0000 T10891117'
20180104,1600,IAG,NIAGARA_FALLS_INTL,43.10,-78.95,17,14,22,,22,9,'KIAG 041553Z 33012G19KT 3SM -SN BKN019 OVC026 M08/M13 A2988 RMK AO2 SLP139 P0000 T10831128'
20180104,1600,ROC,ROCHESTER/MONROE_CO_(ASOS),43.12,-77.67,21,17,22,,22,12,'KROC 041627Z 32013KT 4SM -SN FEW015 BKN022 OVC032 M07/M11 A2981 RMK AO2 P0000 T10671106'
20180104,1600,ORD,CHICAGO/O'HARE_ARPT_(ASOS),41.98,-87.90,5,16,,,,-7,'KORD 041551Z 35014KT 10SM FEW025 M15/M22 A3030 RMK AO2 SLP278 T11501217'
20180104,1600,DPA,W._CHICAGO/DU_PAGE_(ASOS),41.92,-88.25,3,14,,,,-6,'KDPA 041552Z 35012KT 10SM CLR M16/M21 A3031 RMK AO2 SLP283 T11611211'
20180104,1600,CPS,CAHOKIA/ST._LOUIS_(ASOS),38.56,-90.15,9,8,,,,-2,'KCPS 041553Z 30007KT 10SM CLR M13/M19 A3044 RMK AO2 SLP315 T11281189'
20180104,1600,CMI,CHAMPAIGN/URBANA_(ASOS),40.03,-88.28,-1,9,,,,-8,'KCMI 041553Z 32008KT 10SM CLR M18/M22 A3033 RMK AO2 SLP291 T11831222'
20180104,1600,DEC,DECATUR_AIRPORT,39.83,-88.87,2,10,,,,-6,'KDEC 041608Z 32009KT 6SM HZ CLR M17/M21 A3037 RMK AO2 T11671206'
20180104,1600,PIA,PEORIA_REGIONAL_(ASOS),40.67,-89.68,1,8,,,,-8,'KPIA 041554Z 01007KT 10SM CLR M17/M22 A3040 RMK AO2 SLP311 T11721222 $'
20180104,1600,SQI,STERLING_ROCKFALLS,41.75,-89.67,5,9,,,,-7,'KSQI 041556Z AUTO 33008KT 10SM CLR M15/M22 A3038 RMK AO2 SLP314 T11501217 FZRANO TSNO'
20180104,1600,FWA,FORT_WAYNE/BAER_FLD_(ASOS),41.00,-85.20,14,10,,,,4,'KFWA 041554Z 32009KT 10SM BKN046 M10/M16 A3018 RMK AO2 SLP234 BKN V OVC T11001156'
20180104,1600,GUS,GRISSOM_AFB/PERU,40.65,-86.15,2,6,,,,-2,'KGUS 041641Z AUTO 27005KT 10SM BKN029 BKN045 M15/M17 A3021 RMK AO2 CIG 029V045 SLP252 $'
20180104,1600,MIE,MUNCIE/JOHNSON_FLD_(ASOS),40.25,-85.40,9,7,,,,2,'KMIE 041553Z 30006KT 9SM OVC041 M13/M17 A3019 RMK AO2 SLP239 T11281167'
20180104,1600,GYY,GARY_REGIONAL,41.62,-87.42,9,12,,,,1,'KGYY 041545Z 29010KT 7SM -SN SCT023 M13/M17 A3029 RMK SNB02'
20180104,1600,MDW,CHICAGO/MIDWAY_(ASOS),41.78,-87.76,7,13,,,,-3,'KMDW 041553Z 32011KT 10SM FEW025 M14/M19 A3030 RMK AO2 SLP286 T11391194'
20180104,1600,UGN,CHICAGO/WAUKEGAN_(ASOS),42.42,-87.87,5,9,17,,17,-6,'KUGN 041555Z 34008G15KT 10SM CLR M15/M21 A3029 RMK AO2 SLP288 T11501211'
20180104,1600,SBN,SOUTH_BEND/ST._JOE_(ASOS),41.70,-86.32,13,0,,,,10,'KSBN 041606Z 00000KT 1 3/4SM -SN BR FEW015 BKN023 OVC036 M11/M12 A3020 RMK AO2 P0000 T11061122'
20180104,1600,EKM,ELKHART_MUNICIPAL,41.72,-86.00,,5,,,,-9999,'KEKM 041550Z 32004KT 10SM BKN032 M/M A3020'
20180104,1600,TOL,TOLEDO_EXPRESS_(ASOS),41.60,-83.80,9,12,,,,2,'KTOL 041552Z 31010KT 10SM OVC034 M13/M17 A3013 RMK AO2 SLP216 T11281167 $'
20180104,1600,FDY,FINDLAY_(ASOS),41.02,-83.67,10,13,,,,-1,'KFDY 041553Z AUTO 31011KT 10SM CLR M12/M18 A3012 RMK AO2 SLP212 T11221183'
20180104,1600,DTW,DETROIT_METRO_(ASOS),42.23,-83.33,11,13,,,,1,'KDTW 041553Z 34011KT 10SM OVC030 M12/M17 A3010 RMK AO2 SLP205 T11171172'
20180104,1600,ARB,ANN_ARBOR_MUNICIPAL_(ASOS),42.22,-83.75,11,18,25,30,30,-1,'KARB 041553Z 30016G22KT 9SM BKN030 M12/M18 A3010 RMK AO2 PK WND 32026/1541 SNB1458E09 SLP209 P0000 T11171183'
20180104,1600,DET,DETROIT_CITY_ARPT_(ASOS),42.42,-83.02,9,17,23,,23,-2,'KDET 041634Z 32014G23KT 10SM OVC029 M13/M19 A3010 RMK AO2 T11281194'
20180104,1600,YIP,DETROIT/WILLOW_RUN_(ASOS),42.23,-83.53,12,17,24,,24,1,'KYIP 041553Z 34015G21KT 10SM OVC033 M11/M17 A3010 RMK AO2 SLP204 T11111172'
20180104,1600,MTC,SELFRIDGE_ANGB,42.62,-82.83,7,20,26,32,32,-3,'KMTC 041556Z 33017G23KT 9SM DRSN SCT027 M14/M19 A3008 RMK AO2A PK WND 32028/19 SLP204 T11381194'
20180104,1600,PHN,ST.CLAIR_COUNTY_INT,42.92,-82.53,5,18,23,,23,-6,'KPHN 041621Z AUTO 29016G20KT 7SM -SN CLR M15/M21 A3007 RMK AO2'
20180104,1600,P59,COPPER_HARBOR_RAMOS_(ASOS),47.45,-87.90,4,14,,,,-5,'KP59 041551Z AUTO 01012KT M16/M21 A3032 RMK AO1 SLP295 T11561206'
20180104,1600,LAN,LANSING/CAPITAL_(ASOS),42.77,-84.60,9,12,,,,2,'KLAN 041553Z 34010KT 10SM BKN026 M13/M17 A3015 RMK AO2 SLP226 T11281167'
20180104,1600,JXN,JACKSON/REYNOLDS_(ASOS),42.27,-84.47,11,10,21,,21,2,'KJXN 041556Z 31009G18KT BKN020 BKN026 M12/M17 A3011 RMK AO2 SLP216 T11171167 $'
20180104,1600,BTL,BATTLE_CREEK_(ASOS),42.30,-85.25,13,13,22,,22,2,'KBTL 041553Z 35011G19KT 10SM FEW044 M11/M17 A3013 RMK AO2 SLP223 T11061167 $'
20180104,1600,RFD,ROCKFORD_(ASOS),42.20,-89.10,1,8,,,,-8,'KRFD 041554Z 35007KT 10SM CLR M17/M22 A3037 RMK AO2 SLP304 T11721222'
20180104,1600,MLI,MOLINE/QUAD_CITY_(ASOS),41.45,-90.52,3,7,,,,-7,'KMLI 041552Z 35006KT 10SM CLR M16/M22 A3040 RMK AO2 SLP309 T11611217'
20180104,1600,CID,CEDAR_RAPIDS_MUNI_(ASOS),41.88,-91.70,-2,9,,,,-8,'KCID 041552Z 33008KT 10SM BKN120 M19/M22 A3040 RMK AO2 SLP319 T11891222'
20180104,1600,AWG,WASHINGTON,41.28,-91.67,1,7,,,,-4,'KAWG 041635Z AUTO 32006KT 10SM CLR M17/M20 A3043 RMK AO2'
20180104,1600,BRL,BURLINGTON_MUNI_(ASOS),40.78,-91.13,1,6,,,,-6,'KBRL 041553Z AUTO 32005KT 7SM BKN120 M17/M21 A3040 RMK AO2 SLP314 T11721211'
20180104,1600,EOK,KEOKUK_MUNI,40.47,-91.43,1,5,,,,-6,'KEOK 041635Z AUTO 00000KT 10SM OVC110 M16/M20 A3042 RMK AO2'
20180104,1600,CCY,CHARLES_CITY,43.07,-92.62,1,6,,,,-9,'KCCY 041635Z AUTO 33006KT 10SM BKN070 OVC080 M16/M22 A3038 RMK AO2'
20180104,1600,TNU,NEWTON_MUNI,41.68,-93.02,1,5,,,,-6,'KTNU 041635Z AUTO 00000KT 10SM OVC110 M16/M20 A3041 RMK AO2 PWINO'
20180104,1600,OTM,OTTUMWA_INDUSTRIAL_(ASOS),41.10,-92.45,2,5,,,,-6,'KOTM 041553Z AUTO 32004KT 10SM FEW080 OVC110 M17/M21 A3041 RMK AO2 SLP320 T11671211 $'
20180104,1600,CNC,CHARITON,41.03,-93.37,1,0,,,,-6,'KCNC 041635Z AUTO 00000KT 10SM FEW110 M16/M20 A3040 RMK AO2'
20180104,1600,DBQ,DUBUQUE_MUNICIPAL_(ASOS),42.40,-90.70,0,10,,,,-8,'KDBQ 041553Z 02009KT 10SM CLR M18/M22 A3035 RMK AO2 SLP307 T11781222'
20180104,1600,CWI,CLINTON_MUNI_(AWOS),41.83,-90.33,-1,10,,,,-6,'KCWI 041556Z AUTO 35009KT 10SM CLR M18/M21 A3039 RMK AO2 SLP324 T11831211 FZRANO'
20180104,1600,MXO,MONTICELLO_MUNI,42.23,-91.17,-2,5,,,,-8,'KMXO 041635Z AUTO 33006KT 10SM CLR M18/M22 A3039 RMK AO2'
20180104,1600,DEH,DECORAH,43.28,-91.73,-2,5,,,,-8,'KDEH 041635Z AUTO VRB03KT 10SM BKN100 M18/M22 A3035 RMK AO2'
20180104,1600,ALO,WATERLOO_MUNICIPAL_(ASOS),42.55,-92.40,1,3,,,,-7,'KALO 041554Z 33003KT 10SM OVC120 M17/M22 A3040 RMK AO2 SLP320 T11721217'
20180104,1600,MUT,MUSCATINE,41.37,-91.15,0,3,,,,-8,'KMUT 041635Z AUTO 30004KT 10SM OVC120 M18/M22 A3044 RMK AO2'
20180104,1600,OLZ,OELWEIN,42.68,-91.97,0,5,,,,-6,'KOLZ 041635Z AUTO 36005KT 10SM FEW110 M17/M21 A3038 RMK AO2'
20180104,1600,OXV,KNOXVILLE,41.30,-93.12,1,0,,,,-8,'KOXV 041635Z AUTO 00000KT 10SM BKN100 M16/M21 A3040 RMK AO2'
20180104,1600,CON,CONCORD_MUNICIPAL_(ASOS),43.20,-71.50,20,14,,,,17,'KCON 041551Z AUTO 35012KT 1/4SM FZFG VV006 M07/M08 A2954 RMK AO2 SNEMM SLP011 P0008 T10671083 PWINO FZRANO $'
20180104,1600,PSM,PEASE_AFB/PORTSMOUT,43.08,-70.82,23,21,25,,25,20,'KPSM 041632Z 36019G25KT 1/4SM R34/4000V6000FT -SN FZFG SCT002 OVC009 M04/M06 A2934 RMK AO2A'
20180104,1600,PWM,PORTLAND_INTL_JET_(ASOS),43.65,-70.32,21,14,22,32,32,19,'KPWM 041644Z 01015G28KT 1/2SM +SN VV012 M05/M06 A2941 RMK AO2 PK WND 01028/1641PRESFR P0003 T10501061 $'
20180104,1600,SFM,SANFORD_MUNI_(AWOS),43.40,-70.72,21,20,28,,28,18,'KSFM 041608Z AUTO 01017G22KT 1/4SM SN FZFG OVC008 M06/M08 A2947 RMK AO2 PRESFR P0000 FZRANO RVRNO'
20180104,1600,WVL,WATERVILLE_(AWOS),44.53,-69.68,18,13,,,,16,'KWVL 041641Z AUTO 02011KT 1/4SM +SN FZFG OVC006 M06/M07 A2951 RMK AO2 PRESFR P0000 FZRANO'
20180104,1600,BHB,BAR_HARBOR_(AWOS),44.45,-68.37,33,20,26,30,30,28,'KBHB 041633Z AUTO 02019G25KT 1/2SM -SN FZFG BKN006 OVC015 M01/M02 A2946 RMK AO2PK WND 03026/1622 RAE00SNB00 CIG 005V009 PRESFR FZRANO RVRNO PNO $'
20180104,1600,RKD,ROCKLAND/KNOX(AWOS),44.07,-69.10,30,15,28,,28,28,'KRKD 041632Z AUTO 02013G24KT 340V050 3/4SM -SN BR BKN008 BKN013 OVC018 M01/M02 A2942 RMK AO2 CIG 005V009 PRESFR P0000 FZRANO'
20180104,1600,FVE,FRENCHVILLE_(ASOS),47.28,-68.32,14,3,,,,10,'KFVE 041637Z AUTO 01005KT 1 1/4SM -SN BR OVC006 M10/M12 A2980 RMK AO2 SNB19 P0001 T11001117'
20180104,1600,BGR,BANGOR_INTL_ARPT__(ASOS),44.80,-68.83,17,14,,,,14,'KBGR 041553Z 01012KT 3/4SM R15/3500VP6000FT -SN BR VV018 M08/M10 A2965 RMK AO2 PRESFR SLP047 P0000 T10831100'
20180104,1600,VSF,SPRINGFIELD/HARTNES_(ASOS),43.35,-72.52,17,5,,,,14,'KVSF 041554Z AUTO VRB04KT 1/4SM SN FZFG VV008 M08/M10 A2960 RMK AO2 PRESFR SLP037 P0005 T10831100'
20180104,1600,LEB,LEBANON_MUNICIPAL_(ASOS),43.63,-72.30,12,7,,,,9,'KLEB 041611Z 36006KT 1/4SM -SN FZFG VV004 M11/M13 A2961 RMK AO2 PRESFR P0000 T11061128'
20180104,1600,MWN,MOUNT_WASHINGTON,44.27,-71.30,10,51,58,,58,10,'KMWN 041550Z 08044G50KT 0SM SN FZFG BLSN VV000 M12/M12 RMK VRY LGT ICG'
20180104,1600,HIE,WHITEFIELD_(ASOS),44.35,-71.55,14,5,,,,11,'KHIE 041621Z AUTO 36007KT 1/2SM SN FZFG VV013 M10/M12 A2960 RMK AO2 PRESFR P0001 T11001117'
20180104,1600,MPV,BARRE-MONTPELIER_(ASOS),44.20,-72.57,10,5,,,,7,'KMPV 041616Z AUTO 33004KT 3/4SM -SN BR VV020 M12/M13 A2968 RMK AO2 P0000 T11171133'
20180104,1600,LCI,LACONIA_MUNI_(AWOS),43.57,-71.42,17,0,,,,14,'KLCI 041556Z AUTO 00000KT 1/4SM +SN FZFG OVC007 M08/M10 A2955 RMK AO2 SLP028 P0007 T10831100 FZRANO'
20180104,1600,EEN,KEENE/DILLANT(AWOS),42.90,-72.27,16,14,,,,14,'KEEN 041620Z AUTO 34014G19KT 1/4SM SN FZFG OVC007 M09/M10 A2946 RMK AO2 PRESFR P0000 FZRANO'
20180104,1600,BTV,BURLINGTON_INTL_(ASOS),44.47,-73.15,18,12,,,,10,'KBTV 041606Z 33009KT 1SM R15/P6000FT -SN OVC023 M08/M12 A2974 RMK AO2 P0000 T10781117'
20180104,1600,LEW,AUBURN-LEWISTON,44.05,-70.28,19,14,,,,17,'KLEW 041556Z AUTO 36012KT 1/2SM SN FZFG OVC009 M07/M08 A2960 RMK AO2 CIG 007V011 SLP041 P0000 T10721083 FZRANO'
20180104,1600,AUG,AUGUSTA_STATE_ARPT_(ASOS),44.32,-69.80,19,16,,,,16,'KAUG 041640Z AUTO 35014KT 1/2SM FZFG VV010 M07/M08 A2953 RMK AO2 SNEMM PRESFR P0001 T10671083 PWINO FZRANO $'
20180104,1600,MLT,MILLINOCKET_MUNI_(ASOS),45.65,-68.68,16,5,,,,14,'KMLT 041639Z AUTO 03008KT 010V080 3/4SM -SN BR OVC005 M08/M09 A2971 RMK AO2 SNB13 P0000 T10831094 TSNO'
20180104,1600,MSS,MASSENA/RICHARDS_(ASOS),44.93,-74.85,18,10,,,,16,'KMSS 041631Z AUTO 03006KT 1 1/4SM -SN BR BKN029 BKN038 OVC047 M08/M09 A2980 RMKAO2 P0000 T10781094'
20180104,1600,ART,WATERTOWN_INTL_ARPT,44.00,-76.02,18,3,,,,14,'KART 041556Z AUTO 30003KT 6SM BR SCT060 OVC075 M08/M10 A2978 RMK AO2 SLP092 T10781100'
20180104,1600,SLK,SARANAC_LAKE/ADIRON_(ASOS),44.38,-74.20,14,,,,,9,'KSLK 041635Z AUTO 2 1/2SM -SN BKN031 OVC039 M10/M13 A2962 RMK AO2 SNB07 P0000 T11001133 $'
20180104,1600,GRR,GRAND_RAPIDS_INTL_(ASOS),42.88,-85.52,12,16,,,,2,'KGRR 041553Z 36014KT 9SM -SN FEW026 SCT033 BKN044 M11/M17 A3017 RMK AO2 SLP233 P0000 T11111167'
20180104,1600,BEH,BENTON_HARBOR/ROSS_(ASOS),42.13,-86.43,14,3,,,,9,'KBEH 041641Z AUTO 09004KT 10SM FEW019 BKN030 OVC035 M08/M13 A3019 RMK AO2 SNE29P0000 T10831128'
20180104,1600,AZO,KALAMAZOO_INTL_ARPT_(ASOS),42.23,-85.55,14,13,,,,3,'KAZO 041553Z 35011KT 10SM BKN050 M10/M16 A3015 RMK AO2 SLP228 T11001161'
20180104,1600,MKG,MUSKEGON_(ASOS),43.17,-86.25,14,12,,,,4,'KMKG 041604Z 02010KT 10SM SCT022 SCT026 BKN044 M11/M17 A3021 RMK AO2 CIG 029 RWY 14 T11061167'
20180104,1600,FNT,FLINT/BISHOP_INTL_(ASOS),42.97,-83.75,6,14,,,,-3,'KFNT 041553Z 01012KT 10SM OVC029 M14/M19 A3013 RMK AO2 SLP221 T11441194'
20180104,1600,PTK,PONTIAC-OAKLAND_(ASOS),42.67,-83.42,6,21,26,,26,-2,'KPTK 041553Z 33018G23KT 4SM BLSN BKN028 M14/M19 A3007 RMK AO2 SNE46 SLP204 P0000 T11441189'
20180104,1600,MBS,SAGINAW/TRI_CITY_(ASOS),43.53,-84.08,6,14,,,,-3,'KMBS 041553Z 01011KT 10SM SCT030 M14/M19 A3016 RMK AO2 SLP228 T11441194'
20180104,1600,HTL,HOUGHTON_LAKE_ARPT_(ASOS),44.37,-84.68,1,17,25,,25,-9,'KHTL 041553Z AUTO 34015G22KT 10SM CLR M17/M23 A3014 RMK AO2 SLP234 T11721228'
20180104,1600,CAD,CADILLAC/WEXFORD_CO,44.28,-85.42,3,9,17,,17,-2,'KCAD 041635Z AUTO 36010G15KT 5SM HZ OVC030 M16/M20 A3011 RMK AO2 T11631204'
20180104,1600,MBL,MANISTEE_(AWOS),44.27,-86.25,14,13,,,,5,'KMBL 041632Z AUTO 03009KT 3/4SM -SN SCT009 BKN015 OVC020 M12/M15 A3021 RMK AO2 FZRANO PNO $'
20180104,1600,TVC,TRAVERSE_CITY/CHERR_(ASOS),44.73,-85.58,8,12,22,,22,-1,'KTVC 041632Z 01014G20KT 2SM -SN OVC023 M14/M18 A3021 RMK AO2 P0000 T11391183'
20180104,1600,APN,ALPENA_CO._REGIONAL_(ASOS),45.07,-83.57,1,13,,,,-3,'KAPN 041607Z AUTO 33011G17KT 1SM -SN BR BKN016 OVC025 M17/M19 A3016 RMK AO2 P0000 T11721194'
20180104,1600,OSC,WURTSMITH_AFB,44.45,-83.40,1,15,26,,26,-10,'KOSC 041635Z AUTO 32020G25KT 5SM HZ CLR M17/M23 A3012 RMK AO2 T11701231'
20180104,1600,MKE,MILWAUKEE/MITCHELL_(ASOS),42.95,-87.90,7,12,24,,24,-5,'KMKE 041552Z 33010G21KT 10SM FEW023 M14/M21 A3030 RMK AO2 SLP280 T11391206'
20180104,1600,ARV,MINOCQUA/WOODRUFF,45.93,-89.73,3,9,,,,-4,'KARV 041635Z AUTO 36009KT 5SM HZ OVC022 M16/M20 A3024 RMK AO2 T11611203'
20180104,1600,MWC,MILWAUKEE/TIMMERMAN,43.12,-88.03,5,10,18,,18,-8,'KMWC 041545Z 33009G16KT 10SM SKC M15/M22 A3032'
20180104,1600,MSN,MADISON/DANE_RGNL_(ASOS),43.13,-89.33,0,6,,,,-7,'KMSN 041553Z 32005KT 10SM CLR M18/M22 A3034 RMK AO2 SLP298 T11781217'
20180104,1600,JVL,JANESVILLE/ROCK_CO.,42.62,-89.03,1,7,,,,-4,'KJVL 041545Z 34006KT 10SM SKC M17/M20 A3033'
20180104,1600,LNR,LONE_ROCK_REGIONAL_(ASOS),43.22,-90.18,-2,6,,,,-7,'KLNR 041556Z AUTO 25005KT 10SM CLR M19/M22 A3039 RMK AO2 SLP305 T11891217'
20180104,1600,LSE,LA_CROSSE_MUNICIPAL,43.87,-91.25,-1,6,,,,-9,'KLSE 041553Z 32005KT 10SM CLR M18/M23 A3042 RMK AO2 SLP333 T11831228'
20180104,1600,EAU,EAU_CLAIRE_CO._ARPT_(ASOS),44.87,-91.48,-9,0,,,,-12,'KEAU 041556Z 00000KT 10SM CLR M23/M24 A3039 RMK AO2 SLP322 T12281244'
20180104,1600,VOK,VOLK/CAMP_DOUGLAS,43.93,-90.27,0,8,,,,-8,'MSSM 041550Z 01008KT CAVOK 24/14 Q1014 A2995'
20180104,1600,RST,ROCHESTER_MUNICIPAL_(ASOS),43.92,-92.50,-3,6,,,,-7,'KRST 041554Z 34005KT 10SM OVC100 M19/M22 A3035 RMK AO2 SLP317 T11941217'
20180104,1600,GRB,GREEN_BAY/STRAUBEL_(ASOS),44.48,-88.13,3,13,,,,-8,'KGRB 041553Z 33011KT 10SM CLR M16/M22 A3032 RMK AO2 SLP286 T11611222'
20180104,1600,MTW,MANITOWAC_MUNI_AWOS,44.13,-87.68,4,16,,,,-6,'KMTW 041556Z AUTO 33014KT 10SM CLR M16/M21 A3030 RMK AO2 SLP286 T11561211 FZRANO'
20180104,1600,OSH,OSHKOSH/WITTMAN_FLD_(ASOS),43.98,-88.55,-1,7,,,,-8,'KOSH 041553Z 29006KT 10SM CLR M18/M22 A3032 RMK AO2 SLP305 T11831222'
20180104,1600,ATW,APPLETON/OUTAGAMIE,44.25,-88.52,1,7,,,,-9,'KATW 041545Z 31006KT 10SM SKC M17/M23 A3029'
20180104,1600,SUE,STURGEON_BAY,44.85,-87.42,4,15,,,,-6,'KSUE 041556Z AUTO 33013KT 10SM CLR M16/M21 A3029 RMK AO2 SLP284 T11561211 FZRANO'
20180104,1600,AUW,WAUSAU_MUNICIPAL_(ASOS),44.93,-89.63,-2,6,,,,-7,'KAUW 041554Z AUTO 30005KT 10SM OVC021 M19/M22 A3028 RMK AO2 SLP295 T11891217'
20180104,1600,RYV,WATERTOWN,43.17,-88.72,-1,5,,,,-7,'KRYV 041635Z AUTO 32007KT 10SM CLR M17/M21 A3032 RMK AO2 T11701210'
20180104,1600,CWA,MOSINEE/CENTRAL_WI,44.78,-89.67,-4,3,,,,-8,'KCWA 041545Z 31003KT 10SM OVC020 M20/M22 A3030'
20180104,1600,PBH,PHILLIPS/PRICE_CO.,45.70,-90.40,-7,0,,,,-10,'KPBH 041635Z AUTO 00000KT 10SM OVC020 M19/M21 A3028 RMK AO2 T11911212'
20180104,1600,ESC,ESCANABA_(AWOS),45.75,-87.03,5,8,,,,-4,'KESC 041635Z AUTO 33008KT 10SM OVC028 M14/M19 A3027 RMK AO2 FZRANO'
20180104,1600,MNM,MENOMINEE_(AWOS),45.13,-87.63,6,15,21,,21,-6,'KMNM 041556Z AUTO 34013G18KT 10SM CLR M14/M21 A3031 RMK AO2 SLP286 T11441211 FZRANO $'
20180104,1600,FFL,FAIRFIELD,41.05,-91.98,0,6,,,,-9,'KFFL 041635Z AUTO 30005KT 10SM FEW110 M17/M22 A3042 RMK AO2 PWINO'
20180104,1600,ORB,ORR,48.02,-92.87,-22,0,,,,-29,'KORB 041633Z AUTO 00000KT 10SM CLR M28/M32 A3035 RMK AO2'
20180104,1600,COQ,CLOQUET_(AWOS),46.70,-92.50,-11,7,,,,-18,'KCOQ 041635Z AUTO 01004KT 10SM CLR M23/M28 A3036 RMK AO2'
20180104,1600,FBL,FARIBAULT_MUNI_AWOS,44.33,-93.32,1,0,,,,-8,'KFBL 041635Z AUTO 00000KT 10SM BKN085 M17/M22 A3040 RMK AO2'
20180104,1600,OWA,OWATONNA_(AWOS),44.12,-93.25,0,0,,,,-8,'KOWA 041633Z AUTO 00000KT 10SM SCT090 M17/M22 A3038 RMK AO2'
20180104,1600,RGK,RED_WING,44.58,-92.48,-4,0,,,,-15,'KRGK 041635Z AUTO 00000KT 10SM CLR M19/M25 A3043 RMK AO2'
20180104,1600,MIC,MINNEAPOLIS/CRYSTAL_(ASOS),45.07,-93.35,-3,0,,,,-12,'KMIC 041553Z 00000KT 10SM OVC085 M19/M24 A3042 RMK AO2 SLP327 T11941244'
20180104,1600,FCM,MINNEAPOLIS/FLY_CLD_(ASOS),44.83,-93.45,0,3,,,,-9,'KFCM 041553Z VRB03KT 10SM FEW080 OVC100 M18/M23 A3040 RMK AO2 SLP321 T11781228'
20180104,1600,MSP,MINNEAPOLIS-ST_PAUL_(ASOS),44.88,-93.22,-2,3,,,,-8,'KMSP 041553Z 05003KT 10SM BKN090 M19/M22 A3043 RMK AO2 SLP328 T11891222'
20180104,1600,STP,SAINT_PAUL_DOWNTOWN_(ASOS),44.95,-93.07,-3,3,,,,-11,'KSTP 041553Z 36003KT 10SM OVC095 M19/M24 A3045 RMK AO2 SLP331 T11941239'
20180104,1600,ONA,WINONA_MUNI_(AWOS),44.08,-91.70,-4,0,,,,-9,'KONA 041635Z AUTO 31004KT 10SM M18/M22 A3043 RMK AO2'
20180104,1600,AEL,ALBERT_LEA_(AWOS),43.68,-93.37,1,0,,,,-9,'KAEL 041636Z AUTO 00000KT 10SM BKN055 M17/M23 A3036 RMK AO2'
20180104,1600,SGS,SOUTH_ST_PAUL_MUNI,44.85,-93.15,-2,0,,,,-10,'KSGS 041635Z AUTO 00000KT 10SM OVC090 M18/M23 A3043 RMK AO2 T11851235'
20180104,1600,HUL,HOULTON_INTL_ARPT_(ASOS),46.12,-67.80,10,8,,,,8,'KHUL 041553Z AUTO 02007KT 10SM FEW006 OVC090 M12/M13 A2979 RMK AO2 PRESFR SLP099 T11221133'
20180104,1600,CAR,CARIBOU_MUNICIPAL_(ASOS),46.87,-68.02,15,6,,,,9,'KCAR 041617Z AUTO 01008KT 10SM SCT009 SCT029 OVC037 M09/M13 A2982 RMK AO2 T10941128'
20180104,1600,PQI,PRESQUE_ISLE_(AWOS),46.68,-68.05,9,0,,,,4,'KPQI 041607Z AUTO 00000KT 10SM SCT011 SCT030 OVC038 M13/M15 A2984 RMK AO2 FZRANO'
20180104,1600,ANJ,SAULT_STE_MARIE___(ASOS),46.47,-84.37,-10,8,,,,-21,'KANJ 041555Z AUTO 35007KT 10SM CLR M23/M29 A3025 RMK AO2 SLP265 T12331294'
20180104,1600,CIU,CHIPPEWA_INTL(AWOS),46.25,-84.47,-11,9,,,,-21,'KCIU 041556Z AUTO 35008KT 10SM CLR M24/M29 A3024 RMK AO2 SLP273 T12391294 FZRANO PNO $'
20180104,1600,PLN,PELLSTON/EMMET_CO_(ASOS),45.57,-84.80,-4,10,,,,-16,'KPLN 041554Z AUTO 36009KT 10SM CLR M20/M27 A3025 RMK AO2 SLP265 T12001267'
20180104,1600,RHI,RHINELANDER/ONEIDA_(ASOS),45.63,-89.47,2,8,,,,-7,'KRHI 041553Z AUTO 36007KT 10SM OVC022 M17/M22 A3024 RMK AO2 SLP287 T11671217'
20180104,1600,IMT,IRON_MOUNTAIN/FORD_(ASOS),45.82,-88.12,2,12,,,,-7,'KIMT 041554Z AUTO 33010KT 9SM OVC025 M17/M22 A3025 RMK AO2 SLP279 T11671217'
20180104,1600,CMX,HOUGHTON_CO_MEM_(ASOS),47.17,-88.50,3,10,,,,-7,'KCMX 041641Z AUTO 35008KT 1 1/4SM -SN BKN023 OVC029 M16/M21 A3028 RMK AO2 P0000T11611211'
20180104,1600,TWM,TWO_HARBORS,47.05,-91.75,0,0,,,,-11,'KTWM 041635Z AUTO 00000KT 10SM CLR M14/M22 A3035 RMK AO2'
20180104,1600,IWD,IRONWOOD_(AWOS),46.53,-90.13,3,6,,,,0,'KIWD 041642Z AUTO VRB05KT 1 3/4SM -SN BKN020 OVC026 M15/M19 A3031 RMK AO2 VIS 1V5 FZRANO PNO $'
20180104,1600,DLH,DULUTH_INTL_AIRPORT_(ASOS),46.83,-92.18,-12,10,,,,-18,'KDLH 041555Z 36009KT 10SM CLR M24/M28 A3033 RMK AO2 SLP323 T12441278'
20180104,1600,HIB,HIBBING-CHISHOLM_(ASOS),47.38,-92.83,-18,0,,,,-20,'KHIB 041553Z AUTO 00000KT 10SM CLR M28/M29 A3036 RMK AO2 SLP336 T12781289'
20180104,1600,GPZ,GRAND_RAPIDS(AWOS),47.22,-93.52,-10,0,,,,-15,'KGPZ 041635Z AUTO 31003KT 3SM HZ CLR M22/M27 A3040 RMK AO2 FZRANO'
20180104,1600,ELO,ELY_MUNI_(AWOS),47.82,-91.83,-24,0,,,,-29,'KELO 041635Z AUTO 04003KT 10SM CLR M27/M30 A3036 RMK AO2'
20180104,1600,INL,INTERNATIONAL_FALLS_(ASOS),48.57,-93.38,-24,0,,,,-28,'KINL 041555Z AUTO 00000KT 10SM CLR M31/M33 A3041 RMK AO2 SLP351 T13111333'
20180104,1600,EVM,EVELETH_MUNI_(AWOS),47.40,-92.50,-17,0,,,,-22,'KEVM 041607Z AUTO 00000KT 10SM CLR M27/M30 A3036 RMK AO2'
20180104,1600,CBG,CAMBRIDGE_MUNI,45.57,-93.27,-8,5,,,,-15,'KCBG 041635Z AUTO 00000KT 10SM M21/M26 A3043 RMK AO2'
20180104,1600,BFW,SILVER_BAY,47.20,-91.40,-8,5,,,,-18,'KBFW 041634Z AUTO 00000KT 10SM CLR M20/M28 A3035 RMK AO2'
20180104,1600,AUM,AUSTIN_MUNI,43.67,-92.93,1,0,,,,-8,'KAUM 041614Z AUTO 00000KT 10SM SCT110 M17/M22 A3036 RMK AO2'
20180104,1600,GTB,FORT_DRUM/WHEELER,44.05,-75.73,18,7,,,,12,'KGTB 041619Z AUTO 36006KT 10SM -UP BKN024 BKN039 OVC049 M08/M11 A2973 RMK AO2 UPB09 CIG 024V043 BKN024 V SCT CIG 020 RWY03 SLP080'
20180104,1600,MHT,MANCHESTER_AIRPARK_(ASOS),42.93,-71.43,20,18,,,,17,'KMHT 041617Z 36018KT 1/4SM R35/1400V1800FT +SN FZFG VV004 M07/M08 A2940 RMK AO2TWR VIS 1/4 PRESFR P0001 T10671078 $'
20180104,1600,ASH,NASHUA/BOIRE_FIELD,42.78,-71.52,21,14,22,,22,19,'KASH 041556Z 34012G19KT 1/4SM +SN FZFG OVC004 M06/M07 A2944 RMK AO2 PRESFR SLP981 P0000 T10611072'
20180104,1600,ARR,AURORA_MUNICIPAL_(ASOS),41.77,-88.47,-1,10,,,,-8,'KARR 041552Z 33009KT 10SM CLR M18/M22 A3033 RMK AO2 SLP292 T11831222'
20180104,1600,PWK,CHICAGO/PALWAUKEE_(ASOS),42.12,-87.92,5,13,,,,-6,'KPWK 041552Z 33011KT 10SM CLR M15/M21 A3032 RMK AO2 SLP284 T11501211'
20180104,1600,JFK,NEW_YORK/JF_KENNEDY_(ASOS),40.65,-73.78,22,35,45,47,47,21,'KJFK 041551Z 34030G39KT 1/8SM R04R/0800V1400FT SN BLSN FZFG VV004 M06/M06 A2933 RMK AO2 PK WND 34041/1504 SLP933 SNINCR 1/5 P0001 T10561061 $'
20180104,1600,FRG,FARMINGDALE/REPUBLC_(ASOS),40.73,-73.42,24,26,39,43,43,22,'KFRG 041635Z AUTO 35024G36KT 1/4SM FZFG VV006 M04/M06 A2921 RMK AO2 PK WND 35037/1555 T10441061 PWINO FZRANO $'
20180104,1600,FOK,WESTHAMPTON_BEACH_(ASOS),40.85,-72.63,26,31,45,47,47,24,'KFOK 041553Z 35027G39KT 1/4SM FZFG VV005 M03/M04 A2915 RMK AO2 PK WND 36041/1529 PRESFR SLP870 T10331044 PWINO FZRANO $'
20180104,1600,BED,HANSCOM_FLD/BEDFORD_(ASOS),42.47,-71.28,23,16,28,,28,21,'KBED 041632Z 01013G21KT 1/4SM R11/1200V1600FT +SN FZFG VV004 M04/M04 A2925 RMK AO2 PRESFR P0000 T10391044'
20180104,1600,LWM,LAWRENCE_MUNICIPAL_(ASOS),42.72,-71.12,27,22,31,39,39,21,'KLWM 041642Z 36022G31KT 1/4SM FZFG VV004 M03/M05 A2927 RMK AO2 PK WND 02034/1558 SNEMM P0002 T10281050 $'
20180104,1600,CEF,CHICOPEE/WESTOVER,42.20,-72.53,18,25,32,39,39,14,'KCEF 041556Z 36019G28KT 1/4SM R23/3500V4000FT +SN FZFG VV003 M08/M10 A2937 RMK AO2A PK WND 02034/54 SLP956 SNINCR 1/6 T10801102'
20180104,1600,BAF,WESTFIELD/BARNES_(ASOS),42.15,-72.72,19,22,32,36,36,19,'KBAF 041553Z 01017KT 1/4SM R20/1800V2400FT FZFG VV005 M07/M07 A2940 RMK AO2 PK WND 36031/1508 PRESFR SLP965 P0002 T10671072 $'
20180104,1600,SCH,SCHENECTADY_AIRPORT,42.85,-73.93,16,5,,,,12,'KSCH 041545Z 29004KT 1SM -SN OVC016 M09/M11 A2969'
20180104,1600,FFO,WRIGHT-PATERSON_AFB,39.83,-84.05,12,13,,,,3,'KFFO 041556Z 33011KT 10SM SCT031 BKN043 BKN200 M11/M17 A3015 RMK AO2A SLP229 T11061169'
20180104,1600,ADW,ANDREWS_AFB,38.82,-76.87,,,,,,-9999,'KADW 041644Z 31021G29KT 3SM -BLSN OVC012 M06/M09 A2962 RMK AO2A SNB09E15UPB15 SLP041 $'
20180104,1600,LFI,LANGLEY_AFB/HAMPTON,37.08,-76.37,24,20,26,39,39,19,'KLFI 041555Z 30017G23KT 3/4SM R08/4500VP6000FT -SN VV010 M05/M07 A2964 RMK PK WND 29034/49 VIS 1/4 RWY26 SLP044 P0000 T10471072 $'
20180104,1600,MTV,MARTINSVILLE,36.63,-80.02,25,20,28,,28,-1,'KMTV 041635Z AUTO 35020G28KT 10SM CLR M04/M18 A2986 RMK AO2 T10361185'
20180104,1600,HOP,FORT_CAMPBELL_(AAF),36.67,-87.50,12,6,,,,1,'KHOP 041556Z AUTO 35005KT 10SM CLR M11/M17 A3035 RMK AO2 SLP289 T11121171'
20180104,1600,BWG,BOWLING_GREEN_(ASOS),36.97,-86.42,15,6,,,,3,'KBWG 041553Z AUTO 36005KT 10SM CLR M09/M16 A3032 RMK AO2 SLP277 T10941161'
20180104,1600,FBG,FORT_BRAGG/SIMMONS,35.13,-78.93,31,13,23,,23,13,'KFBG 041624Z AUTO 32013G22KT 10SM CLR 00/M10 A2983 RMK AO2 WSHFT 10 SLP107 $'
20180104,1600,ECG,ELIZABETH_CITY(CGS)_(ASOS),36.27,-76.18,25,22,37,39,39,24,'KECG 041640Z 29021G28KT 1SM BR FEW013 OVC023 M03/M04 A2968 RMK AO2 PK WND 29034/1603 T10331044'
20180104,1600,AEX,ENGLAND_AFB/ALEXAND_(ASOS),31.33,-92.55,34,5,,,,18,'KAEX 041553Z VRB04KT 10SM CLR 01/M08 A3040 RMK AO2 SLP299 T00111078'
20180104,1600,GPT,GULFPORT-BILOXI_(ASOS),30.40,-89.07,37,12,,,,16,'KGPT 041553Z 35010KT 10SM CLR 03/M09 A3034 RMK AO2 SLP272 T00281089'
20180104,1600,BIX,KEESLER_AFB/BILOXI,30.42,-88.92,37,9,,,,15,'KBIX 041556Z AUTO 01008KT 10SM CLR 03/M09 A3033 RMK AO2 SLP274 T00281095'
20180104,1600,PAM,TYNDALL_AFB,30.07,-85.58,37,,,,,15,'KPAM 041556Z AUTO 33007KT 10SM M 03/M10 A3024 RMK AO2 SLP244 T00271096 TSNO $'
20180104,1600,HRT,HURLBURT_FIELD_(AF),30.43,-86.68,37,15,,,,13,'KHRT 041556Z AUTO 35013KT 10SM CLR 03/M10 A3025 RMK AO2 SLP246 T00281105 $'
20180104,1600,SVN,HUNTER_(AAF),32.02,-81.15,31,14,,,,21,'KSVN 041556Z AUTO 28012KT 10SM CLR 00/M06 A2998 RMK AO2 SNB13E19 SLP156 P0000 T10051059 $'
20180104,1600,VAD,MOODY_AFB/VALDOSTA,30.97,-83.20,37,12,,,,13,'KVAD 041556Z AUTO 28010KT 10SM CLR 03/M11 A3011 RMK AO2 SLP201 T00251107 $'
20180104,1600,MCF,MACDILL_AFB/TAMPA,27.85,-82.52,,,,,,-9999,'KMCF 041556Z AUTO 35007KT 10SM CLR 09/01 A3018 RMK AO2 DZB1456E24 SLP223 P0000 T00910005 FZRANO $'
20180104,1600,SSC,SHAW_AFB/SUMTER,33.97,-80.47,32,8,,,,13,'KSSC 041556Z AUTO 30007KT 10SM CLR 00/M11 A2990 RMK AO2 SLP129 T00021106 $'
20180104,1600,MYR,MYRTLE_BEACH(CIV),33.68,-78.93,33,10,,,,17,'KMYR 041556Z 31009KT 10SM CLR 01/M08 A2991 RMK AO2 SLP130 T00061083 FZRANO'
20180104,1600,CRE,NORTH_MYRTLE_BEACH_(ASOS),33.82,-78.72,33,10,17,,17,13,'KCRE 041553Z 31009G15KT 280V350 10SM CLR 01/M11 A2988 RMK AO1 SLP120 T00061106'
20180104,1600,TTS,NASA_SHUTTLE_FCLTY,28.62,-80.72,44,12,18,,18,23,'KTTS 041558Z AUTO 29010G16KT 10SM CLR 07/M05 A3012 RMK AO2 SLP204 T00651049 $'
20180104,1600,COF,PATRICK_AFB/COCOA_B,28.23,-80.60,46,14,,,,20,'KCOF 041556Z AUTO 28012KT 10SM CLR 08/M07 A3013 RMK AO2 SLP207 T00781067'
20180104,1600,MMCP,CAMPECHE/IGNACIO__&,19.85,-90.55,70,14,,,,61,'MMCP 041549Z 36012KT 6SM BKN030 BKN120 21/16 A3020 RMK 8/410'
20180104,1600,MMCE,CIUDAD_DEL_CARMEN_&,18.65,-91.80,86,7,,,,-9999,'MMCE 041545Z 09006KT 2SM -RA BKN008 OVC070 30/// A3025 RMK 6//// 8/77/ LWR SC'
20180104,1600,TXKF,BERMUDA_NAS/KINDLEY,32.37,-64.68,73,26,40,,40,63,'TXKF 041555Z 23023G35KT 9999 FEW021 SCT072 BKN300 23/17 Q1004'
20180104,1600,MYGF,FREEPORT_INTL_ARPT,26.55,-78.70,59,21,,,,43,'MYGF 041600Z 35018KT 9999 BKN025 15/06 A3011'
20180104,1600,MYNN,NASSAU_INTL_AIRPORT,25.05,-77.47,72,16,28,,28,55,'MYNN 041600Z 29014G24KT 9999 SCT020 22/13 A3008'
20180104,1600,MUHA,HAVANA/JOSE_MARTI,22.98,-82.40,68,13,,,,61,'MUHA 041555Z 01011KT 9000 BKN033 20/16 Q1020'
20180104,1600,MUVR,VARADERO,23.13,-81.28,70,12,,,,59,'MUVR 041551Z 03010KT 9000 FEW018TCU BKN019 21/15 Q1020'
20180104,1600,MUCM,CAMAGUEY/IGANCIO,21.42,-77.85,75,8,,,,57,'MUCM 041550Z 01007KT 330V060 9000 SCT018 24/14 Q1019'
20180104,1600,MUCU,SANTIAGO_DE_CUBA,19.97,-75.85,75,14,,,,61,'MUCU 041552Z 35012KT 320V020 9000 SCT020 BKN070 24/16 Q1017'
20180104,1600,MUCL,CAYO_LARGO_DEL_SUR,21.62,-81.55,70,12,,,,61,'MUCL 041551Z 35010KT 310V030 9000 BKN018 21/16 Q1020'
20180104,1600,MUGM,GUANTANAMO_BAY_NAS,19.90,-75.13,76,23,,,,70,'MUGM 041556Z 34020KT 9999 SCT045 BKN060 BKN150 24/21 A3003 RMK RAB00E10 SLP168 P0000 T02440211'
20180104,1600,MWCR,OWEN_ROBERTS_INTL,19.28,-81.35,79,15,,,,66,'MWCR 041600Z 01013KT 9999 FEW018 26/19 Q1018'
20180104,1600,MKJS,SANGSTER/MONTEGO,18.50,-77.92,77,16,,,,66,'MKJS 041600Z 03014KT 9999 BKN022 BKN045 25/19 Q1016'
20180104,1600,MKJP,NORMAN_MANLEY/KINGS,17.93,-76.78,81,7,,,,75,'MKJP 041600Z 05006KT 9999 FEW018 SCT080 27/24 Q1015'
20180104,1600,MDPP,PUERTO_PLATA_INTL,19.75,-70.55,82,6,,,,73,'MDPP 041600Z 27005KT 9999 SCT020 SCT300 28/23 Q1015'
20180104,1600,MDST,SANTIAGO_INTL_ARPT,19.47,-70.70,77,0,,,,73,'MDST 041600Z 00000KT 5000 BR BKN017 BKN070 25/23 Q1015 BR/ALL QDS'
20180104,1600,MDPC,PUNTA_CANA,18.57,-68.37,82,14,,,,73,'MDPC 041600Z 15012KT 9999 SCT022 28/23 Q1016'
20180104,1600,MDSD,CAUCEDO/DE_LAS_AMER,18.43,-69.67,86,12,,,,73,'MDSD 041600Z 16010KT 9999 BKN020 30/23 Q1015'
20180104,1600,TJBQ,AQUADILLA/BORINQUEN,18.50,-67.13,84,7,,,,70,'TJBQ 041550Z 31006KT 10SM SKC 29/21 A3003'
20180104,1600,TJSJ,SAN_JUAN_INTL_ARPT,18.43,-66.00,86,10,17,,17,70,'TJSJ 041556Z 16009G15KT 10SM FEW036 FEW110 30/21 A3000 RMK AO2 SLP159 T03000211'
20180104,1600,TIST,C._AMALIE/CYRIL_E._(ASOS),18.33,-64.97,81,7,,,,77,'TIST 041553Z AUTO 13006KT 8SM -RA FEW027 SCT055 BKN070 27/25 A3002 RMK AO2 RAB45 SLP167 P0002 T02720250'
20180104,1600,TISX,CHRISTIANSTED/ALEXA_(ASOS),17.70,-64.80,84,12,,,,75,'TISX 041553Z 13010KT 10SM SCT022 SCT030 29/24 A3004 RMK AO2 SLP169 T02890239 $'
20180104,1600,MZBZ,BELIZE_INTL_AIRPORT,17.53,-88.30,75,14,,,,63,'MZBZ 041600Z 01012KT CAVOK 24/17 A3017 Q1021 NOSIG'
20180104,1600,MGHT,HUEHUETENANGO,15.32,-91.47,63,0,,,,50,'MGHT 041600Z 00000KT 9999 BKN018 17/10 QFE823/6'
20180104,1600,MGPB,PUERTO_BARRIOS(MIL),15.72,-88.60,70,0,,,,68,'MGPB 041600Z 00000KT 8000 RA SCT018 BKN080 21/20 Q1022 A3018'
20180104,1600,MGGT,GUATEMALA/LA_AURORA,14.58,-90.52,64,16,,,,52,'MGGT 041600Z 35014KT 9999 FEW018 SCT200 18/11 Q1029 A3039 FEW200'
20180104,1600,MGSJ,SAN_JOSE_(CIV/MIL),13.92,-90.82,88,0,,,,64,'MGSJ 041600Z 00000KT CAVOK 31/18 Q1014 A2994 SCT200'
20180104,1600,MSLP,EL_SALVADOR_INTL,13.43,-89.05,86,12,23,,23,59,'MSLP 041550Z 36010G20KT 320V030 CAVOK 30/15 Q1014 A2994 NOSIG'
20180104,1600,MHAM,AMAPALA/LOS_PELONAS,13.28,-87.67,82,5,,,,72,'MHAM 041600Z 36004KT 9999 FEW028 28/22'
20180104,1600,MHRO,ROATAN,16.32,-86.53,77,12,,,,68,'MHRO 041600Z 30010KT 9999 BKN020TCU 25/20 Q1020 A3012 NOSIG'
20180104,1600,MHLC,LA_CEIBA/GOLOSON__&,15.73,-86.87,70,2,,,,68,'MHLC 041600Z 20002KT 7000 -RA SCT024 BKN070 21/20 Q1020 A3012 NOSIG'
20180104,1600,MHTE,TELA,15.72,-87.48,72,2,,,,72,'MHTE 041600Z 24002KT 9999 BKN026TCU 22/22 Q1018 TCU ALL HZ'
20180104,1600,MHYR,YORO,15.17,-87.12,64,5,,,,61,'MHYR 041600Z 27004KT 9999 SCT020 BKN070 18/16 VCSH W NW'
20180104,1600,MHLM,LA_MESA/PEDRO_SULA,15.45,-87.93,70,2,,,,70,'MHLM 041600Z 24002KT 8000 VCSH FEW008 SCT022 OVC070 21/21 Q1021 A3015 NOSIG'
20180104,1600,MHCA,CATACAMAS,14.90,-85.93,75,3,,,,70,'MHCA 041600Z 09003KT 9999 FEW028 SCT070 24/21 Q1020 HZ'
20180104,1600,MHSR,SANTA_ROSA_DE_COPAN,14.78,-88.78,61,7,,,,59,'MHSR 041600Z 34006KT 8000 VCSH OVC018 16/15 8KM ALL CL VCSH HZ'
20180104,1600,MHLE,LA_ESPERANZA,14.33,-88.17,59,9,,,,54,'MHLE 041600Z 05008KT 8000 SCT016 15/12 8KM E ENE E CL'
20180104,1600,MHTG,TEGUCIGALPA/TONCONT,14.05,-87.22,66,12,,,,55,'MHTG 041600Z 03010KT 9999 SCT028 SCT080 19/13 Q1023 A3021 NOSIG'
20180104,1600,MNPC,PUERTO_CABEZAS(MIL),14.05,-83.37,82,12,,,,75,'MNPC 041600Z 36010KT 6000 VCRA BKN016TCU 28/24 Q1015 TCURA/S/SW'
20180104,1600,MNJG,JINOTEGA,13.08,-85.98,66,18,,,,57,'MNJG 041600Z 36016KT CAVOK 19/14 Q1017'
20180104,1600,TAPA,COOLIDGE_AIRPORT,17.12,-61.78,82,10,,,,73,'TAPA 041600Z 12009KT 9999 FEW018 BKN036 28/23 Q1017 NOSIG'
20180104,1600,TNCM,PRINSES_JULIANA,18.05,-63.12,82,16,,,,73,'TNCM 041600Z 12014KT 080V150 9999 FEW020 28/23 Q1017 A3004 NOSIG'
20180104,1600,TFFR,LE_RAIZET/GUADELOUP,16.27,-61.52,81,17,,,,70,'TFFR 041630Z AUTO 11009KT 080V140 9999 FEW056/// SCT086/// BKN120/// ///TCU 27/21 Q1016 TEMPO 4000 SHRA'
20180104,1600,TDPD,MELVILLE_HALL_ARPT,15.53,-61.30,79,6,,,,73,'TDPD 041600Z 08005KT 3000W 9999 -SHRA BKN015 BKN034 26/23 Q1017'
20180104,1600,TDCF,CANEFIELD_AIRPORT,15.53,-61.40,82,3,,,,72,'TDCF 041600Z 23003KT 9999 -SHRA SCT014 BKN030 28/22 Q1016'
20180104,1600,TFFF,LE_LAMENTIN_______&,14.60,-61.00,84,5,,,,72,'TFFF 041630Z AUTO 11009KT 070V140 9999 FEW031 BKN038 BKN047 29/22 Q1016 TEMPO 4000 SHRA SCT015TCU'
20180104,1600,FMH,OTIS_ANGB,41.65,-70.52,36,33,49,,49,34,'KFMH 041635Z 03026G41KT 1 3/4SM FZRA OVC007 02/02 A2902 RMK AO2'
20180104,1600,TVR,VICKSBURG/TALLULAH_ARPT_(ASOS),32.35,-91.03,33,12,,,,19,'KTVR 041553Z AUTO 02010KT 10SM CLR 01/M07 A3040 RMK AO2 UPB30E38 SLP301 P0000 T00061072'
20180104,1600,FZY,FULTON/OSWEGO_CTY_AIRPORT,43.35,-76.38,20,8,,,,16,'KFZY 041636Z AUTO 34005KT 2 1/2SM -SN SCT018 BKN025 OVC033 M06/M09 A2974 RMK AO2 P0000 T10611089'
20180104,1600,IZG,FRYEBERG_(ASOS),43.99,-70.95,17,0,,,,17,'KIZG 041554Z AUTO 00000KT 1/4SM SN FZFG VV006 M08/M08 A2962 RMK AO2 SLP041 P0000 T10831083'
20180104,1600,AQW,NORTH_ADAMS_(ASOS),42.70,-73.17,17,13,18,,18,13,'KAQW 041552Z AUTO 27011G16KT 1/4SM SN FZFG VV008 M08/M11 A2957 RMK AO2 PRESFR SLP024 P0009 T10831106'
20180104,1600,EYE,EAGLE_CREEK_AIRPARK_(ASOS),39.83,-86.29,5,8,,,,-3,'KEYE 041553Z AUTO 33007KT 10SM CLR M15/M19 A3024 RMK AO2 SLP258 T11501194'
20180104,1600,HYR,HAYWARD_MUNI_AIRPORT_(ASOS),46.02,-91.45,-8,0,,,,-12,'KHYR 041553Z AUTO 00000KT 10SM OVC014 M22/M24 A3035 RMK AO2 SLP322 T12221244'
20180104,1600,LHQ,LANCASTER_(ASOS),39.76,-82.66,14,16,,,,6,'KLHQ 041553Z AUTO 32014KT 8SM FEW025 OVC034 M10/M14 A3008 RMK AO2 SNE09 SLP202 P0000 T11001144'
20180104,1600,MVL,MORRISVILLE-STOWE_ARPT_(ASOS),44.53,-72.62,11,0,,,,8,'KMVL 041636Z AUTO 00000KT 1 1/2SM -SN BR M11/M13 A2968 RMK AO2 PRESFR P0000 T11111128 $'
20180104,1600,UUU,NEWPORT_(ASOS),41.53,-71.28,28,31,51,45,51,27,'KUUU 041608Z AUTO 01024G39KT 1 1/4SM BR OVC003 M02/M03 A2910 RMK AO2 PK WND 01039/1602 PRESFR T10221028 PWINO FZRANO $'
20180104,1600,IWI,WISCASSET_(ASOS),43.96,-69.71,21,3,,,,19,'KIWI 041642Z AUTO 01008G16KT 330V040 3/4SM -SN BR FEW009 OVC019 M06/M07 A2945 RMK AO2 PRESFR P0003 T10611072'
20180104,1600,FFC,PEACHTREE_CITY_(ASOS),33.34,-84.57,29,16,22,,22,9,'KFFC 041553Z AUTO 31014G19KT 10SM CLR M02/M13 A3011 RMK AO2 SLP205 T10171128'
20180104,1600,ISW,WISCONSN_RAPIDS_(ASOS),44.44,-89.83,-2,0,,,,-6,'KISW 041554Z AUTO 00000KT 10SM BKN023 M19/M21 A3035 RMK AO2 SLP307 T11891211'
20180104,1600,AFN,JAFFREY_MUNICIPAL_(ASOS),42.80,-72.00,20,12,18,,18,17,'KAFN 041552Z AUTO 36010G16KT 330V040 1/4SM +SN FZFG VV004 M07/M08 A2942 RMK AO2 PRESFR SLP989 P0013 T10671083'
20180104,1600,AIG,ANTIGO,45.03,-89.14,1,16,,,,-7,'KAIG 041635Z AUTO 35011KT 10SM OVC024 M17/M22 A3024 RMK AO2 T11701218'
20180104,1600,BIV,TULIP_CITY_ARPT/HOLLAND_(ASOS),42.75,-86.10,15,10,,,,5,'KBIV 041553Z AUTO 03009KT 10SM SCT036 BKN050 M09/M15 A3019 RMK AO2 SLP238 T10941150'
20180104,1600,DLL,BARABOO/WISCONSIN_DELLS,43.31,-89.46,1,0,,,,-8,'KDLL 041635Z AUTO 32005KT 10SM CLR M16/M21 A3034 RMK AO2 T11591215'
20180104,1600,DMO,SEDALIA_(ASOS),38.72,-93.17,10,3,,,,1,'KDMO 041553Z AUTO 02003KT 10SM CLR M12/M17 A3043 RMK AO2 SLP322 T11221172'
20180104,1600,DVN,QUAD_CITIES/QUAD_CITIES_(ASOS),41.61,-90.57,-5,5,,,,-11,'KDVN 041552Z AUTO 30004KT 10SM CLR M21/M24 A3041 RMK AO2 SLP316 T12061239'
20180104,1600,FFT,CAPITAL_CITY_ARPT_(ASOS),38.19,-84.90,14,7,,,,4,'KFFT 041553Z AUTO VRB06KT 10SM BKN047 M10/M16 A3021 RMK AO2 SLP241 T11001156'
20180104,1600,FSW,FORT_MADISON,40.67,-91.33,0,0,,,,-6,'KFSW 041635Z AUTO 31003KT 10SM SCT070 SCT090 M17/M21 A3042 RMK AO2'
20180104,1600,GVL,GAINSVILLE_(ASOS),34.32,-83.83,28,20,28,30,30,5,'KGVL 041553Z AUTO 33017G24KT 10SM CLR M02/M15 A2999 RMK AO2 PK WND 31026/1538 SLP164 T10221150'
20180104,1600,IOW,IOWA_CITY_(ASOS),41.63,-91.55,2,5,,,,-6,'KIOW 041552Z AUTO 30004KT 10SM BKN120 M17/M21 A3044 RMK AO2 SLP324 T11671211'
20180104,1600,RPD,RICE_LAKE,45.48,-91.72,-10,0,,,,-15,'KRPD 041635Z AUTO 00000KT 10SM CLR M21/M24 A3040 RMK AO2 T12101239'
20180104,1600,SUW,SUPERIOR,46.69,-92.09,-13,5,,,,-19,'KSUW 041635Z AUTO 21003KT 10SM CLR M22/M26 A3046 RMK AO2 T12221264'
20180104,1600,DNL,AUGUSTA_(ASOS),33.47,-82.03,35,9,20,,20,11,'KDNL 041553Z AUTO 28008G17KT 250V310 10SM CLR 02/M12 A2998 RMK AO2 SLP155 T00171117'
20180104,1600,EHR,HENDERSON_CITY,37.82,-87.68,13,8,,,,4,'KEHR 041556Z AUTO 29007KT 10SM CLR M11/M16 A3038 RMK AO2 SLP299 T11061156 FZRANO'
20180104,1600,ENW,KENOSHA_(ASOS),42.59,-87.94,5,12,,,,-7,'KENW 041553Z 33010KT 10SM CLR M15/M22 A3030 RMK AO2 SLP279 T11501217'
20180104,1600,MFI,MARSHFIELD_(ASOS),44.63,-90.18,-4,7,,,,-9,'KMFI 041554Z AUTO 33006KT 10SM BKN019 M20/M23 A3030 RMK AO2 SLP300 T12001228 TSNO'
20180104,1600,SGJ,ST_AUGUSTINE_AIRPT,29.97,-81.33,39,15,21,,21,16,'KSGJ 041556Z 27013G18KT 10SM CLR 04/M09 A3012 RMK AO2 SLP197 T00391089'
20180104,1600,UES,WAUKESHA_CNTY_ARPT,43.02,-88.14,0,9,,,,-8,'KUES 041545Z 31008KT 10SM SKC M18/M22 A3031'
20180104,1600,UNO,WEST_PLAINS_(ASOS),36.73,-91.85,17,6,,,,3,'KUNO 041553Z AUTO 32005KT 10SM CLR M08/M16 A3036 RMK AO2 SLP300 T10831161'
20180104,1600,FLD,FOND_DU_LAC_(ASOS),43.77,-88.49,1,7,,,,-8,'KFLD 041553Z AUTO 35006KT 10SM CLR M17/M22 A3033 RMK AO2 SLP293 T11721222 TSNO'
20180104,1600,LEE,LEESBURG_MUNICIPAL_ARPT_(ASOS),28.82,-81.81,42,12,21,,21,17,'KLEE 041553Z 29010G18KT 10SM CLR 06/M08 A3018 RMK AO2 SLP219 T00561083'
20180104,1600,MIW,MARSHALLTOWN_(ASOS),42.11,-92.91,2,0,,,,-3,'KMIW 041553Z AUTO 00000KT 10SM BKN085 OVC120 M17/M19 A3038 RMK AO2 SLP316 T11671194'
20180104,1600,SBM,SHEBOYGAN_(ASOS),43.78,-87.85,4,14,,,,-6,'KSBM 041553Z AUTO 34012KT 9SM -SN CLR M16/M21 A3029 RMK AO2 SNB1454 SLP279 P0000 T11561211 TSNO'
20180104,1600,LWV,LAWRENCEVILLE-VINCENNES_(ASOS),38.76,-87.60,10,9,,,,0,'KLWV 041553Z AUTO 31008KT 10SM CLR M12/M18 A3035 RMK AO2 SLP286 T11221178'
20180104,1600,PGD,PUNTA_GORDA_(ASOS),26.92,-82.00,50,6,,,,28,'KPGD 041553Z 08005KT 10SM CLR 10/M02 A3020 RMK AO2 SLP226 T01001022'
20180104,1600,HTO,EASTHAMPTON,40.96,-72.25,31,25,43,,43,29,'KHTO 041635Z AUTO 35020G29KT OVC004 M03/M03 A2906 RMK AO2 T10271035 PWINO'
20180104,1600,DCU,DECATUR-PRYOR_FIELD_(ASOS),34.65,-86.94,22,14,,,,7,'KDCU 041553Z AUTO 35012KT 10SM CLR M06/M14 A3029 RMK AO2 SLP262 T10561139'
20180104,1600,CDD,CRANE_LAKE_(AWOS),46.27,-92.57,-26,0,,,,-31,'KCDD 041628Z AUTO 00000KT 10SM CLR M29/M32 A3044 RMK AO2'
20180104,1600,JMR,MORA,45.89,-93.27,-8,0,,,,-15,'KJMR 041635Z AUTO 33003KT 10SM CLR M21/M25 A3043 RMK AO2'
20180104,1600,LVN,MINNEAPOLIS_(AIRLAKE_APT),44.63,-93.23,-2,0,,,,-8,'KLVN 041635Z AUTO 00000KT 10SM M19/M22 A3041 RMK AO2'
20180104,1600,MCD,MACKINAC_ISLAND,45.86,-84.64,-7,10,16,,16,-15,'KMCD 041635Z AUTO 35009G15KT 10SM CLR M20/M26 A3023 RMK AO2 T12051263'
20180104,1600,OZW,HOWELL,42.63,-83.98,9,17,23,,23,-1,'KOZW 041635Z AUTO 33009G21KT 10SM BKN029 M13/M19 A3010 RMK AO2 T11261186'
20180104,1600,ANE,MINNEAPOLIS/BLAINE,45.15,-93.22,-4,0,,,,-11,'KANE 041545Z 00000KT 10SM BKN100 M20/M24 A3041'
20180104,1600,CKC,GRAND_MARAIS/COOK_COUNTY_AIRPORT,47.84,-90.38,-15,13,,,,-24,'KCKC 041635Z AUTO 34013G16KT 10SM CLR M24/M31 A3024 RMK AO2'
20180104,1600,GSH,GOSHEN_MUNICIPAL_AIRPORT_(ASOS),41.53,-85.79,,12,,,,-9999,'KGSH 041553Z AUTO 29010KT 10SM FEW030 BKN034 OVC044 A3018 RMK AO2 SLPNO $'
20180104,1600,TZR,COLUMBUS_(BOLTON_FLD),39.90,-83.13,12,16,,,,3,'KTZR 041555Z 33014KT 10SM BKN038 M11/M16 A3011'
20180104,1600,DTS,DESTIN_AIRPORT_(ASOS),30.39,-86.47,40,13,,,,13,'KDTS 041553Z 34011KT 10SM CLR 04/M11 A3026 RMK AO2 SLP246 T00441106'
20180104,1600,DKK,DUNKIRK_AIRPORT_(ASOS),42.49,-79.28,15,17,,,,5,'KDKK 041553Z AUTO 31015KT 10SM SCT027 M09/M15 A2991 RMK AO2 SLP140 T10941150'
20180104,1600,BJJ,WOOSTER/WAYNE_CTY_ARPT_(ASOS),40.87,-81.89,12,10,,,,6,'KBJJ 041556Z AUTO 35009KT 1 1/4SM -SN BKN016 OVC024 M11/M14 A3002 RMK AO2 SLP186 P0000 T11111144'
20180104,1600,SET,ST_CHARLES_(ASOS),38.93,-90.43,8,5,,,,-2,'KSET 041554Z AUTO 32004KT 10SM CLR M13/M19 A3043 RMK AO2 SLP314 T11331189'
20180104,1600,AVC,SOUTH_HILL/MECKLENBURG-BRUNSWICK,36.69,-78.05,28,7,,,,10,'KAVC 041635Z AUTO 31009G17KT 10SM BKN048 M02/M13 A2982 RMK AO2 T10231131'
20180104,1600,CLI,CLINTONVILLE_MUNI_ARPT,44.61,-88.73,3,6,,,,-8,'KCLI 041635Z AUTO 36005KT 10SM CLR M15/M21 A3032 RMK AO2'
20180104,1600,DYT,DULUTH-SKY_HARBOR_ARPT,46.72,-92.04,-9,6,,,,-17,'KDYT 041635Z AUTO 23007KT 10SM SCT055 M22/M26 A3046 RMK AO2'
20180104,1600,EGV,EAGLE_RIVER-UNION_ARPT,45.93,-89.27,1,10,,,,-8,'KEGV 041635Z AUTO 34007KT 7SM OVC023 M17/M21 A3023 RMK AO2 T11661215'
20180104,1600,UNU,JUNEAU-DODGE_CTY_ARPT,43.43,-88.70,-2,5,,,,-8,'KUNU 041635Z AUTO 32003KT 10SM CLR M18/M22 A3032 RMK AO2 T11771217'
20180104,1600,TTF,MONROE-CUSTER_ARPT,41.94,-83.43,10,9,,,,2,'KTTF 041635Z AUTO 32011G15KT 10SM OVC028 M11/M17 A3010 RMK AO2 T11111171'
20180104,1600,ACB,BELLAIRE-ANTRIM_CTY_ARPT,44.99,-85.20,1,8,,,,-5,'KACB 041635Z AUTO 36010KT 10SM OVC026 M17/M21 A3025 RMK AO2 T11731210'
20180104,1600,AMN,ALMA-GRATIOT_COMM_ARPT,43.32,-84.69,10,15,21,,21,-1,'KAMN 041638Z AUTO 34014KT 10SM SCT013 SCT021 BKN033 M12/M18 A3014 RMK AO2 T11201181'
20180104,1600,IDI,INDIANA-INDIANA_CTY_ARPT,40.63,-79.10,16,12,21,,21,10,'KIDI 041635Z AUTO 32009G18KT 7SM SCT024 BKN029 OVC042 M09/M13 A2984 RMK A01'
20180104,1600,IRS,STURGIS-KIRSCH_MUNI_ARPT,41.81,-85.44,15,7,,,,5,'KIRS 041635Z AUTO 35007KT 10SM CLR M09/M15 A3014 RMK AO2 T10941155'
20180104,1600,MRJ,MINERAL_POINT-IOWA_CTY_ARPT,42.89,-90.23,1,7,,,,-4,'KMRJ 041635Z AUTO 32004KT 10SM CLR M16/M20 A3032 RMK AO2'
20180104,1600,GKJ,MEADVILLE-PORT_MEADVILLE_ARPT,41.63,-80.21,14,16,24,,24,9,'KGKJ 041642Z AUTO 32013G21KT 2 1/2SM -SN SCT021 BKN030 OVC036 M11/M14 A2986 RMKAO2 VIS 1 1/2V4 P0000 T11061139 $'
20180104,1600,TEW,MASON-JEWETT_FIELD,42.57,-84.42,11,16,21,,21,0,'KTEW 041635Z AUTO 32014G18KT 10SM OVC026 M12/M19 A3012 RMK AO2 T11201187'
20180104,1600,OGB,ORANGEBURG/MUNI_ARPT_(ASOS),33.46,-80.85,33,12,22,,22,14,'KOGB 041553Z AUTO 29010G19KT 10SM CLR 01/M10 A2995 RMK AO2 SLP141 T00061100'
20180104,1600,MUHG,HOLGUIN_(CIV/MIL)_&,20.78,-76.32,75,8,,,,63,'MUHG 041550Z 03007KT 340V060 9000 SCT020 24/17 Q1018'
20180104,1600,GZH,EVERGREEN_(ASOS),31.42,-87.04,33,9,18,,18,12,'KGZH 041553Z AUTO 36008G16KT 10SM CLR 01/M11 A3028 RMK AO2 SLP254 T00061111'
20180104,1600,MAI,MARIANA_(ASOS),30.80,-85.21,36,10,,,,12,'KMAI 041553Z AUTO 31009KT 10SM CLR 02/M11 A3020 RMK AO2 SLP227 T00221111'
20180104,1600,LPR,LORAIN/ELYRIA_(ASOS),41.34,-82.18,12,14,,,,-1,'KLPR 041553Z AUTO 36012KT 8SM -SN OVC034 M11/M18 A3005 RMK AO2 SLP191 P0000 T11111183'
20180104,1600,P92,SALT_POINT__(ASOS),29.60,-91.30,41,3,,,,18,'KP92 041553Z AUTO VRB03KT 05/M08 A3038 RMK AO1 SLP287 T00501078 $'
20180104,1600,HAO,HAMILTON_AIRPORT_(ASOS),39.36,-84.52,13,10,,,,6,'KHAO 041553Z AUTO 30009KT 10SM OVC047 M11/M14 A3021 RMK AO2 SLP242 T11061144'
20180104,1600,HLX,HILLSVILLE,36.77,-80.82,13,22,43,,43,-1,'KHLX 041635Z AUTO 33024G34KT 10SM OVC032 M10/M19 A2973 RMK AO2 T11041188'
20180104,1600,BAX,BAD_AXE,43.78,-82.99,3,14,22,,22,-2,'KBAX 041635Z AUTO 32016G22KT 1SM HZ OVC023 M16/M19 A3010 RMK AO2 T11611192'
20180104,1600,EFT,MONROE,42.62,-89.59,1,7,,,,-6,'KEFT 041635Z AUTO 33006KT 10SM CLR M15/M21 A3031 RMK AO2'
20180104,1600,ERY,NEWBERRY,46.31,-85.46,-2,10,17,,17,-8,'KERY 041635Z AUTO 02010G15KT 7SM SCT022 OVC034 M19/M22 A3022 RMK AO2 T11901223'
20180104,1600,OEB,COLDWATER,41.94,-85.05,13,10,,,,1,'KOEB 041635Z AUTO 35010G15KT 10SM SCT035 OVC048 M10/M17 A3013 RMK AO2 T11001172'
20180104,1600,RMY,MARSHALL,42.25,-84.96,13,8,,,,2,'KRMY 041635Z AUTO 31010G16KT 10SM BKN031 M10/M18 A3012 RMK AO2 T11031181'
20180104,1600,MDZ,MEDFORD,45.10,-90.30,-5,6,,,,-9,'KMDZ 041635Z AUTO 34005KT 10SM OVC019 M19/M22 A3027 RMK AO2 T11951218'
20180104,1600,STE,STEVENS_POINT_MUNI,44.55,-89.53,-1,5,,,,-8,'KSTE 041635Z AUTO 32005KT 10SM CLR M17/M21 A3031 RMK AO2 T11691213'
20180104,1600,SEG,SELINSGROVE_(ASOS),40.83,-76.87,21,16,29,,29,13,'KSEG 041640Z AUTO 33014G20KT 1 3/4SM -SN BKN030 OVC036 M06/M10 A2968 RMK AO2 SNB33 P0000 T10561100'
20180104,1600,THV,YORK_AIRPORT_(ASOS),39.93,-76.88,21,18,28,,28,14,'KTHV 041638Z AUTO 32013G28KT 1 1/2SM -SN BKN029 OVC035 M06/M10 A2963 RMK AO2 PKWND 32028/1634 SNB00 P0000 T10611100'
20180104,1600,PQL,PASCAGOULA_(ASOS),30.47,-88.53,36,13,,,,14,'KPQL 041553Z 36011KT 10SM CLR 02/M10 A3033 RMK AO2 SLP270 T00221100'
20180104,1600,AKQ,WAKEFIELD_(ASOS),36.98,-77.00,24,9,20,,20,20,'KAKQ 041642Z AUTO 31009G15KT 290V360 1 3/4SM -SN FEW022 BKN029 OVC037 M04/M07 A2972 RMK AO2 P0001 T10391072'
20180104,1600,GED,GEORGETOWN/SUSSEX_(ASOS),38.68,-75.37,23,14,26,33,33,19,'KGED 041554Z AUTO 31016G26KT 1/4SM FZFG VV009 M05/M07 A2946 RMK AO2 PK WND 34029/1511 SLP975 T10501072 $'
20180104,1600,VAY,MOUNT_HOLLY_(ASOS),39.93,-74.83,23,16,26,37,37,22,'KVAY 041554Z AUTO 32014G23KT 1/4SM FZFG VV008 M05/M06 A2943 RMK AO2 PK WND 33032/1543 SNEMM SLP967 P0000 T10501056 $'
20180104,1600,FIT,FITCHBURG_(ASOS),42.55,-71.76,24,18,31,,31,21,'KFIT 041609Z AUTO 36016G22KT 1/4SM FZFG VV005 M04/M06 A2936 RMK AO2 LTG DSNT SESNEMM PRESFR P0001 T10391056 PWINO FZRANO $'
20180104,1600,MGY,DAYTON_(ASOS),39.59,-84.22,13,14,,,,5,'KMGY 041553Z AUTO 32012KT 10SM OVC042 M11/M15 A3014 RMK AO2 SLP225 T11061150'
20180104,1600,TAN,TAUNTON_(ASOS),41.87,-71.02,28,14,26,31,31,-9999,'KTAN 041552Z AUTO 01012G23KT 340V050 M1/4SM FZFG VV002 M02/ A2919 RMK AO2 PK WND 03027/1506 SNEMM PRESFR SLP885 P0000 T1017 PWINO FZRANO $'
20180104,1600,TOB,DODGE_CENTER,44.02,-92.83,-2,5,,,,-9,'KTOB 041635Z AUTO 35004KT 10SM BKN070 M18/M23 A3035 RMK AO2'
20180104,1600,MTO,MATTOON/CHARLESTON_(ASOS),39.48,-88.28,3,12,,,,-4,'KMTO 041553Z AUTO 33010KT 10SM CLR M16/M20 A3033 RMK AO2 SLP288 T11611200'
20180104,1600,POF,POPLAR_BLUFF_(ASOS),36.77,-90.32,16,10,,,,1,'KPOF 041553Z AUTO 33009KT 10SM CLR M09/M17 A3043 RMK AO2 SLP313 T10891172'
20180104,1600,VPZ,VALPARAISO_(ASOS),41.45,-87.00,11,15,,,,5,'KVPZ 041556Z AUTO 30013KT 1/2SM SN BKN010 OVC037 M12/M15 A3023 RMK AO2 SLP253 P0000 T11171150'
20180104,1600,TDZ,METCALF_FIELD/TOLEDO_(ASOS),41.56,-83.48,11,17,25,,25,1,'KTDZ 041553Z AUTO 32015G22KT 10SM OVC033 M12/M17 A3014 RMK AO2 SLP216 T11171172'
20180104,1600,PEO,PENN_YAN_AIRPORT_(ASOS),42.64,-77.05,20,15,24,,24,12,'KPEO 041601Z AUTO 31011G19KT 3SM -SN FEW017 BKN041 OVC049 M07/M11 A2974 RMK AO2P0000 T10671111'
20180104,1600,MGJ,ORANGE_COUNTY_AIRPORT_(ASOS),41.51,-74.26,22,7,,,,19,'KMGJ 041554Z AUTO 34006KT 1/4SM FZFG VV007 M06/M07 A2947 RMK AO2 SNEMM PRESFR SLP985 P0004 T10561072 PWINO FZRANO $'
20180104,1600,ADG,LENAWEE_COUNTY_AIRPORT_(ASOS),41.87,-84.07,11,12,,,,1,'KADG 041639Z AUTO 36012KT 10SM OVC030 M12/M17 A3012 RMK AO2 T11171172 TSNO'
20180104,1600,DFI,DEFIANCE_MEMORIAL_APRT_(ASOS),41.34,-84.43,11,6,,,,0,'KDFI 041553Z AUTO 30005KT 10SM SCT046 M12/M18 A3016 RMK AO2 SLP226 T11171178'
20180104,1600,40J,PERRY_FOLEY_ARPT_(ASOS),30.07,-83.57,38,10,,,,15,'K40J 041635Z AUTO 27007KT 10SM CLR 05/M08 A3017 RMK AO2 T00471085'
20180104,1600,AOH,LIMA_ALLEN_CNTY_APT_(ASOS),40.71,-84.03,,10,22,,22,-9999,'KAOH 041553Z AUTO 33009G19KT 10SM OVC040 A3012 RMK AO2 SLPNO $'
20180104,1600,CTY,CROSS_CITY_ARPT_(ASOS),29.62,-83.10,39,9,,,,13,'KCTY 041635Z AUTO 27007KT 10SM CLR 05/M10 A3021 RMK AO2 T00531102'
20180104,1600,FLP,FLIPPIN_(AWOS),36.20,-92.47,20,6,,,,8,'KFLP 041556Z AUTO 34005KT 10SM CLR M07/M13 A3042 RMK AO2 SLP311 T10671133 FZRANO'
20180104,1600,PHD,HARRY_CLEVER_FIELD_(ASOS),40.47,-81.42,13,15,24,,24,1,'KPHD 041553Z AUTO 31013G21KT 10SM SCT038 M11/M17 A3003 RMK AO2 SNE24 SLP184 P0000 T11061172'
20180104,1600,RQB,ROBIN_HOOD_AIRPORT,43.72,-85.50,9,12,23,,23,-3,'KRQB 041635Z AUTO 36011KT 10SM BKN031 M13/M20 A3014 RMK AO2 T11261197'
20180104,1600,EDE,EDENTON_NORTHEA,36.03,-76.57,28,14,20,,20,23,'KEDE 041625Z AUTO 31008G15KT 10SM BKN022 BKN029 M01/M05 A2973 RMK AO2 T10121051'
20180104,1600,ILN,AIRBORNE_AIRPARK_ARPT_(ASOS),39.42,-83.77,14,15,,,,6,'KILN 041614Z AUTO 33012KT 10SM BKN029 OVC037 M11/M15 A3012 RMK AO2 T11061150'
20180104,1600,RAC,RACINE_JOHN_H_B_(ASOS),42.76,-87.81,7,12,23,,23,-6,'KRAC 041553Z AUTO 33010G20KT 10SM CLR M14/M21 A3031 RMK AO2 SLP281 T11391211'
20180104,1600,GLR,OTSEGO_COUNTY_ARPT_(ASOS),45.01,-84.70,-5,6,22,,22,-14,'KGLR 041553Z AUTO VRB05G19KT 10SM CLR M21/M26 A3013 RMK AO2 SLP239 T12061256'
20180104,1600,FAY,FAYETTEVILLE_RGNL_(ASOS),34.98,-78.88,32,20,25,30,30,12,'KFAY 041553Z 29017G22KT 10SM CLR 00/M11 A2984 RMK AO2 PK WND 29026/1519 SLP101 T00001111'
20180104,1600,DMH,BALTIMORE_SCIENCE_CNTR_(ASOS),39.28,-76.61,26,,,,,13,'KDMH 041554Z AUTO M03/M11 A2962 RMK AO1 SLP031 T10331106'
20180104,1600,CCO,NEWNAN_COWETA_ARPT,33.31,-84.77,29,12,18,,18,6,'KCCO 041635Z AUTO 32007KT 10SM CLR 00/M15 A3010 RMK AO2 T10031151'
20180104,1600,FQD,RUTHERFORDTON,35.43,-81.94,30,5,,,,4,'KFQD 041625Z AUTO 02012G16KT 10SM CLR M01/M16 A2993 RMK AO2 T10131159'
20180104,1600,JYM,HILLSDALE,41.92,-84.59,12,14,21,,21,1,'KJYM 041635Z AUTO 31014G18KT 5SM HZ SCT033 M11/M17 A3008 RMK AO2'
20180104,1600,MNN,MARION_(ASOS),40.62,-83.06,10,16,,,,1,'KMNN 041553Z AUTO 33014KT 10SM BKN033 OVC040 M12/M17 A3009 RMK AO2 SLP211 T11221172'
20180104,1600,SFQ,SUFFOLK,36.68,-76.60,26,18,25,,25,21,'KSFQ 041635Z AUTO 30012G21KT 4SM -SN BKN018 BKN024 OVC049 M03/M06 A2971 RMK AO2T10331062'
20180104,1600,OEO,OSCEOLA,45.31,-92.69,-12,0,,,,-18,'KOEO 041635Z AUTO 00000KT 1SM HZ OVC003 M23/M26 A3046 RMK AO2 T12271258'
20180104,1600,ETB,WEST_BEND,43.42,-88.13,3,15,,,,-6,'KETB 041635Z AUTO 33010KT 10SM CLR M15/M21 A3028 RMK AO2'
20180104,1600,DNN,DALTON_MUNI_AIRPORT,34.72,-84.87,27,18,22,,22,14,'KDNN 041635Z AUTO 33014G19KT 10SM SCT034 M02/M11 A3016 RMK AO2'
20180104,1600,CPK,CHESAPEAKE,36.66,-76.32,24,21,30,,30,21,'KCPK 041635Z AUTO 29017G25KT BKN015 OVC021 M04/M06 A2968 RMK AO2 T10411061 PWINO'
20180104,1600,CJR,CULPEPER,38.53,-77.86,26,22,31,,31,6,'KCJR 041635Z AUTO 32012G20KT 10SM BKN044 OVC060 M03/M15 A2975 RMK AO2 T10311146'
20180104,1600,EET,SHELBY_COUNTY_ARPT_(ASOS),33.17,-86.77,29,12,20,,20,11,'KEET 041553Z AUTO 34010G17KT 10SM CLR M02/M12 A3023 RMK AO2 SLP240 T10171117'
20180104,1600,ISQ,MANISTIQUE,45.97,-86.17,3,12,,,,-5,'KISQ 041635Z AUTO 02013KT 10SM BKN023 BKN028 BKN034 M15/M21 A3024 RMK AO2 T11541207'
20180104,1600,OWD,NORWOOD_MEMORIAL_ARPT_(ASOS),42.18,-71.17,27,18,28,31,31,25,'KOWD 041620Z 36014G21KT M1/4SM +SN FZFG VV003 M02/M04 A2923 RMK AO2 PK WND 36027/1554 P0007 T10221039 $'
20180104,1600,GEZ,SHELBYVILLE_MUNI_ARPT_(ASOS),39.65,-85.80,8,8,,,,1,'KGEZ 041553Z AUTO 30007KT 10SM OVC046 M13/M17 A3023 RMK AO2 SLP252 T11331172'
20180104,1600,BUY,BURLINGTON-ALAMANCE_REG_(ASOS),36.03,-79.47,33,12,24,,24,9,'KBUY 041554Z AUTO 32010G21KT 290V010 10SM CLR 01/M13 RMK AO2 SLPNO T00061128'
20180104,1600,MEB,LAURINBURG-MAXTON_ARPT_(ASOS),34.78,-79.37,30,14,,,,13,'KMEB 041552Z AUTO 30012KT 10SM CLR M01/M11 A2987 RMK AO2 SLP117 T10111106'
20180104,1600,BYH,EAKER_AFB,35.97,-89.95,18,12,20,,20,7,'KBYH 041550Z 02010G17KT 10SM SKC M08/M14 A3043'
20180104,1600,CWF,CHENAULT_AIRPARK,30.22,-93.15,,7,,,,-9999,'KCWF 041555Z 07006KT 10SM SKC 4/M05 A3041'
20180104,1600,PMP,POMPANO_BEACH_(ASOS),26.25,-80.11,51,20,25,,25,30,'KPMP 041553Z 32017G22KT 9SM CLR 11/M01 A3016 RMK AO2 SLP212 T01061011'
20180104,1600,AAF,APALACHICOLA_MUNI_(ASOS),29.73,-85.03,39,10,,,,14,'KAAF 041553Z AUTO 30009KT 10SM CLR 04/M10 A3022 RMK AO2 SLP234 T00391100'
20180104,1600,GNA,GRAND_MARAIS_(ASOS),47.75,-90.35,-5,0,,,,-17,'KGNA 041556Z AUTO 00000KT M21/M27 A3043 RMK AO1 SLP338 T12061272'
20180104,1600,12N,ANDOVER/AEROFLEX_ARPT_(ASOS),41.00,-74.73,20,10,18,,18,16,'K12N 041554Z AUTO 35009G16KT M07/M09 A2949 RMK AO1 SLP002 P0006 T10671089'
20180104,1600,OQT,OAK_RIDGE_(ASOS),36.02,-84.23,21,7,,,,6,'KOQT 041553Z AUTO VRB06KT 10SM BKN034 M06/M14 A3017 RMK AO2 SLP236 T10611144'
20180104,1600,MTP,MONTAUK_AIRPORT_(ASOS),41.07,-71.92,34,23,41,45,45,33,'KMTP 041554Z AUTO 01020G36KT 01/01 A2911 RMK AO1 PK WND 02039/1501 PRESFR SLP856 P0020 T00110006'
20180104,1600,LBT,LUMBERTON_MUNI_AIRPORT_(ASOS),34.61,-79.06,29,12,,,,13,'KLBT 041554Z AUTO 29010KT 10SM CLR M02/M11 A2987 RMK AO2 SLP115 T10171106'
20180104,1600,ASX,KENNEDY_MEMORIAL_AIRPORT_(ASOS),46.54,-90.92,2,8,,,,-5,'KASX 041553Z AUTO 34007KT 10SM OVC018 M17/M21 A3040 RMK AO2 SLP317 T11671206'
20180104,1600,CUB,COLUMBIA_OWENS_AIRPORT_(ASOS),33.97,-80.99,35,9,16,,16,8,'KCUB 041553Z AUTO 31008G14KT 10SM CLR 02/M13 A2994 RMK AO2 SLP140 T00171133'
20180104,1600,MQE,MILTON_(ASOS),42.22,-71.12,26,,,,,24,'KMQE 041556Z AUTO M03/M04 A2921 RMK AO1 PRESFR SLP908 P0019 T10331044'
20180104,1600,1V4,ST._JOHNSBURY_(ASOS),44.42,-72.02,9,,,,,7,'K1V4 041554Z AUTO M13/M14 A2968 RMK AO1 SLP075 P0003 T11281139'
20180104,1600,SVH,STATESVILLE,35.76,-80.96,27,22,29,,29,-6,'KSVH 041625Z AUTO 30014G21KT 10SM CLR M02/M21 A2989 RMK AO2 T10211208'
20180104,1600,WWD,WILDWOOD(AWOS),39.02,-74.92,25,20,35,38,38,23,'KWWD 041644Z AUTO 32020G33KT 1/2SM SN FZFG OVC009 M04/M06 A2937 RMK AO2 PK WND 31033/1638 CIG 005V011 P0001 FZRANO'
20180104,1600,DDH,MORSE_STATE_AIRPORT_(ASOS),42.89,-73.24,17,6,,,,13,'KDDH 041637Z AUTO 32008KT 1/2SM SN FZFG VV010 M08/M11 A2949 RMK AO2 PRESFR P0003 T10831106'
20180104,1600,HZY,ASHTABULA_COUNTY_AIRPORT_(ASOS),41.77,-80.69,14,13,28,,28,8,'KHZY 041638Z AUTO 31012G21KT 1/2SM SN BKN014 OVC031 M11/M13 A2995 RMK AO2 P0000T11061133'
20180104,1600,UZA,ROCK_HILL-YORK_CNTY_ARPT_(ASOS),34.98,-81.05,33,10,,,,7,'KUZA 041554Z AUTO 33009KT 10SM UP CLR 01/M14 A2990 RMK AO2 UPB1455 SLP137 P0000 T00061139'
20180104,1600,VTA,NEWARK-HEATH_AIRPORT_(ASOS),40.02,-82.46,13,14,22,,22,6,'KVTA 041554Z AUTO 30012G19KT 10SM FEW019 OVC037 M11/M14 A3006 RMK AO2 SNE40 SLP195 P0000 T11061144'
20180104,1600,ASD,SLIDELL_(ASOS),30.35,-89.82,37,8,,,,17,'KASD 041553Z AUTO 36007KT 10SM CLR 03/M08 A3036 RMK AO2 SLP280 T00281083'
20180104,1600,ROS,RUSH_CITY,45.70,-92.95,-10,5,,,,-15,'KROS 041635Z AUTO 00000KT 10SM OVC004 M23/M25 A3044 RMK AO2 T12271252'
20180104,1600,BPK,BAXTER_COUNTY_ARPT_(ASOS),36.37,-92.47,18,5,,,,6,'KBPK 041553Z AUTO VRB04KT 10SM CLR M08/M14 A3039 RMK AO2 SLP304 T10781144'
20180104,1600,LLQ,MONTICELLO_ARPT_(ASOS),33.64,-91.75,31,7,,,,13,'KLLQ 041553Z AUTO 04006KT 10SM CLR M01/M11 A3040 RMK AO2 SLP299 T10061106'
20180104,1600,HKA,BLYTHEVILLE_ARPT_(ASOS),35.94,-89.83,19,16,,,,7,'KHKA 041553Z AUTO 01014KT 10SM CLR M07/M14 A3044 RMK AO2 SLP311 T10721139 $'
20180104,1600,CHO,CHARLOTTESVILLE_APRT_(ASOS),38.14,-78.45,26,14,25,30,30,4,'KCHO 041553Z 33012G22KT 290V360 10SM BKN050 M03/M16 A2977 RMK AO2 PK WND 33026/1531 SLP086 T10331156'
20180104,1600,DPL,KENANSVILLE/DUPLIN_COUNTY,35.00,-77.98,30,15,23,,23,12,'KDPL 041625Z AUTO 30011G21KT 10SM CLR M01/M12 A2982 RMK AO2'
20180104,1600,HFF,MACKALL_AAF,35.03,-79.50,28,14,23,,23,12,'KHFF 041556Z AUTO 31012G18KT 10SM -SHRA CLR M01/M11 A2985 RMK AO2 RAB46E48RAB48E49SHRAB49 SLP128 P0006 T10151108 $'
20180104,1600,RUE,RUSSELLVILLE_MCPL_(ASOS),35.25,-93.09,28,8,,,,10,'KRUE 041553Z AUTO 01007KT 10SM CLR M02/M12 A3041 RMK AO2 SLP300 T10221122'
20180104,1600,AKH,GASTONIA_MCPL_(ASOS),35.19,-81.15,32,8,17,,17,5,'KAKH 041554Z AUTO 31007G15KT 280V340 10SM CLR 00/M15 A2990 RMK AO2 SNB1458E11B28E46 SLP133 P0000 T00001150'
20180104,1600,PSF,PITTSFIELD_MCPL_APRT_(ASOS),42.42,-73.29,19,12,,,,15,'KPSF 041625Z AUTO VRB05KT 1/2SM SN VV008 M07/M10 A2942 RMK AO2 P0003 T10721100'
20180104,1600,EQY,MONROE_AIRPORT_(ASOS),35.02,-80.62,32,20,31,31,31,8,'KEQY 041553Z AUTO 33017G27KT 10SM CLR 00/M13 A2987 RMK AO2 PK WND 33027/1553 SLP140 T00001133'
20180104,1600,OVS,BOSCOBEL_(ASOS),43.16,-90.68,0,0,,,,-4,'KOVS 041553Z AUTO 00000KT 10SM CLR M18/M20 A3041 RMK AO2 SLP319 T11781200'
20180104,1600,PTW,POTTSTOWN_LIMERICK_(ASOS),40.24,-75.55,20,15,26,33,33,16,'KPTW 041554Z AUTO 32013G23KT 1SM -SN BR FEW017 OVC021 M07/M09 A2953 RMK AO2 PK WND 32029/1456 SLP003 P0000 T10671089'
20180104,1600,TKPK,GOLDEN_ROCK,17.30,-62.68,84,12,,,,75,'TKPK 041600Z 10010KT 9999 SCT018 29/24 Q1017'
20180104,1600,HWO,NORTH_PERRY_ARPT_(ASOS),25.99,-80.24,52,18,25,,25,28,'KHWO 041553Z 34016G22KT 10SM CLR 11/M02 A3017 RMK AO2 SLP218 T01111022'
20180104,1600,AKR,AKRON_FULTON_INTL_ARPT_(ASOS),41.04,-81.46,13,16,25,,25,5,'KAKR 041644Z AUTO 33011KT 2SM -SN BKN021 OVC030 M11/M15 A2998 RMK AO2 P0000 T11061150 $'
20180104,1600,APG,PHILLIPS_AAF/ABERDN,39.47,-76.17,23,6,38,38,38,14,'KAPG 041558Z 33005G33KT 4SM BLSN M05/M10 A2957 RMK AO2A PK WND 33033/48 SLPNO $'
20180104,1600,CDW,CALDWELL/ESSEX_CO_(ASOS),40.88,-74.28,22,12,22,,22,20,'KCDW 041553Z 34010G19KT 320V030 1/4SM SN FZFG VV008 M06/M07 A2944 RMK AO2 SLP975 P0003 T10561067'
20180104,1600,SAW,K._I._SAWYER_AFB,46.35,-87.40,3,12,,,,-2,'KSAW 041547Z 32010KT 1SM SN SCT006 BKN016 OVC031 M16/M19 A3022'
20180104,1600,SMQ,SOMERSET_AIRPORT_(ASOS),40.62,-74.67,22,23,31,32,32,19,'KSMQ 041553Z AUTO 34020G27KT 1/4SM SN FZFG VV018 M06/M07 A2944 RMK AO2 PK WND 34028/1525 SLP972 P0001 T10561072'
20180104,1600,MRN,MORGANTON-LENOIR_AIRPORT,35.82,-81.61,26,21,29,,29,3,'KMRN 041625Z AUTO 31019G25KT 10SM CLR M03/M16 A2996 RMK AO2 T10291157'
20180104,1600,MWK,MOUNT_AIRY/SURRY_COUNTY_APRT,36.46,-80.55,25,13,31,,31,-3,'KMWK 041625Z AUTO 32013G22KT 280V340 10SM CLR M04/M20 A2987 RMK AO2 T10371197'
20180104,1600,OCW,WASHINGTON/WARREN_FIELD_APRT,35.57,-77.05,30,14,21,,21,15,'KOCW 041625Z AUTO 29010G17KT 10SM CLR 00/M10 A2977 RMK AO2 T10051105'
20180104,1600,P58,PORT_HOPE_(ASOS),44.02,-82.79,9,21,32,33,33,3,'KP58 041551Z AUTO 31018G28KT M13/M16 A3007 RMK AO1 PK WND 30029/1534 SLP202 T11281161'
20180104,1600,PDC,PRAIRIE_DU_CHIEN_MUNI_APRT,43.02,-91.12,-1,5,,,,-10,'KPDC 041635Z AUTO 28003KT 10SM CLR M17/M23 A3041 RMK AO2 T11711228'
20180104,1600,VDI,VIDALIA_MUNI_APRT,32.19,-82.37,37,13,17,,17,14,'KVDI 041635Z AUTO 30013G18KT 10SM CLR 03/M10 A3004 RMK AO2'
20180104,1600,GEV,ASHE_COUNTY_ARPT,36.43,-81.42,10,29,36,,36,-2,'KGEV 041630Z AUTO 32023G32KT 10SM OVC023 M12/M19 A2973 RMK AO2 T11201190'
20180104,1600,HBI,ASHEBORO_MUNI_ARPT,35.65,-79.90,28,10,23,,23,7,'KHBI 041640Z AUTO 32016G21KT 280V350 10SM CLR M02/M14 A2987 RMK AO2 T10221139'
20180104,1600,HRJ,ERWIN/HARNETT_COUNTY_ARPT,35.38,-78.73,30,9,18,,18,8,'KHRJ 041625Z AUTO 31009G18KT 10SM CLR 00/M13 A2984 RMK AO2 T10011128'
20180104,1600,MMK,MERIDEN/MARKHAM_MUNI_(ASOS),41.51,-72.83,24,16,32,,32,21,'KMMK 041602Z AUTO 36015G24KT 1/4SM SN FZFG VV006 M04/M06 A2932 RMK AO2 P0001 T10441056'
20180104,1600,SRC,SEARCY_MUNI_AIRPORT,35.21,-91.74,26,12,,,,9,'KSRC 041556Z AUTO 36010KT 10SM CLR M03/M13 A3043 RMK AO2 SLP315 T10331128 FZRANO'
20180104,1600,UKF,NORTH_WILKESBORO/WILKES_CNTY,36.22,-81.10,25,8,16,,16,1,'KUKF 041615Z AUTO 32013G21KT 10SM SCT050 M05/M17 A2994 RMK AO2'
20180104,1600,IGX,WILLIAMS_AIRPORT_(ASOS),35.77,-79.06,28,14,24,30,30,6,'KIGX 041556Z AUTO 31012G21KT 10SM CLR M02/M14 A2982 RMK AO2 PK WND 29026/1501 SLP102 T10221144'
20180104,1600,DYL,DOYLESTOWN_AIRPORT_(ASOS),40.33,-75.12,21,16,31,,31,18,'KDYL 041636Z AUTO 33016G25KT 1/4SM SN FZFG VV009 M06/M08 A2943 RMK AO2 P0000 T10611078'
20180104,1600,OXB,OCEAN_CITY_MUNI_(ASOS),38.31,-75.12,23,24,43,43,43,21,'KOXB 041553Z AUTO 32021G37KT 1/4SM FZFG VV009 M05/M06 A2941 RMK AO2 PK WND 33037/1545 SLP957 T10501061 PWINO FZRANO'
20180104,1600,HWV,BROOKHAVEN_AIRPORT_(ASOS),40.82,-72.87,26,35,49,52,52,25,'KHWV 041556Z AUTO 35026G45KT 1/2SM SN FZFG VV007 M03/M04 A2920 RMK AO2 PK WND 36045/1551 SNB19 PRESFR SLP888 P0002 T10331039 $'
20180104,1600,MPO,POCONO_MNTS_MUNIL_ARPT_(ASOS),41.14,-75.38,14,29,39,41,41,10,'KMPO 041616Z AUTO 33023G35KT 1SM -SN BR BKN027 OVC037 M10/M12 A2942 RMK AO2 PK WND 33036/1556 PRESFR P0000 T11001117'
20180104,1600,LDM,LUDINGTON/MASON_APRT,43.96,-86.41,10,5,,,,7,'KLDM 041635Z AUTO 00000KT 1/2SM -SN BKN006 OVC010 M12/M14 A3020 RMK AO2 T11181136'
20180104,1600,LKU,LOUISA_COUNTY,38.01,-77.97,25,14,28,,28,7,'KLKU 041635Z AUTO 32017G27KT 290V350 10SM BKN048 BKN120 M04/M14 A2978 RMK AO2 T10351145'
20180104,1600,MOP,MOUNT_PLEASANT_MUNI_APRT,43.62,-84.74,10,13,20,,20,-3,'KMOP 041635Z AUTO 34011G18KT 10SM BKN034 M12/M20 A3014 RMK AO2 T11171200'
20180104,1600,MZH,MOOSE_LAKE,46.42,-92.80,-13,0,,,,-18,'KMZH 041635Z AUTO 00000KT 10SM CLR M23/M28 A3040 RMK AO2'
20180104,1600,NSE,WHITING_FLD_NAS-N.,30.72,-87.02,34,10,20,,20,13,'KNSE 041556Z 33009G17KT 10SM FEW250 01/M11 A3028 RMK AO2 SLP245 FU DSNT NE T00111106 $'
20180104,1600,PGV,PITT-GREENVILLE_APRT,35.63,-77.40,32,7,10,,10,14,'KPGV 041630Z AUTO 30011G14KT 10SM CLR 00/M11 A2980 RMK AO2 P0001'
20180104,1600,RRL,MERRILL_MUNI_AIRPORT,45.18,-89.70,2,5,,,,-5,'KRRL 041635Z AUTO 36007KT 10SM OVC020 M16/M21 A3029 RMK AO2 T11601206'
20180104,1600,TOI,TROY_MUNICIPAL_(ASOS),31.87,-86.02,32,13,,,,12,'KTOI 041553Z AUTO 30011KT 10SM CLR 00/M11 A3022 RMK AO2 SLP234 T00001111'
20180104,1600,DAW,SKYHAVEN_AIRPORT_(ASOS),43.27,-70.92,21,12,23,,23,19,'KDAW 041605Z AUTO 35013G20KT 1/4SM SN FZFG VV008 M06/M07 A2946 RMK AO2 SNB1555 PRESFR P0000 T10611067 $'
20180104,1600,ELZ,WELLSVILLE_MUNI_AIRPORT_(ASOS),42.11,-77.98,15,14,,,,7,'KELZ 041615Z AUTO 33015KT 1 3/4SM -SN SCT015 BKN021 OVC036 M10/M14 A2971 RMK AO2 P0000 T11001144'
20180104,1600,FIG,CLEARFIELD-LAWRENCE_ARPT_(ASOS),41.04,-78.41,17,10,,,,10,'KFIG 041637Z AUTO 32011G20KT 3/4SM -SN VV017 M08/M12 A2974 RMK AO2 P0000 T10831117'
20180104,1600,NYC,NEW_YORK_CITY,40.77,-73.98,23,17,32,31,32,21,'KNYC 041634Z AUTO 34014G27KT 280V020 M1/4SM +SN FZFG VV004 M05/M06 A2935 RMK AO2 PK WND 33027/1633 PRESFR P0007 T10501061 $'
20180104,1600,W99,GRANT_COUNTY_AIRPORT,38.98,-79.13,21,10,18,,18,5,'KW99 041630Z AUTO 31014G23KT 10SM SCT036 BKN044 OVC050 M06/M15 A2982 RMK AO2 T10601152'
20180104,1600,RUQ,ROWAN_COUNTY_AIRPORT,35.65,-80.52,28,16,22,,22,5,'KRUQ 041625Z AUTO 33011G22KT 290V350 10SM CLR M02/M15 A2987 RMK AO2 T10181151'
20180104,1600,DSV,DANSVILLE_MUNI_AIRPORT_(ASOS),42.57,-77.71,19,13,,,,11,'KDSV 041554Z AUTO 33011KT 10SM OVC022 M07/M12 A2982 RMK AO2 SLP116 T10721117'
20180104,1600,CEU,OCONEE_COUNTY_REGL_ARPT_(ASOS),34.67,-82.88,32,15,23,,23,5,'KCEU 041554Z AUTO 31013G20KT 10SM CLR 00/M15 A2994 RMK AO2 SLP144 T00001150'
20180104,1600,BVE,BOOTHVILLE_(ASOS),29.33,-89.40,41,7,,,,23,'KBVE 041551Z AUTO VRB06KT 10SM CLR 05/M05 A3036 RMK AO2 SLP282 T00501050'
20180104,1600,VPC,CARTERSVILLE_AIRPORT_(ASOS),34.13,-84.85,27,8,,,,11,'KVPC 041553Z AUTO 32007KT 280V350 10SM CLR M03/M12 A3013 RMK AO2 SLP205 T10281117'
20180104,1600,MRH,SMITH_FIELD/BEAUFORT_(ASOS),34.73,-76.66,30,21,25,,25,22,'KMRH 041558Z AUTO 30018G22KT 10SM UP CLR M01/M06 A2978 RMK AO2 SLP085 I1004 T10111056 TSNO PNO'
20180104,1600,HBG,CHAIN_MUNICIPAL_AIRPORT_(ASOS),31.27,-89.26,34,9,,,,17,'KHBG 041553Z AUTO 35008KT 10SM CLR 01/M08 A3035 RMK AO2 SLP279 T00111083'
20180104,1600,EXX,LEXINGTON_DAVIDSON_COUNTY_AIRP,35.78,-80.30,29,15,25,,25,5,'KEXX 041625Z AUTO 31007G18KT 270V350 10SM CLR M01/M15 A2986 RMK AO2 T10111155'
20180104,1600,GRD,GREENWOOD_COUNTY_AIRPORT_(ASOS),34.25,-82.16,32,13,17,,17,11,'KGRD 041556Z AUTO 27011G15KT 10SM UP CLR 00/M12 A2996 RMK AO2 UPE03B33 SLP151 P0000 T00001117'
20180104,1600,HKS,HAWKINS_FIELD_(ASOS),32.34,-90.22,32,6,,,,15,'KHKS 041553Z VRB05KT 10SM CLR 00/M09 A3036 RMK AO2 SLP279 T00001094 $'
20180104,1600,IER,NATTCHITOCHES_REGIONAL_AIRPORT,31.74,-93.10,36,7,,,,20,'KIER 041635Z AUTO 09003KT 10SM CLR 02/M07 A3041 RMK AO2 T00211075'
20180104,1600,LGC,LA_GRANGE,33.00,-85.00,32,14,20,,20,10,'KLGC 041635Z AUTO 33010G20KT 10SM CLR 01/M13 A3014 RMK AO2 T00121130'
20180104,1600,OMH,ORANGE_COUNTY_AIRPORT,38.25,-78.05,27,16,31,,31,7,'KOMH 041635Z AUTO 30018G25KT 10SM BKN049 OVC100 M02/M14 A2975 RMK AO2'
20180104,1600,TNB,WATAUGA_CNTY_HOSP_HELIP,36.20,-81.65,11,17,44,,44,0,'KTNB 041635Z AUTO 32016G29KT 5SM HZ CLR M11/M18 A2977 RMK AO2 T11151180'
20180104,1600,UDG,DARLINGTON,34.45,-79.88,33,6,,,,14,'KUDG 041556Z AUTO 29005KT 10SM 01/M10 A2990 RMK AO2 SLP132 T00061100 FZRANO'
20180104,1600,MHCH,CHOLUTECA,13.30,-87.18,86,23,,,,63,'MHCH 041600Z 02020KT 9999 FEW030 30/17 HZ'
20180104,1600,AYS,WAYCROSS/WARE_CO.,31.25,-82.40,36,14,,,,14,'KAYS 041635Z AUTO 29010G15KT 10SM CLR 03/M11 A3008 RMK AO2 T00291107'
20180104,1600,FWN,SUSSEX_AIRPORT_(ASOS),41.18,-74.62,21,8,21,,21,17,'KFWN 041623Z AUTO VRB06G19KT 3/4SM -SN VV016 M06/M09 A2946 RMK AO2 P0001 T10611089'
20180104,1600,IPJ,LINCOLNTON,35.48,-81.16,30,15,23,,23,3,'KIPJ 041630Z AUTO 31012G17KT 280V340 10SM CLR M01/M16 A2990 RMK AO2 T10121162'
20180104,1600,JNX,SMITHFIELD,35.54,-78.38,32,8,18,,18,10,'KJNX 041640Z AUTO 29008KT 210V340 10SM CLR 00/M12 A2982 RMK AO2'
20180104,1600,LZU,LAWRENCEVILLE,33.98,-83.96,28,10,17,,17,10,'KLZU 041556Z 29009G15KT 260V340 10SM CLR M02/M12 A3003 RMK AO2 SLP178 T10221122 $'
20180104,1600,MHSC,SOTO_CANO_AB,14.38,-87.62,70,18,,,,63,'MHSC 041558Z AUTO 35016KT 9999 FEW022 BKN031 OVC060 21/17 A3018 RMK AO2 SLP196 T02100170 $'
20180104,1600,MSSA,SANTA_ANA/EL_PALMAR,13.98,-89.57,77,8,,,,54,'MSSA 041550Z 34007KT CAVOK 25/12 Q1023 A3022'
20180104,1600,MSSS,ILOPANGO/S.SALVADOR,13.70,-89.12,75,13,,,,55,'MSSS 041550Z 36011KT CAVOK 24/13 Q1018 A3009'
20180104,1600,OPN,THOMASTON,32.95,-84.27,32,12,21,,21,3,'KOPN 041635Z AUTO 31015G20KT 10SM CLR 00/M17 A3010 RMK AO2'
20180104,1600,RNH,NEW_RICHMOND,45.15,-92.54,-10,0,,,,-16,'KRNH 041635Z AUTO 04003KT 10SM CLR M22/M25 A3041 RMK AO2 T12171250'
20180104,1600,RYY,MARIETTA,34.01,-84.60,26,15,21,,21,11,'KRYY 041548Z 31013G18KT 10SM CLR M03/M12 A3008 RMK AO2 SLP911 T10331117'
20180104,1600,TDF,ROXBORO,36.28,-78.98,27,17,23,,23,3,'KTDF 041605Z AUTO 31009G21KT 10SM CLR M03/M16 A2983 RMK AO2'
20180104,1600,VUJ,ALBEMARLE,35.42,-80.15,31,18,26,,26,6,'KVUJ 041625Z AUTO 32012G21KT 290V350 10SM CLR M01/M16 A2992 RMK AO2 T10061156'
20180104,1600,WDR,WINDER,33.98,-83.67,32,13,22,,22,9,'KWDR 041635Z AUTO 30013G20KT 10SM CLR 00/M13 A3004 RMK AO1'
20180104,1600,WST,WESTERLY_STATE_ARPT_(ASOS),41.35,-71.80,31,22,33,38,38,30,'KWST 041553Z AUTO 36019G29KT 1/4SM SN FZFG VV005 M01/M01 A2914 RMK AO2 PK WND 36033/1520 SNB12SNEMMB21SNEMMB42 PRESFR SLP869 P0009 T10061011 $'
20180104,1600,BCT,BOCA_RATON_AIRPORT,26.38,-80.11,50,18,,,,25,'KBCT 041555Z 32016KT 10SM CLR 10/-4 A3016'
20180104,1600,BUU,BURLINGTON_MUNI_ARPT,42.68,-88.30,2,9,,,,-9,'KBUU 041635Z AUTO 35008KT 10SM CLR M16/M22 A3031 RMK AO2 T11571219'
20180104,1600,CKV,CLARKSVILLE/OUTLAW_FIELD,36.62,-87.42,13,9,,,,1,'KCKV 041552Z AUTO 30008KT 10SM CLR M11/M17 A3035 RMK AO2 SLP285 T11061172'
20180104,1600,CMY,MCCOY_(USA-AF),43.97,-90.73,-4,0,,,,-9,'KCMY 041635Z AUTO 35004KT 10SM CLR M18/M21 A3039 RMK AO2 T11761213'
20180104,1600,CVX,CHARLEVOIX_MUNI_AIRPORT,45.30,-85.27,0,12,21,,21,-5,'KCVX 041635Z AUTO 36008G17KT 5SM HZ SCT015 BKN020 OVC025 M17/M21 A3027 RMK AO2 T11751211'
20180104,1600,HYX,SAGINAW_CNTY_HW_BROWNE_AIRPORT,43.43,-83.86,5,14,17,,17,-4,'KHYX 041635Z AUTO 35010KT 10SM CLR M15/M20 A3015 RMK AO2'
20180104,1600,ISM,KISSIMMEE_MUNI_AIRPORT,28.29,-81.44,46,12,,,,21,'KISM 041556Z 30010KT 10SM CLR 08/M06 A3017 RMK AO2 SLP219 T00781061'
20180104,1600,JQF,CONCORD,35.38,-80.71,32,13,22,,22,7,'KJQF 041550Z 31011G19KT 10SM CLR 00/M14 A2990'
20180104,1600,MDLR,LA_ROMANA_INTL_ARPT,18.42,-68.95,86,12,,,,77,'MDLR 041600Z 18010KT 9999 SCT022 30/25 Q1016'
20180104,1600,OLV,OLIVE_BRANCH_AIRPORT,34.98,-89.79,18,12,,,,5,'KOLV 041550Z 01010KT 10SM SKC M08/M15 A3036'
20180104,1600,RZN,SIREN/BURNETT_CTY_ARPT,45.82,-92.37,-9,0,,,,-14,'KRZN 041635Z AUTO 00000KT 10SM OVC008 M21/M24 A3042 RMK AO2 T12151244'
20180104,1600,SUA,STUART/WITHAM_FIELD_AIRPORT,27.18,-80.22,48,12,18,,18,25,'KSUA 041555Z 31010G16KT 7SM SKC 09/M04 A3017'
20180104,1600,TTA,SANFORD-LEE_COUNTY_RGNL_AIRPORT,35.58,-79.10,28,9,20,,20,11,'KTTA 041630Z AUTO 31013G22KT 10SM CLR M01/M13 A2984 RMK AO2 T10151127'
20180104,1600,VDF,TAMPA/VANDENBURG_AIRPORT,28.02,-82.35,46,8,,,,30,'KVDF 041635Z AUTO 30008KT 10SM CLR 10/00 A3018 RMK AO2'
20180104,1600,VQQ,CECIL_FIELD_NAS,30.22,-81.88,39,10,,,,16,'KVQQ 041550Z 30009KT 10SM CLR 04/M09 A3011'
20180104,1600,VVG,THE_VILLAGES,28.96,-81.97,41,13,,,,18,'KVVG 041630Z AUTO 13011G18KT 10SM 07/M08 A3005 RMK A01'
20180104,1600,CTZ,CLINTON,34.98,-78.37,31,12,22,,22,12,'KCTZ 041625Z AUTO 27012G16KT 10SM CLR 00/M10 A2984 RMK AO2 T00021103'
20180104,1600,IKK,KANKAKEE,41.06,-87.85,1,12,,,,-8,'KIKK 041635Z AUTO 31008KT 10SM CLR M16/M21 A3031 RMK AO2 T11611213'
20180104,1600,TBR,STATESBORO,32.48,-81.73,36,12,22,,22,10,'KTBR 041635Z AUTO 31016G19KT 10SM CLR 03/M12 A3001 RMK AO2 T00341124'
20180104,1600,1H2,EFFINGHAM,39.07,-88.53,7,8,,,,-1,'K1H2 041635Z AUTO 31007KT 10SM CLR M12/M18 A3039 RMK AO2 T11231176'
20180104,1600,AAA,LINCOLN/LOGAN_CO,40.16,-89.33,0,6,,,,-6,'KAAA 041635Z AUTO 30005KT 10SM CLR M16/M21 A3040 RMK AO2 T11641206'
20180104,1600,C09,MORRIS,41.43,-88.42,0,6,,,,-8,'KC09 041635Z AUTO 32008KT 10SM CLR M17/M21 A3033 RMK AO2 T11681215'
20180104,1600,C75,LACON/MARSHALL_CO,41.02,-89.39,-2,3,,,,-9,'KC75 041635Z AUTO 00000KT 10SM CLR M18/M22 A3038 RMK AO2 T11761222'
20180104,1600,DKB,DE_KALB,41.93,-88.72,-2,8,,,,-9,'KDKB 041635Z AUTO 32009KT 10SM CLR M18/M22 A3032 RMK AO2 T11831220'
20180104,1600,DNV,DANVILLE/VERMILION,40.20,-87.60,-1,16,,,,-8,'KDNV 041635Z AUTO 31011KT 10SM CLR M17/M22 A3028 RMK AO2 T11751216'
20180104,1600,ENL,CENTRALIA,38.52,-89.08,8,9,,,,1,'KENL 041635Z AUTO 31007KT 10SM CLR M12/M17 A3039 RMK AO2 T11191173'
20180104,1600,FDK,FREDERICK_MUNI_APT,39.41,-77.37,25,17,23,,23,12,'KFDK 041547Z 33015G20KT 4SM OVC041 M04/M11 A2976'
20180104,1600,FEP,FREEPORT,42.25,-89.58,-1,7,,,,-9,'KFEP 041635Z AUTO 34005KT 10SM CLR M18/M22 A3036 RMK AO2 T11771220'
20180104,1600,FOA,FLORA,38.67,-88.45,10,9,,,,0,'KFOA 041635Z AUTO 31008KT 10SM CLR M11/M17 A3039 RMK AO2 T11111171'
20180104,1600,FWC,FAIRFIELD,38.38,-88.42,9,0,,,,0,'KFWC 041635Z AUTO 00000KT 10SM CLR M11/M17 A3038 RMK AO1 T11111172'
20180104,1600,GBG,GALESBURG,40.94,-90.43,-3,0,,,,-7,'KGBG 041635Z AUTO 34004KT 10SM BKN120 M18/M21 A3040 RMK AO2 T11781209'
20180104,1600,HSB,HARRISBURG,37.82,-88.55,11,5,,,,2,'KHSB 041635Z AUTO 31007KT 10SM CLR M11/M17 A3040 RMK AO2 T11061166'
20180104,1600,IGQ,CHICAGO_(LANSING),41.54,-87.53,7,12,,,,1,'KIGQ 041635Z AUTO 31010KT 10SM CLR M13/M18 A3029 RMK AO2 T11341176'
20180104,1600,IJX,JACKSONVILLE,39.78,-90.23,2,6,,,,-6,'KIJX 041635Z AUTO 29003KT 10SM CLR M16/M21 A3041 RMK AO2 T11581206'
20180104,1600,JOT,JOLIET_PARK_DISTRICT,41.52,-88.18,4,7,,,,-6,'KJOT 041635Z AUTO 33004KT 10SM CLR M15/M21 A3033 RMK AO2 T11471206'
20180104,1600,LOT,CHICAGO/ROMEOVILLE,41.61,-88.09,4,12,,,,-5,'KLOT 041635Z AUTO 33010KT 10SM CLR M14/M20 A3031 RMK AO2 T11431202'
20180104,1600,MQB,MACOMB,40.52,-90.65,-1,8,,,,-6,'KMQB 041635Z AUTO 34006KT 10SM OVC120 M17/M20 A3043 RMK AO2 T11751205'
20180104,1600,MSAC,ACAJUTLA/SONSONATE,13.57,-89.83,86,1,,,,59,'MSAC 041550Z 28001KT CAVOK 30/15 Q1010 A2983'
20180104,1600,NAK,ANNAPOLIS,38.98,-76.48,26,22,36,41,41,17,'KNAK 041554Z AUTO 31019G31KT 5SM -SN BKN037 OVC047 M03/M08 A2960 RMK AO2 PK WND 33036/1509 UPB09E11SNE09B11 SLP026 P0000 T10331083 $'
20180104,1600,OLY,OLNEY-NOBLE,38.73,-88.18,8,8,,,,-2,'KOLY 041635Z AUTO 30008KT 10SM CLR M12/M19 A3038 RMK AO2 T11211192'
20180104,1600,PNT,PONTIAC,40.92,-88.63,-3,10,,,,-9,'KPNT 041635Z AUTO 31009KT 10SM CLR M18/M22 A3035 RMK AO2 T11831216'
20180104,1600,PPQ,PITTSFIELD,39.63,-90.78,5,3,,,,-3,'KPPQ 041635Z AUTO 34004KT 10SM CLR M14/M19 A3041 RMK AO2 T11401188'
20180104,1600,PRG,PARIS,39.70,-87.67,-1,10,17,,17,-7,'KPRG 041635Z AUTO 30010KT 7SM CLR M17/M20 A3033 RMK AO2 T11701205'
20180104,1600,SAR,SPARTA,38.15,-89.70,9,5,,,,1,'KSAR 041635Z AUTO 30005KT 10SM CLR M12/M17 A3043 RMK AO2 T11201171'
20180104,1600,SJX,BEAVER_ISLAND,45.69,-85.57,2,13,24,,24,-7,'KSJX 041635Z AUTO 03011G15KT 10SM SCT024 SCT029 M17/M22 A3025 RMK AO2 T11681223'
20180104,1600,SLO,SALEM-LECKRONE,38.65,-88.97,9,9,,,,0,'KSLO 041635Z AUTO 31007KT 10SM CLR M12/M18 A3039 RMK AO2 T11171177'
20180104,1600,SUT,SOUTHPORT/BRUNSWICK,33.93,-78.07,31,7,,,,19,'KSUT 041625Z AUTO 31007KT 10SM CLR 00/M08 A2986 RMK AO2 T00001080'
20180104,1600,TAZ,TAYLORVILLE,39.53,-89.33,4,10,,,,-4,'KTAZ 041635Z AUTO 33007KT 10SM CLR M14/M20 A3040 RMK AO2 T11451196'
20180104,1600,TIP,RANTOUL/FRANK_ELLIOT_FLD,40.29,-88.14,-1,8,,,,-8,'KTIP 041635Z AUTO 30008KT 10SM CLR M17/M21 A3032 RMK AO2 T11721210'
20180104,1600,TNCE,FDR_ARPT/ORANJESTAD,17.48,-62.98,84,10,,,,73,'TNCE 041555Z AUTO 11009KT 040V170 //// // ///////// 29/23 Q1017 RE//'
20180104,1600,VYS,PERU,41.35,-89.15,-4,5,,,,-11,'KVYS 041635Z AUTO 32006KT 10SM CLR M19/M23 A3037 RMK AO2 T11901234'
20180104,1600,KACQ,WASECA_MUNI_AIRPORT,44.07,-93.55,3,0,,,,-6,'KACQ 041635Z AUTO 00000KT 10SM SCT043 BKN080 OVC100 M16/M21 A3040 RMK AO2'
20180104,1600,DUH,TOLEDO_SUBURBAN_ARPT,41.74,-83.66,10,10,,,,1,'KDUH 041635Z AUTO 32006G15KT 10SM CLR M11/M17 A3012 RMK AO2 T11141173'
20180104,1600,FPK,FITCH_BEACH_AIRPORT,42.57,-84.81,12,8,,,,4,'KFPK 041635Z AUTO 33009G15KT 10SM SCT024 SCT030 M11/M17 A3011 RMK AO2 T11081170'
20180104,1600,GOV,GRAYLING_AAF_AIRPORT,44.68,-84.73,-1,16,26,,26,-11,'KGOV 041635Z AUTO 35012G19KT 5SM HZ CLR M18/M25 A3014 RMK AO2 T11851250'
20180104,1600,HDC,HAMMOND_MUNI_ARPT,30.52,-90.42,36,6,,,,18,'KHDC 041635Z AUTO 02003KT 10SM CLR 03/M08 A3037 RMK AO2'
20180104,1600,MGN,HARBOR_SPRINGS_AIRPORT,45.43,-84.91,-4,7,,,,-15,'KMGN 041635Z AUTO 35006G15KT 10SM CLR M19/M26 A3023 RMK AO2 T11941260'
20180104,1600,MHNO,GUANAJA,16.47,-86.07,72,18,,,,59,'MHNO 041600Z 34016KT 9999 SCT040 22/15 HZ'
20180104,1600,MTPP,PORT-AU-PRINCE_ARPT,18.57,-72.30,81,6,,,,73,'MTPP 041600Z 09005KT 9000 SCT018 OVC050 27/23 Q1014 A2996'
20180104,1600,MUCF,CIENFUEGOS(CIV/MIL),22.15,-80.40,73,9,,,,61,'MUCF 041550Z 36008KT 320V050 9999 SCT020 23/16 Q1019'
20180104,1600,RPJ,ROCHELLE_MUNI_ARPT/KORITZ_FIELD,41.89,-89.08,-2,10,,,,-9,'KRPJ 041635Z AUTO 34009KT 10SM CLR M18/M22 A3035 RMK AO2 T11801220'
20180104,1600,TUPJ,BEEF_ISL/ROADTOWN,18.45,-64.53,86,9,,,,73,'TUPJ 041600Z 17008KT 9999 BKN019 30/23 Q1017 RMK A3004'
20180104,1600,BGE,BAINBRIDGE/DECATUR_CO_INDUS,30.97,-84.64,37,12,,,,19,'KBGE 041635Z AUTO 31010G15KT 10SM CLR 05/M07 A3019 RMK AO2'
20180104,1600,CPC,COLUMBUS_CNTY_MUNI_ARPT,34.27,-78.71,33,9,,,,12,'KCPC 041625Z AUTO 29003KT 10SM CLR 01/M12 A2986 RMK AO2 T00051119'
20180104,1600,EMV,EMPORIA-GREENSVILLE_RGNL_ARPT,36.69,-77.48,30,14,23,,23,10,'KEMV 041635Z AUTO 29013G21KT 230V320 10SM BKN049 M01/M12 A2976 RMK AO2'
20180104,1600,FKA,PRESTON/FILLMORE_CO_ARPT,43.68,-92.18,-3,5,,,,-9,'KFKA 041635Z AUTO 36004KT 10SM OVC100 M19/M22 A3036 RMK AO2 T11871222'
20180104,1600,GWW,GOLDSBORO-WAYNE_MUNI_ARPT,35.46,-77.96,30,10,17,,17,12,'KGWW 041630Z AUTO 30010G16KT 10SM CLR M01/M11 A2981 RMK AO2 T10081114'
20180104,1600,HNZ,HENDERSON-OXFORD_ARPT,36.36,-78.53,26,18,26,,26,3,'KHNZ 041625Z AUTO 31010G23KT 10SM CLR M03/M17 A2979 RMK AO2 T10351170'
20180104,1600,MDQ,MADISON_CNTY_EXEC_ARPT,34.86,-86.56,21,13,,,,5,'KMDQ 041635Z AUTO 33014KT 10SM CLR M06/M14 A3026 RMK AO2'
20180104,1600,MPZ,MOUNT_PLEASANT_MUNI_AIRPORT,40.95,-91.51,1,5,,,,-6,'KMPZ 041635Z AUTO 34005KT 10SM OVC120 M16/M21 A3043 RMK AO2'
20180104,1600,OKK,KOKOMO(AWOS),40.53,-86.07,8,10,,,,0,'KOKK 041556Z AUTO 28009KT 10SM CLR M13/M18 A3022 RMK AO2 SNB03E16 SLP255 P0000 T11331178 FZRANO'
20180104,1600,PEA,PELLA_MUNI_AIRPORT,41.40,-92.95,3,0,,,,-5,'KPEA 041635Z AUTO 00000KT 10SM CLR M15/M20 A3043 RMK AO2 T11531200'
20180104,1600,SLH,CHEBOYGAN_CNTY_ARPT,45.65,-84.52,-6,8,,,,-13,'KSLH 041635Z AUTO 33009KT 10SM CLR M21/M25 A3023 RMK AO2 T12091252'
20180104,1600,MSSM,SAN_MIGUEL/PAPALON,13.45,-88.12,75,9,,,,57,'MSSM 041550Z 01008KT CAVOK 24/14 Q1014 A2995'
20180104,1600,AWM,WEST_MEMPHIS_MUNI,35.13,-90.23,20,14,21,,21,9,'KAWM 041553Z AUTO 01012G18KT 10SM CLR M07/M13 A3042 RMK AO2 SLP306 T10671128'
20180104,1600,IIB,INDEPENDENCE_MUNICIPAL_AIRPORT,42.45,-91.95,1,3,,,,-7,'KIIB 041635Z AUTO 34004KT 10SM OVC120 M16/M21 A3039 RMK AO2 T11651212'
20180104,1600,LOM,PHILADELPHIA/WINGS_FIELD,40.14,-75.27,21,13,28,,28,18,'KLOM 041635Z AUTO 32012G26KT 290V350 3/4SM OVC010 M06/M08 A2948 RMK AO1'
20180104,1600,VTI,VINTON_VETERANS_MEMORIAL_AIRPARK,42.22,-92.03,2,0,,,,-5,'KVTI 041635Z AUTO 00000KT CLR M16/M20 A3041 RMK AO2 T11611205 PWINO'
20180104,1600,ALX,ALEXANDER_CITY,32.90,-85.95,29,13,17,,17,15,'KALX 041635Z AUTO 31013G19KT 10SM CLR M01/M10 A3017 RMK AO2 T10081102'
20180104,1600,JGG,WILLIAMSBURG,37.23,-76.72,25,20,31,,31,19,'KJGG 041635Z AUTO 32021G27KT 1/2SM OVC006 M04/M07 A2969 RMK AO1 P0001'
20180104,1600,LHZ,LOUISBURG/FRANKLIN_CNTY_ARPT,36.02,-78.33,28,13,21,,21,9,'KLHZ 041625Z AUTO 30011G17KT 270V350 10SM CLR M02/M13 A2982 RMK AO2'
20180104,1600,NEL,LAKEHURST_NAS,40.03,-74.35,24,14,26,31,31,21,'KNEL 041600Z AUTO 33012G23KT M1/4SM FZFG VV004 M04/M06 A2930 RMK AO2 PK WND 35027/1524 SNEMM SLP922 T10441061 PWINO FZRANO PNO $'
20180104,1600,ONZ,DETROIT/GROSSE_ILE,42.10,-83.16,11,12,21,,21,0,'KONZ 041635Z AUTO 34014G20KT 10SM OVC031 M12/M17 A3009 RMK AO2 T11161171'
20180104,1600,W22,BUCKHANNON,39.00,-80.27,14,9,20,,20,7,'KW22 041635Z AUTO 32010G17KT 5SM -SN SCT020 OVC027 M10/M14 A2988 RMK AO2'
20180104,1600,MWCB,GERRARD_SMITH,19.68,-79.88,77,13,,,,64,'MWCB 041600Z 02011KT 9999 SCT018 25/18 Q1018'
20180104,1600,HQU,THOMSON,33.53,-82.52,32,17,24,,24,9,'KHQU 041635Z AUTO 02011G21KT 10SM CLR 01/M13 A3004 RMK AO2 T00091133'
20180104,1600,RHP,ANDREWS-MURPHY_AIRPORT,35.19,-83.86,24,5,,,,8,'KRHP 041625Z AUTO 04007G17KT 10SM SCT039 M04/M14 A3001 RMK AO2 T10441142'
20180104,1600,ASW,WARSAW_MUNI,41.27,-85.83,12,6,,,,7,'KASW 041635Z AUTO 29007KT 10SM OVC025 M10/M14 A3019 RMK AO2'
20180104,1600,MUCC,CANAGUA,22.47,-78.33,73,16,,,,61,'MUCC 041553Z 02014KT 9000 SCT020 23/16 Q1018'
20180104,1600,1A5,FRANKLIN,35.22,-83.42,23,13,23,,23,4,'K1A5 041625Z AUTO 29013G24KT 250V330 10SM CLR M05/M16 A2995 RMK AO2 T10481160'
20180104,1600,CUL,CARMI_MUNI_ARPT,38.09,-88.12,10,0,,,,1,'KCUL 041635Z AUTO 00000KT 10SM CLR M11/M17 A3038 RMK AO2 T11071167'
20180104,1600,DQH,DOUGLAS_MUNI_ARPT,31.48,-82.86,34,12,21,,21,12,'KDQH 041635Z AUTO 29013KT 10SM CLR 02/M11 A3011 RMK AO2'
20180104,1600,EHO,SHELBY_MUNI_ARPT,35.25,-81.60,29,14,21,,21,7,'KEHO 041625Z AUTO 34014G19KT 10SM CLR M01/M16 A2992 RMK AO2 T10141161'
20180104,1600,FFA,KILL_DEVIL_HILLS,36.02,-75.67,26,16,33,,33,25,'KFFA 041620Z AUTO 29017G28KT BKN009 OVC016 M03/M03 A2963 RMK AO2 T10331033 PWINO'
20180104,1600,FYJ,WEST_POINT,37.52,-76.76,24,16,31,,31,16,'KFYJ 041635Z AUTO 30013G20KT 1 3/4SM OVC011 M05/M08 A2970 RMK AO2 T10461076'
20180104,1600,HZX,MC_GREGOR,46.62,-93.31,-11,0,,,,-17,'KHZX 041635Z AUTO 00000KT 10SM CLR M23/M25 A3040 RMK AO2'
20180104,1600,JYL,SYLVANIA,32.65,-81.60,35,13,,,,18,'KJYL 041635Z AUTO 31013G20KT 10SM CLR 03/M08 A3000 RMK AO2 T00281081'
20180104,1600,LUM,MENOMONIE,44.89,-91.86,-7,3,,,,-12,'KLUM 041635Z AUTO 26004KT 10SM SCT003 M19/M22 A3041 RMK AO2 T11941224'
20180104,1600,MBPV,PROVIDENCIALES,21.77,-72.27,77,10,,,,-9999,'MBPV 041600Z 35009KT 9000 SCT012 BKN040 25/// Q1015'
20180104,1600,MDBH,BARAHONA,18.22,-71.10,77,7,,,,75,'MDBH 041600Z 13006KT 8000 VCSH BKN016 BKN300 25/24 Q1016'
20180104,1600,MGR,MOULTRIE,31.08,-83.80,34,12,18,,18,14,'KMGR 041635Z AUTO 26011KT 10SM CLR 02/M10 A3015 RMK AO2'
20180104,1600,RMN,STAFFORD,38.40,-77.46,23,21,26,,26,18,'KRMN 041635Z AUTO 30022G28KT 2 1/2SM -SN BKN015 OVC019 M04/M09 A2976 RMK AO2 T10451089'
20180104,1600,RSV,ROBINSON_MUNI_ARPT,39.02,-87.65,6,9,,,,-1,'KRSV 041635Z AUTO 31009KT 10SM CLR M13/M17 A3036 RMK AO2 T11271172'
20180104,1600,SFY,SAVANNA/TRI-TOWNSHIP_ARPT,42.05,-90.11,0,3,,,,-8,'KSFY 041635Z AUTO 30006KT 10SM CLR M17/M22 A3039 RMK AO2 T11661218'
20180104,1600,TLPC,CASTRIES/VIGIE,14.02,-61.00,84,9,,,,70,'TLPC 041600Z 13008KT 9999 FEW032 29/21 Q1016 NOSIG'
20180104,1600,TLPL,HEWANORRA_INTL_ARPT,13.75,-60.95,84,12,,,,77,'TLPL 041600Z 10010KT 9999 FEW029 29/23 Q1016 NOSIG'
20180104,1600,UKT,QUAKERTOWN_ARPT,40.44,-75.38,19,14,23,,23,18,'KUKT 041635Z AUTO 34015G22KT 3/4SM OVC001 M07/M08 A2948 RMK AO1'
20180104,1600,4A9,FORT_PAYNE,34.47,-85.72,23,,,,,3,'K4A9 041635Z AUTO 10SM CLR M04/M16 A3017 RMK AO2'
20180104,1600,M30,METROPOLIS_MUNICIPAL_ARPT,37.19,-88.75,12,9,,,,1,'KDRM 041615Z AUTO 34004KT 10SM CLR M25/M30 A3022 RMK AO2 T12461297'
20180104,1600,AJG,MOUNT_CARMEL,38.61,-87.73,9,10,,,,0,'KAJG 041635Z AUTO 30009KT 280V340 10SM CLR M11/M18 A3036 RMK AO2 T11151179'
20180104,1600,1P1,PLYMOUTH,43.78,-71.75,10,0,,,,8,'K1P1 041635Z AUTO 30009KT 1/2SM SN OVC003 M08/M09 A2954 RMK AO2 T10821092'
20180104,1600,CIR,CAIRO,37.06,-89.22,12,9,,,,1,'KCIR 041635Z AUTO 01004KT 10SM CLR M10/M17 A3041 RMK AO2 T11021170'
20180104,1600,EZM,EASTMAN,32.21,-83.13,37,15,18,,18,-8,'KEZM 041635Z AUTO 30007G19KT 270V340 10SM CLR 04/M24 A3011 RMK AO2 T00361237'
20180104,1600,FKS,FRANKFORT,44.63,-86.20,12,9,,,,5,'KFKS 041636Z AUTO 35008G17KT 2 1/2SM -SN SCT006 BKN035 OVC040 M11/M16 A3021 RMKAO2 T11101160'
20180104,1600,HSA,BAY_ST._LOUIS,30.37,-89.45,36,10,,,,18,'KHSA 041550Z 01009KT 10SM CLR 02/M08 A3036'
20180104,1600,I16,PINEVILLE,37.60,-81.56,15,,,,,8,'KI16 041635Z AUTO 2 1/2SM -SN M09/M14 A3001 RMK AO2 T10951138'
20180104,1600,HXD,HILTON_HEAD_(AWOS),32.22,-80.70,30,0,,,,21,'KHXD 041550Z 00000KT 10SM SKC M01/M06 A3000 RMK HXD AIRPORT CLOSED. NOTAM 01/009.'
20180104,1600,LNL,LAND_O_LAKES,46.15,-89.21,1,7,,,,-5,'KLNL 041635Z AUTO 35008KT 5SM HZ OVC022 M17/M20 A3025 RMK AO2 T11661204'
20180104,1600,PCZ,WAUPACA,44.33,-89.01,5,7,,,,-6,'KPCZ 041635Z AUTO 33006KT 10SM CLR M13/M21 A3033 RMK AO2 T11351207'
20180104,1600,RCX,LADYSMITH,45.50,-91.00,-4,8,,,,-8,'KRCX 041635Z AUTO 34008KT 10SM OVC020 M18/M20 A3035 RMK AO2 T11811205'
20180104,1600,7N0,N.O_DOWNTOWN_HELIPORT,29.95,-90.08,38,9,,,,15,'K7N0 041556Z AUTO 02008KT 10SM CLR 03/M09 A3038 RMK AO2 SLP288 T00331094'
20180104,1600,RME,GRIFFISS_AFB/ROME,43.23,-75.40,14,5,,,,10,'KRME 041643Z 29005KT 1SM -SN BR BKN022 OVC030 M09/M11 A2971 RMK AO2 P0000 T10891106 RVRNO'
20180104,1600,CGS,COLLEGE_PARK,39.00,-76.92,24,16,29,,29,12,'KCGS 041626Z AUTO 23012G23KT 2SM BKN014 OVC025 M05/M09 A2966 RMK AO1 T10521094'
20180104,1600,GAI,GAITHERSBURG,39.17,-77.17,21,15,29,30,30,15,'KGAI 041630Z AUTO 32012G26KT 300V360 4SM -SN BKN022 OVC029 M06/M09 A2965 RMK AO2 PK WND 30026/1621 P0000 FZRANO'
20180104,1600,2W6,LEONARDTOWN,38.30,-76.55,25,15,31,,31,16,'K2W6 041626Z AUTO 29011G29KT 4SM SCT025 BKN040 OVC045 M05/M08 A2963 RMK AO1'
20180104,1600,FME,ODENTON/TIPTON,39.06,-76.69,25,17,23,,23,14,'KFME 041624Z AUTO 31017G28KT 7SM OVC030 M04/M09 A2966 RMK AO1'
20180104,1600,2G4,ACCIDENT/OAKLAND,39.63,-79.32,9,12,24,,24,5,'K2G4 041635Z AUTO 31011G21KT 3/4SM OVC003 M13/M15 A2964 RMK AO1'
20180104,1600,CGE,CAMBRIDGE,38.56,-76.07,23,24,33,,33,19,'KCGE 041625Z AUTO 31019G30KT 1SM HZ SCT017 BKN024 M04/M07 A2956 RMK A01'
20180104,1600,ESN,EASTON,38.80,-76.07,25,29,39,,39,19,'KESN 041550Z 32025G34KT 1 1/2SM -SN OVC007 M04/M07 A2959'
20180104,1600,W29,STEVENSVILLE,38.97,-76.34,25,,,,,18,'KW29 041625Z AUTO 1SM -SN BKN030 BKN036 OVC060 M04/M09 A2960 RMK AO2 VIS 1/2V2 1/2'
20180104,1600,CBE,CUMBERLAND,39.62,-78.77,,15,23,,23,-9999,'KCBE 041626Z AUTO 33015G21KT 10SM SCT009 SCT016 A2986 RMK AO1'
20180104,1600,3I2,POINT_PLEASANT,38.85,-82.12,18,8,,,,11,'K3I2 041635Z AUTO 27006KT 10SM SCT032 SCT038 SCT044 M07/M13 A3010 RMK AO2 T10701130'
20180104,1600,DBN,DUBLIN,32.54,-82.89,36,14,,,,9,'KDBN 041635Z AUTO 28012G18KT 10SM CLR 03/M13 A3008 RMK AO2'
20180104,1600,3J7,GREENSBORO,33.56,-83.08,32,9,17,,17,12,'K3J7 041635Z AUTO 28008G18KT 10SM CLR 01/M12 A2998 RMK AO2'
20180104,1600,MLJ,MILLEDGEVILLE,33.05,-83.23,34,14,23,,23,14,'KMLJ 041635Z AUTO 31017G20KT 10SM CLR 02/M11 A3005 RMK AO2'
20180104,1600,BQP,BASTROP,32.78,-91.90,33,6,,,,15,'KBQP 041635Z AUTO 01004KT 10SM CLR 02/M10 A3041 RMK AO2 T00201099'
20180104,1600,DRI,DE_RIDDER,30.83,-93.28,36,8,,,,17,'KDRI 041635Z AUTO 05004KT 10SM CLR 04/M09 A3042 RMK AO2 T00391090'
20180104,1600,GAO,GALLIANO,29.43,-90.29,39,6,,,,14,'KGAO 041635Z AUTO 03005KT 10SM CLR 04/M11 A3037 RMK AO2 T00441108'
20180104,1600,ACP,OAKDALE,30.82,-92.67,37,3,,,,18,'KACP 041635Z AUTO 08005KT 10SM CLR 04/M08 A3040 RMK AO2 T00441083'
20180104,1600,UTA,TUNICA,34.68,-90.35,23,15,,,,12,'KUTA 041635Z AUTO 36013G18KT 10SM M03/M13 A3043 RMK AO2 TSNO'
20180104,1600,8A0,ALBERTVILLE,34.26,-86.20,23,14,,,,12,'K8A0 041635Z AUTO 32011KT 10SM CLR M05/M11 A3018 RMK AO2'
20180104,1600,JKA,GULF_SHORES,30.29,-87.67,36,5,,,,15,'KJKA 041635Z AUTO 33007KT 10SM CLR 03/M10 A3028 RMK AO2 T00341102'
20180104,1600,1M4,HALEYVILLE,34.23,-87.63,22,13,,,,9,'K1M4 041556Z AUTO 35011KT 10SM CLR M06/M13 A3028 RMK AO2 SLP277 T10561128'
20180104,1600,M19,NEWPORT,35.60,-91.28,21,10,,,,9,'KVLL 041636Z AUTO 31016G23KT 7SM BKN028 M13/M19 A3012 RMK AO2 T11261190'
20180104,1600,GYH,GREENVILLE,34.76,-82.38,32,0,,,,9,'KGYH 041547Z 00000KT 10SM SKC 00/M13 A2992'
20180104,1600,RCZ,ROCKINGHAM,34.89,-79.76,31,17,24,,24,12,'KRCZ 041620Z AUTO 31013G21KT 10SM CLR 00/M11 A2987 RMK AO2 T10031115'
20180104,1600,GLW,GLASGOW,36.98,-85.90,15,7,,,,5,'KGLW 041635Z AUTO 29006KT 250V310 10SM CLR M08/M15 A3028 RMK AO2 T10811152'
20180104,1600,1A6,MIDDLESBORO,36.61,-83.71,19,13,16,,16,10,'K1A6 041635Z AUTO 36003G14KT 10SM BKN027 BKN038 OVC048 M07/M13 A3014 RMK AO2 T10741133'
20180104,1600,EKQ,MONTICELLO,36.87,-84.83,17,8,,,,6,'KEKQ 041556Z AUTO 31007KT 10SM BKN022 M08/M14 A3023 RMK AO2 SLP267 T10831144'
20180104,1600,UNI,ALBANY,39.20,-82.22,17,9,20,,20,9,'KUNI 041635Z AUTO 30009G18KT 7SM SCT014 BKN026 OVC041 M08/M13 A3007 RMK AO2 T10821129'
20180104,1600,4I3,MOUNT_VERNON,40.33,-82.52,12,13,25,,25,7,'K4I3 041635Z AUTO 31015G20KT 10SM SCT024 M10/M15 A3005 RMK AO2'
20180104,1600,SGH,SPRINGFIELD,39.94,-83.81,12,15,,,,3,'KSGH 041556Z AUTO 34013KT 10SM FEW025 OVC040 M11/M16 A3012 RMK AO2 SNE02 SLP221 P0000 T11111161'
20180104,1600,CFS,CARO,43.45,-83.40,2,15,22,,22,-7,'KCFS 041635Z AUTO 33013G18KT 7SM CLR M16/M21 A3013 RMK AO2 T11631215'
20180104,1600,DRM,DRUMMOND_ISLAND,46.01,-83.74,-13,5,,,,-22,'KDRM 041635Z AUTO 35005KT 10SM CLR M24/M29 A3021 RMK AO2 T12411295'
20180104,1600,RNP,OWOSSO,42.93,-84.16,9,13,21,,21,-1,'KRNP 041635Z AUTO 36009G16KT 10SM BKN027 OVC033 M13/M19 A3013 RMK AO2 T11271190'
20180104,1600,PZQ,ROGERS/PRESQUE_ISLE,45.42,-83.80,0,14,18,,18,-5,'KPZQ 041635Z AUTO 34010G16KT 3SM HZ BKN016 OVC025 M18/M21 A3019 RMK AO2 T11781210'
20180104,1600,LWA,SOUTH_HAVEN,42.35,-86.25,15,6,,,,10,'KLWA 041635Z AUTO 03006KT 1SM -SN OVC005 M09/M12 A3019 RMK AO2 T10941122'
20180104,1600,HAI,THREE_RIVERS,41.94,-85.62,14,6,,,,5,'KHAI 041635Z AUTO 33008KT 10SM BKN048 M09/M15 A3017 RMK AO2 T10921151'
20180104,1600,VLL,TROY/OAKLAND,42.58,-83.13,10,17,24,,24,-1,'KVLL 041636Z AUTO 31016G23KT 7SM BKN028 M13/M19 A3012 RMK AO2 T11261190'
20180104,1600,MJX,TOMS_RIVER,39.93,-74.18,24,21,31,31,31,22,'KMJX 041610Z AUTO 33021G27KT 1/4SM SN FZFG OVC005 M04/M06 A2931 RMK AO2 PK WND 34027/1610 P0000 FZRANO'
20180104,1600,KGBK,MAGNOLIA_(AWOS-3),27.20,-92.20,52,0,20,,20,36,'KGBK 041635Z AUTO 00000KT 10SM BKN037 12/03 A3037 RMK A01'
20180104,1600,KSPR,SHIP_SHOAL_(AWOS-3),28.60,-91.21,43,16,,,,21,'KSPR 041635Z AUTO 03010G16KT 10SM CLR 06/M07 A3038 RMK A01'
20180104,1600,KGUL,GUNNISON_(AWOS-3),27.30,-93.53,55,0,,,,37,'KGUL 041635Z AUTO VRB03G10KT 10SM SCT041 13/03 A3037 RMK A01'
20180104,1600,KDLP,WEST_DELTA_(AWOS-3),29.12,-89.55,39,9,17,,17,21,'KDLP 041635Z AUTO 01010KT 10SM CLR 04/M07 A3035 RMK A01'
20180104,1600,KEHC,EAST_CAMERON_(AWOS-3),28.43,-92.88,57,5,,,,37,'KEHC 041635Z AUTO 02004KT 10SM CLR 14/03 A3035 RMK A01'
20180104,1600,KSCF,SOUTH_MARSH_(AWOS-3),29.12,-91.87,41,12,,,,27,'KSCF 041635Z AUTO 07010KT 10SM CLR 05/M04 A3040 RMK A01'
20180104,1600,KEIR,EUGENE_ISLAND_(AWOS-3),28.63,-91.49,43,13,,,,21,'KEIR 041635Z AUTO 07008KT 10SM 05/M06 A3040 RMK A01'
20180104,1600,KATP,GREEN_CANYON_787_(AWOS-3),27.20,-90.03,52,15,,,,39,'KATP 041635Z AUTO 32012G21KT 10SM SCT037 12/03 A3032 RMK A01'
